name,type,lat,lon,address
Lê Văn Việt General Hospital,Bệnh viện,10.8449288,106.7900007,"387 Đ. Lê Văn Việt, Tăng Nhơn Phú A, Thủ Đức, Thành phố Hồ Chí Minh 715143, Vietnam"
Eastern People Militia Hospital,Bệnh viện,10.8459577,106.7784882,"50 Đ. Lê Văn Việt, Hiệp Phú, Thủ Đức, Thành phố Hồ Chí Minh, Vietnam"
Medical Center 9 District,Bệnh viện,10.8450095,106.79379739999999,"Quarter 2, Le Van Viet street, Tang Nhon Phu A Ward, District 9, Tăng Nhơn Phú A, Thủ Đức, Thành phố Hồ Chí Minh, Vietnam"
Thu Duc City Hospital,Bệnh viện,10.864435499999999,106.7456897,"29 Phú Châu, Tam Phú, Thủ Đức, Thành phố Hồ Chí Minh 70000, Vietnam"
Thu Duc City Medical Center,Bệnh viện,10.8333142,106.7797155,"48A Tăng Nhơn Phú, Tăng Nhơn Phú B, Thủ Đức, Thành phố Hồ Chí Minh, Vietnam"
Phòng khám đa khoa Quận 9,Bệnh viện,10.8167762,106.7700409,"68 Đường số 6, Phước Bình, Thủ Đức, Thành phố Hồ Chí Minh, Vietnam"
Thu Duc General Hospital,Bệnh viện,10.8614915,106.7804391,"64 Lê Văn Chí, Phường Linh Trung, Thủ Đức, Thành phố Hồ Chí Minh, Vietnam"
Bệnh Viện Quận 9 - Đối Diện Bệnh Viện Quận 9 - Lê Văn Việt,Bệnh viện,10.8444136,106.79088039999999,"Tăng Nhơn Phú A, Thủ Đức, Thành phố Hồ Chí Minh, Vietnam"
Bệnh viện đa khoa Quốc Tế Hoàn Mỹ Thủ Đức,Bệnh viện,10.887415599999999,106.77453779999999,"241 Hoàng Cầm, Linh Xuân, Thủ Đức, Thành phố Hồ Chí Minh, Vietnam"
Trung Tâm Y Khoa Diag - Đỗ Xuân Hợp,Bệnh viện,10.818132499999999,106.7731391,"1B Đ. Đỗ Xuân Hợp, Phước Bình, Quận 9, Thành phố Hồ Chí Minh 71209, Vietnam"
Trung Tâm Y Khoa Diag - Lê Văn Việt,Bệnh viện,10.8474556,106.77653269999999,"75 Đ. Lê Văn Việt, Hiệp Phú, Thủ Đức, Thành phố Hồ Chí Minh 71206, Vietnam"
30-4 Hospital,Bệnh viện,10.7591033,106.6730315,"9 Sư Vạn Hạnh, Phường 9, Quận 5, Thành phố Hồ Chí Minh 72712, Vietnam"
Le Van Thinh Hospital,Bệnh viện,10.7825712,106.76910439999999,"130 Lê Văn Thịnh, Phường Bình Trưng Tây, Thủ Đức, Thành phố Hồ Chí Minh, Vietnam"
Hùng Vương Hospital,Bệnh viện,10.7565723,106.66182739999999,"9 Đ. Lý Thường Kiệt, Phường 12, Quận 5, Thành phố Hồ Chí Minh, Vietnam"
Phòng Khám Đa Khoa NHÂN VIỆT,Bệnh viện,10.844368399999999,106.7817535,"189 Đ. Lê Văn Việt, Hiệp Phú, Thủ Đức, Thành phố Hồ Chí Minh, Vietnam"
American International Hospital (AIH),Bệnh viện,10.793733699999999,106.7464567,"199 Nguyễn Hoàng, Phường Bình Trưng Tây, Thủ Đức, Thành phố Hồ Chí Minh, Vietnam"
Hoc Mon Area General Hospital,Bệnh viện,10.8825665,106.593391,"65/2B Bà Triệu, TT. Hóc Môn, Hóc Môn, Thành phố Hồ Chí Minh, Vietnam"
HCMC Oncology Hospital - Branch No. 2,Bệnh viện,10.8703629,106.8093938,"12 Đ. Số 400, Khu phố 3, Thủ Đức, Thành phố Hồ Chí Minh, Vietnam"
Trung Tâm Y Tế Dự Phòng Quận 9,Bệnh viện,10.8296815,106.7763865,"4 Đường Số 22, Khu Phố 4, Thủ Đức, Thành phố Hồ Chí Minh, Vietnam"
Trung Tâm Chăm Sóc Mẹ & Bé Vinhomes Grand Park Q9,Bệnh viện,10.8377208,106.8442142,"29 Đ. V3, khu Manhattan Vinhomes Grand Park, Thủ Đức, Thành phố Hồ Chí Minh 200000, Vietnam"
Nguyen Tat Thanh University - Campus District 9,Trường đại học,10.837874399999999,106.80964279999999,"Đ. Võ Chí Công, Long Thạnh Mỹ, Thủ Đức, Thành phố Hồ Chí Minh, Vietnam"
University of Science - VNUHCM,Trường đại học,10.762835599999999,106.6824824,"227 Nguyễn Văn Cừ, Phường 4, Quận 5, Thành phố Hồ Chí Minh 700000, Vietnam"
HCMC University of Culture - Campus 2,Trường đại học,10.8219275,106.7701967,"288 Đ. Đỗ Xuân Hợp, Phước Long B, Thủ Đức, Thành phố Hồ Chí Minh, Vietnam"
Phân hiệu Trường Đại học GTVT tại Tp. Hồ Chí Minh,Trường đại học,10.845696,106.79417199999999,"450-451 Lê Văn Việt, Phường Tăng Nhơn Phú A, Tăng Nhơn Phú A, Thủ Đức, Thành phố Hồ Chí Minh, Vietnam"
Ho Chi Minh City College of Industry and Trade,Trường đại học,10.8307098,106.77504739999999,"20 Tăng Nhơn Phú, Phước Long B, Thủ Đức, Thành phố Hồ Chí Minh 700000, Vietnam"
Nhà xe - Khu giảng đường - Trường Đại học Giao thông Vận tải - Phân hiệu tại Tp. Hồ Chí Minh,Trường đại học,10.8455386,106.7939289,"RQWV+6H7, Tăng Nhơn Phú A, Quận 9, Thành phố Hồ Chí Minh, Vietnam"
HCMC University of Technology (HCMUT),Trường đại học,10.772075,106.65790179999999,"268 Đ. Lý Thường Kiệt, Phường 14, Quận 10, Thành phố Hồ Chí Minh, Vietnam"
FPT University HCMC,Trường đại học,10.8411276,106.809883,"7 Đ. D1, Long Thạnh Mỹ, Thủ Đức, Thành phố Hồ Chí Minh 700000, Vietnam"
International University - VNU-HCM,Trường đại học,10.8775848,106.8016196,"khu phố 6, TP Thủ Đức, Thành phố Hồ Chí Minh, Vietnam"
Ho Chi Minh City University of Science (Linh Trung Campus),Trường đại học,10.875646099999999,106.7991699,"Khu đô thị ĐHQG-HCM, Khu Phố 6, Thủ Đức, Thành phố Hồ Chí Minh, Vietnam"
HUTECH University - Thu Duc Campus,Trường đại học,10.8557382,106.7856068,"Khu Công nghệ cao XLHN, Hiệp Phú, Thủ Đức, Thành phố Hồ Chí Minh, Vietnam"
University of Sports HCMC,Trường đại học,10.8711373,106.7962683,"Phường Linh Trung, Thủ Đức, Thành phố Hồ Chí Minh, Vietnam"
Phân hiệu Trường Đại học Kiểm sát tại TP. Hồ Chí Minh,Trường đại học,10.8474402,106.7935116,"Đ. 449 Đ. Lê Văn Việt, Tăng Nhơn Phú A, Thủ Đức, Thành phố Hồ Chí Minh 71207, Vietnam"
"Vietnam National University HCM, University of Economics and Law",Trường đại học,10.8704225,106.7783101,"669 QL1A, khu phố 6, Thủ Đức, Thành phố Hồ Chí Minh, Vietnam"
HCMC Univeristy of Technical Education - Campus 2,Trường đại học,10.845037699999999,106.79634539999999,"484 Đ. Lê Văn Việt, Tăng Nhơn Phú A, Thủ Đức, Thành phố Hồ Chí Minh, Vietnam"
HCMC University of Industry and Trade,Trường đại học,10.8061539,106.62866559999999,"140 Lê Trọng Tấn, Tây Thạnh, Tân Phú, Thành phố Hồ Chí Minh, Vietnam"
Đại học Tài chính - Marketing,Trường đại học,10.7521352,106.7199412,"27 Đ. Tân Mỹ, Tân Thuận Tây, Quận 7, Thành phố Hồ Chí Minh, Vietnam"
Posts and Telecommunications Institute of Technology HCM Branch,Trường đại học,10.847987,106.78666469999999,"97 Man Thiện, Hiệp Phú, Thủ Đức, Thành phố Hồ Chí Minh 70000, Vietnam"
University of Architecture HCMC (UAH),Trường đại học,10.7819872,106.69448949999999,"196 Pasteur, Phường 6, Quận 3, Thành phố Hồ Chí Minh, Vietnam"
University of People's Security,Trường đại học,10.8734355,106.8070322,"Km18 XLHN, Phường Linh Trung, Thủ Đức, Thành phố Hồ Chí Minh, Vietnam"
Chợ Hiệp Phú (Chợ Nhỏ cũ),Chợ,10.844375399999999,106.7848463,"265 Đ. Lê Văn Việt, Hiệp Phú, Thủ Đức, Thành phố Hồ Chí Minh, Vietnam"
Chợ Tăng Nhơn Phú A,Chợ,10.8443402,106.7878066,"412/11 Đ. Lê Văn Việt, Tăng Nhơn Phú A, Thủ Đức, Thành phố Hồ Chí Minh, Vietnam"
Chợ Phước Bình - Đại lộ 2,Chợ,10.8173924,106.7720746,"Đại lộ 2, Phước Bình, Quận 9, Thành phố Hồ Chí Minh, Vietnam"
Chợ Hoa Cau,Chợ,10.832154899999999,106.7727039,"40A Đ.Số 147, Phước Long B, Quận 9, Thành phố Hồ Chí Minh 71210, Vietnam"
Chợ đêm Man Thiện,Chợ,10.8496741,106.79596199999999,"228 Man Thiện, Phường Tân Phú, Thủ Đức, Thành phố Hồ Chí Minh, Vietnam"
Nam Cao Market,Chợ,10.8629485,106.7978515,"15 Đ. Nam Cao, Phường Tân Phú, Thủ Đức, Thành phố Hồ Chí Minh, Vietnam"
Chợ chồm hổm Tân Phú,Chợ,10.8675984,106.80638669999999,"VR94+2HJ, Đ. 154, Phường Tân Phú, Thủ Đức, Thành phố Hồ Chí Minh, Vietnam"
Long Thạnh Mỹ Market,Chợ,10.8424179,106.8205426,"227 Nguyễn Văn Tăng, Long Thạnh Mỹ, Thủ Đức, Thành phố Hồ Chí Minh, Vietnam"
Chợ Long Trường,Chợ,10.805921999999999,106.8223529,"RR4C+9W9, Nguyễn Duy Trinh, Long Trường, Thủ Đức, Thành phố Hồ Chí Minh, Vietnam"
Chợ đêm Vinhomes Grand Park,Chợ,10.8403993,106.8436414,"RRQV+WX, Long Bình, Thủ Đức, Thành phố Hồ Chí Minh, Vietnam"
Thu Duc Market,Chợ,10.850273099999999,106.7543013,"6 Đ. Võ Văn Ngân, Trường Thọ, Thủ Đức, Thành phố Hồ Chí Minh, Vietnam"
Long Phuoc Market,Chợ,10.8084572,106.859883,"Long Phước, Thủ Đức, Thành phố Hồ Chí Minh, Vietnam"
Bình Trưng Market,Chợ,10.7887559,106.7556395,"Nguyễn Duy Trinh, Phường Bình Trưng Tây, Thủ Đức, Thành phố Hồ Chí Minh 700000, Vietnam"
Thu Duc Agricultural Product Market,Chợ,10.868741499999999,106.72870719999999,"141 QL1A, Tam Binh, Thủ Đức, Thành phố Hồ Chí Minh, Vietnam"
Chợ tam hà,Chợ,10.8596209,106.7471848,"356 Đ. Tô Ngọc Vân, Tam Phú, Thủ Đức, Thành phố Hồ Chí Minh, Vietnam"
Cay Xoai Market,Chợ,10.777339,106.7664719,"Lê Văn Thịnh, Cát Lái, Thủ Đức, Thành phố Hồ Chí Minh, Vietnam"
Chợ Nguyễn Thông,Chợ,10.7814486,106.67923719999999,"153/8 Nguyễn Thông, Phường 9, Quận 3, Thành phố Hồ Chí Minh, Vietnam"
Thao Dien International Hospital,Bệnh viện,10.8075735,106.7337172,"95/3 Thảo Điền, Thủ Đức, Thành phố Hồ Chí Minh 700000, Vietnam"
VNPT Hospital,Bệnh viện,10.802830499999999,106.7373461,"Bệnh viện Bưu Điện 2 Nguyễn Duy Hiệu, Thảo Điền, Thủ Đức, Thành phố Hồ Chí Minh, Vietnam"
HCMC Otorhinolaryngology Hospital,Bệnh viện,10.7842921,106.6840656,"153 - 155 - 157 Trần Quốc Thảo, Phường 9, Quận 3, Thành phố Hồ Chí Minh, Vietnam"
District 2 Preventive Medicine Center,Bệnh viện,10.7583284,106.76471289999999,"6, Trinh Khac Lap Street, Thanh My Loi Ward, District 2, Phường Thạnh Mỹ Lợi, Thủ Đức, Thành phố Hồ Chí Minh, Vietnam"
Trung Tâm Y Khoa Diag - Trần Não,Bệnh viện,10.7921704,106.730302,"158 Đường Trần Não, Quận 2, Thủ Đức, Thành phố Hồ Chí Minh 71108, Vietnam"
Children's Hospital 2,Bệnh viện,10.780517399999999,106.70323669999999,"14 Lý Tự Trọng, Bến Nghé, Quận 1, Thành phố Hồ Chí Minh, Vietnam"
Phòng Khám Gia Đình Thành Phố Hồ Chí Minh,Bệnh viện,10.8075607,106.7338161,"95, Thảo Điền, Quận 2, Thành Phố Hồ Chí Minh, Thảo Điền, Thủ Đức, Thành phố Hồ Chí Minh, Vietnam"
Vinmec Central Park International Hospital,Bệnh viện,10.7939771,106.72034819999999,"208 Nguyễn Hữu Cảnh, Vinhomes Tân Cảng, Bình Thạnh, Thành phố Hồ Chí Minh 700000, Vietnam"
Hospital Binh Thanh (2nd branch),Bệnh viện,10.793657,106.7092036,"52 Nguyễn Văn Lạc, Phường 19, Bình Thạnh, Thành phố Hồ Chí Minh, Vietnam"
Bệnh viện Đa khoa Bình Thạnh,Bệnh viện,10.7980298,106.6966605,"132 Đ. Lê Văn Duyệt, Phường 1, Bình Thạnh, Thành phố Hồ Chí Minh, Vietnam"
HCMC Dermatology & Venereology Hospital,Bệnh viện,10.776407299999999,106.6865735,"2 Nguyễn Thông, Phường 6, Quận 3, Thành phố Hồ Chí Minh 700000, Vietnam"
Vietnam - Russia International Eye Hospital - HCMC,Bệnh viện,10.7774793,106.6814524,"Đ. 3 Tháng 2/1 Phường Vườn Lài, Phường 10, Quận 10, Thành phố Hồ Chí Minh 70000, Vietnam"
Nhan dan Gia Dinh Hospital,Bệnh viện,10.803747099999999,106.69413879999999,"1 Nơ Trang Long, Phường 7, Bình Thạnh, Thành phố Hồ Chí Minh, Vietnam"
Bệnh viện Đa Khoa Hoàn Mỹ Sài Gòn,Bệnh viện,10.800128599999999,106.684241,"60-60A Phan Xích Long, Phường 1, Phú Nhuận, Thành phố Hồ Chí Minh, Vietnam"
Cho Ray Hospital,Bệnh viện,10.7578646,106.6595131,"201B Nguyễn Chí Thanh, Phường 12, Quận 5, Thành phố Hồ Chí Minh 700000, Vietnam"
Phòng Khám Đa Khoa Quốc Tế An Phú (APH),Bệnh viện,10.7913248,106.7474553,"Lương Định Của, An Phú, Thủ Đức, Thành phố Hồ Chí Minh 71106, Vietnam"
115 People’s Hospital,Bệnh viện,10.773980199999999,106.6660284,"527 Sư Vạn Hạnh, Phường 12, Quận 10, Thành phố Hồ Chí Minh, Vietnam"
The Saigon International University,Trường đại học,10.805501699999999,106.7326092,"8C, 9, 10, 16, 18, 8C Tống Hữu Định, Thảo Điền, Thủ Đức, Thành phố Hồ Chí Minh, Vietnam"
"Saigon International University, Fleming Campus",Trường đại học,10.805689,106.73306989999999,"16 Tống Hữu Định, Thảo Điền, Thủ Đức, Thành phố Hồ Chí Minh, Vietnam"
University of Information Technology - VNUHCM,Trường đại học,10.8700089,106.8030541,"Hàn Thuyên, khu phố 6 P, Thủ Đức, Thành phố Hồ Chí Minh, Vietnam"
HCMC University of Natural Resources and Environment (HCMUNRE),Trường đại học,10.796432,106.66679669999999,"236 Đ. Lê Văn Sỹ, Phường 1, Tân Bình, Thành phố Hồ Chí Minh, Vietnam"
Army Academy 2 (Nguyen Hue University),Trường đại học,10.8768561,106.9578937,"VXG5+P5R, Đường số 6, Tam Phước, Biên Hòa, Đồng Nai, Vietnam"
Nong Lam University,Trường đại học,10.8712764,106.7917617,"VQCR+GP6, khu phố 6, Thủ Đức, Thành phố Hồ Chí Minh, Vietnam"
Ho Chi Minh City University of Transport,Trường đại học,10.8045178,106.7167175,"02 Võ Oanh, Phường 25, Bình Thạnh, Thành phố Hồ Chí Minh, Vietnam"
Trường Đại học Hùng Vương TP HCM,Trường đại học,10.7531129,106.6603519,"736 Nguyễn Trãi, Phường 11, Quận 5, Thành phố Hồ Chí Minh, Vietnam"
Ho Chi Minh City University of Education,Trường đại học,10.761394,106.6821834,"280 An Dương Vương, Phường 7, Quận 5, Thành phố Hồ Chí Minh 720000, Vietnam"
HCMC University of Technology and Education,Trường đại học,10.8506324,106.77191309999999,"01 Đ. Võ Văn Ngân, Linh Chiểu, Thủ Đức, Thành phố Hồ Chí Minh, Vietnam"
Information Technology College HoChiMinh City,Trường đại học,10.7750496,106.6344994,"12 D. Trịnh Đình Thảo, Hòa Thạnh, Tân Phú, Thành phố Hồ Chí Minh 700000, Vietnam"
Vietnamese–German University (VGU),Trường đại học,11.107496999999999,106.61410629999999,"Đ. VĐ 4, Thới Hoà, Bến Cát, Bình Dương 75000, Vietnam"
Posts and Telecommunication Institute of Technology - Ho Chi Minh City Campus,Trường đại học,10.7894399,106.7007287,"11 Nguyễn Đình Chiểu, Đa Kao, Quận 1, Thành phố Hồ Chí Minh, Vietnam"
Binh Khanh Market,Chợ,10.7866123,106.7383018,"Bình Khánh, District 2, Thành phố Hồ Chí Minh, Vietnam"
Thảo Điền Market,Chợ,10.8023306,106.7281289,"Nguyễn Văn Hưởng, Thảo Điền, Thủ Đức, Thành phố Hồ Chí Minh, Vietnam"
Thanh My Loi Market,Chợ,10.7695209,106.7675745,"QQ99+R24, Phường Thạnh Mỹ Lợi, Thủ Đức, Thành phố Hồ Chí Minh, Vietnam"
Chợ Đo Đạc,Chợ,10.7943185,106.7344392,"Đ. Số 7, Khu Phố 4, Thủ Đức, Thành phố Hồ Chí Minh, Vietnam"
District 7 Hospital,Bệnh viện,10.7373313,106.7241657,"101 Đ. Nguyễn Thị Thập, Phường Tân Mỹ, Quận 7, Thành phố Hồ Chí Minh 00700, Vietnam"
FV Hospital,Bệnh viện,10.7325029,106.7180068,"6 Nguyễn Lương Bằng, Phường Tân Mỹ, Quận 7, Thành phố Hồ Chí Minh 70000, Vietnam"
Tam Duc Cardiology Hospital,Bệnh viện,10.7333783,106.71793849999999,"4 Nguyễn Lương Bằng, Phường Tân Mỹ, Quận 7, Thành phố Hồ Chí Minh, Vietnam"
South Saigon International General Hospital,Bệnh viện,10.735866099999999,106.69086709999999,"88 Đường Số 8, Khu dân cư Trung Sơn, Bình Chánh, Thành phố Hồ Chí Minh, Vietnam"
Tân Hưng General Hospital,Bệnh viện,10.7512252,106.6963562,"871 Đ. Trần Xuân Soạn, Tân Hưng, Quận 7, Thành phố Hồ Chí Minh, Vietnam"
Phòng Khám Đa Khoa Quốc Tế Sài Gòn (SIG) - Quận 7,Bệnh viện,10.737843999999999,106.7033359,"441 Đ. Lê Văn Lương, Tân Hưng, Quận 7, Thành phố Hồ Chí Minh 700000, Vietnam"
Đại học RMIT Việt Nam - Cơ sở Nam Sài Gòn,Trường đại học,10.7292848,106.6939146,"Main gate - Cổng chính, 702 Đường Nguyễn Văn Linh, Tân Hưng, Quận 7, Thành phố Hồ Chí Minh 700000, Vietnam"
Ton Duc Thang University,Trường đại học,10.731931399999999,106.6993418,"19 Nguyễn Hữu Thọ, Phường, Quận 7, Thành phố Hồ Chí Minh 758307, Vietnam"
Nguyen Tat Thanh University - Nguyen Huu Tho Campus,Trường đại học,10.7431428,106.7015354,"3F Nguyễn Hữu Thọ, Tân Hưng, Quận 7, Thành phố Hồ Chí Minh, Vietnam"
Trường Đại học Nguyễn Tất Thành cơ sở Nguyễn Văn Quỳ,Trường đại học,10.7372892,106.732068,"38 Nguyễn Văn Quỳ, Phú Thuận, Quận 7, Thành phố Hồ Chí Minh, Vietnam"
Trường đại học CNTT Gia Định,Trường đại học,10.735741899999999,106.7006598,"289/6 Nguyễn Hữu Thọ, Tân Hưng, Quận 7, Thành phố Hồ Chí Minh, Vietnam"
Đại Học Cảnh Sát Nhân Dân,Trường đại học,10.7352904,106.6979719,"36 Nguyễn Hữu Thọ, Tân Hưng, Quận 7, Thành phố Hồ Chí Minh, Vietnam"
Đại học Fulbright Việt Nam,Trường đại học,10.7271261,106.72048869999999,"105 Đ. Tôn Dật Tiên, Tân Phú, Quận 7, Thành phố Hồ Chí Minh, Vietnam"
Nguyen Tat Thanh University,Trường đại học,10.7609859,106.7102319,"Đ. Nguyễn Tất Thành/300A Xóm Chiếu, Phường, Quận 4, Thành phố Hồ Chí Minh 70000, Vietnam"
"Trung tâm Tiếng Trung, Nhật, Hàn (SDTC - Trường Đại học Tôn Đức Thắng)",Trường đại học,10.7329112,106.699159,"19 Đ. Nguyễn Hữu Thọ, Tân Hưng, Quận 7, Thành phố Hồ Chí Minh, Vietnam"
Toà F Đại học Tôn Đức Thắng,Trường đại học,10.730782699999999,106.6988379,"PMJX+8GV, Tân Hưng, Quận 7, Thành phố Hồ Chí Minh, Vietnam"
RMIT Vietnam Academic Building 2,Trường đại học,10.729503699999999,106.6960337,"Main gate - Cổng chính, 702 Đường Nguyễn Văn Linh, Tân Hưng, Quận 7, Thành phố Hồ Chí Minh 700000, Vietnam"
HCMC University of Technology (HUTECH) – Sai Gon Campus,Trường đại học,10.801617499999999,106.71445589999999,"475A Điện Biên Phủ, Phường 25, Bình Thạnh, Thành phố Hồ Chí Minh 70000, Vietnam"
Saigon University - Campus 2,Trường đại học,10.7830382,106.7062212,"4 Tôn Đức Thắng, Bến Nghé, Quận 1, Thành phố Hồ Chí Minh, Vietnam"
RMIT Vietnam Academic Beanland Building,Trường đại học,10.729202299999999,106.69574,"Main gate - Cổng chính, 702 Đường Nguyễn Văn Linh, Tân Hưng, Quận 7, Thành phố Hồ Chí Minh 700000, Vietnam"
Ký túc xá và TT Giáo dục quốc phòng TDTU,Trường đại học,10.730987899999999,106.6978486,"PMJX+94X, Unnamed Road, Tân Hưng, Quận 7, Vietnam"
Saigon Exhibition and Convention Center (SECC),Chợ,10.7306572,106.7213436,"799 Đường Nguyễn Văn Linh, Phường Tân Mỹ, Quận 7, Thành phố Hồ Chí Minh, Vietnam"
Chợ Tân Kiểng 2,Chợ,10.7453922,106.7044688,"239 Đ. Lê Văn Lương, Tân Quy, Quận 7, Thành phố Hồ Chí Minh, Vietnam"
Tan My Market,Chợ,10.736446599999999,106.718317,"258 Đ. Tân Mỹ, Tân Phú, Quận 7, Thành phố Hồ Chí Minh, Vietnam"
Chợ Tân Quy,Chợ,10.7449774,106.7071307,"Số 6, Tân Quy, Quận 7, Thành phố Hồ Chí Minh, Vietnam"
Chợ Phú Thuận,Chợ,10.727841999999999,106.7358742,"Đường Cao Thị Chính, Phú Thuận, Quận 7, Thành phố Hồ Chí Minh, Vietnam"
Chợ Tân Kiểng 1,Chợ,10.7517213,106.7054388,"193 Đ. Trần Xuân Soạn, Tân Kiểng, Quận 7, Thành phố Hồ Chí Minh, Vietnam"
Phuoc Long Open Market,Chợ,10.703772299999999,106.73252939999999,"19 Đường 15B, Phú Mỹ, Quận 7, Thành phố Hồ Chí Minh, Vietnam"
Tan Thuan Market,Chợ,10.756664299999999,106.7221952,"Tân Thuận Đông, Quận 7, Thành phố Hồ Chí Minh, Vietnam"
Chợ đồ cũ Quận 7,Chợ,10.7395015,106.6949671,"1041/62/207, Trần Xuân Soạn, Tân Hưng, Quận 7, Thành phố Hồ Chí Minh, Vietnam"
Hội hoa xuân Phú Mỹ Hưng,Chợ,10.725117599999999,106.7200531,"111 Đ. Tôn Dật Tiên, Tân Phú, Quận 7, Thành phố Hồ Chí Minh, Vietnam"
Ba Hom Market,Chợ,10.739872799999999,106.70560169999999,"338 Đ. Nguyễn Thị Thập, Tân Quy, Quận 8, Thành phố Hồ Chí Minh, Vietnam"
200 Market,Chợ,10.7554992,106.7091744,"Nhà thờ Thánh Giuse (hẻm 183), Xóm Chiếu, Phường 15, Quận 4, Thành phố Hồ Chí Minh 70000, Vietnam"
ĐẢO HẢI SẢN - Tân Mỹ Q7,Chợ,10.7378895,106.71804549999999,"2 Đ. Tân Mỹ, Tân Phú, Quận 7, Thành phố Hồ Chí Minh 70000, Vietnam"
Ben Thanh Market,Chợ,10.7725168,106.6980208,"Phường Bến Thành, Quận 1, Thành phố Hồ Chí Minh, Vietnam"
Fresh Market,Chợ,10.735753899999999,106.73137899999999,"Huỳnh Tấn Phát, Phú Thuận, Quận 7, Thành phố Hồ Chí Minh, Vietnam"
VIFA EXPO - Vietnam International Furniture & Home Accessories Fair,Chợ,10.7310117,106.72167689999999,"799 Đường Nguyễn Văn Linh, Tân Phú, Quận 7, Thành phố Hồ Chí Minh, Vietnam"
Công ty TNHH HOA 18 - HOA18.COM,Chợ,10.7363546,106.71825469999999,"1,2,3,4, 6 Đ. Tân Mỹ, Quận 7, Thành phố Hồ Chí Minh 700000, Vietnam"
District 7,Chợ,10.7385437,106.72936109999999,"Ho Chi Minh City, Vietnam"
Rach Dia Market,Chợ,10.7238235,106.6977082,"143 Hương lộ 34 h, Nhà Bè, Vietnam"
Phu Xuan Market,Chợ,10.6892908,106.73983129999999,"32 Huỳnh Tấn Phát, TT. Nhà Bè, Nhà Bè, Thành phố Hồ Chí Minh 700000, Vietnam"
Van Phuc City Hospital,Bệnh viện,10.842423,106.7116209,"01 Đường 10, Khu nhà ở Vạn Phúc 1, Thủ Đức, Thành phố Hồ Chí Minh 700000, Vietnam"
Bệnh Viện Quận Thủ Đức Khoa Tâm Thể,Bệnh viện,10.863101,106.7459339,"106 Đ. Tam Hà, Tam Phú, Thủ Đức, Thành phố Hồ Chí Minh, Vietnam"
Phòng khám đa khoa Linh Xuân( cơ sở 3 Bệnh Viện Thành Phố Thủ Đức),Bệnh viện,10.8780349,106.7663736,"79 QL1K, Linh Xuân, Thủ Đức, Thành phố Hồ Chí Minh, Vietnam"
Trường Đại học Ngân hàng TP. HCM - Cơ sở Thủ Đức,Trường đại học,10.857514199999999,106.7635152,"56 Đ. Hoàng Diệu 2, Linh Chiểu, Thủ Đức, Thành phố Hồ Chí Minh, Vietnam"
HCMC University of Law,Trường đại học,10.8298954,106.7135529,"123 QL13, Hiệp Bình Chánh, Thủ Đức, Thành phố Hồ Chí Minh, Vietnam"
School of Medicine - VNU-HCM,Trường đại học,10.888324299999999,106.7982759,"16/40 QL1A, Phường Linh Trung, Thủ Đức, Thành phố Hồ Chí Minh, Vietnam"
Đại học Kiến trúc TP.HCM cơ sở Thủ Đức,Trường đại học,10.8416441,106.7642843,"48 Đặng Văn Bi, Bình Thọ, Thủ Đức, Thành phố Hồ Chí Minh, Vietnam"
Thu Duc College of Technology,Trường đại học,10.8514325,106.7580641,"53 Đ. Võ Văn Ngân, Phường, Thủ Đức, Thành phố Hồ Chí Minh, Vietnam"
People's Police University,Trường đại học,10.8581345,106.75577899999999,"179a Đ. Kha Vạn Cân, Linh Chiểu, Thủ Đức, Thành phố Hồ Chí Minh, Vietnam"
Kami Làng Đại Học Thủ Đức,Trường đại học,10.872937199999999,106.79927409999999,"VQFX+5PC, Đông Hoà, Dĩ An, Bình Dương, Vietnam"
Linh Trung Market,Chợ,10.8598126,106.77261779999999,"VQ5F+W2H, Phường Linh Trung, Thủ Đức, Thành phố Hồ Chí Minh 70000, Vietnam"
Chợ Thủ Đức B,Chợ,10.8490307,106.7565932,"8 Đường Số 10, Trường Thọ, Thủ Đức, Thành phố Hồ Chí Minh, Vietnam"
Sante Hospital,Bệnh viện,10.804001999999999,106.7092495,"11A Đinh Bộ Lĩnh, Phường, Bình Thạnh, Thành phố Hồ Chí Minh 700000, Vietnam"
Gia Dinh General Hospital,Bệnh viện,10.820904599999999,106.7048075,"425 - 427 - 429, Nơ Trang Long, Phường Bình Lợi Trung, Bình Thạnh, Thành phố Hồ Chí Minh 700000, Vietnam"
HCMC Oncology Hospital,Bệnh viện,10.8049868,106.6943584,"47 Nguyễn Huy Lượng, Phường 14, Bình Thạnh, Thành phố Hồ Chí Minh, Vietnam"
Bình Thạnh District Medical Center,Bệnh viện,10.8109179,106.6946943,"99/6 Nơ Trang Long, Phường 11, Bình Thạnh, Thành phố Hồ Chí Minh, Vietnam"
Trường Đại học Thủy lợi - Phân hiệu Miền nam,Trường đại học,10.7927156,106.7063343,"2 Trường Sa, Phường 17, Bình Thạnh, Thành phố Hồ Chí Minh 70000, Vietnam"
Trường Đại học Ngoại Thương CS2,Trường đại học,10.8067668,106.7132159,"15 D5, Phường 25, Bình Thạnh, Thành phố Hồ Chí Minh, Vietnam"
HCMC University of Economics and Finance (UEF) - Campus 141,Trường đại học,10.7974775,106.7036443,"145 Điện Biên Phủ, Phường 2, Bình Thạnh, Thành phố Hồ Chí Minh 00700, Vietnam"
Hong Bang International University,Trường đại học,10.8003567,106.7062972,"215 Điện Biên Phủ, Phường Gia Định, Bình Thạnh, Thành phố Hồ Chí Minh 700000, Vietnam"
HCMC University of Fine Arts,Trường đại học,10.8024495,106.69541919999999,"5 Phan Đăng Lưu, Phường 1, Bình Thạnh, Thành phố Hồ Chí Minh, Vietnam"
Van Lang University - Campus 2,Trường đại học,10.812841299999999,106.69430279999999,"233A Đ. Phan Văn Trị, Phường 11, Bình Thạnh, Thành phố Hồ Chí Minh, Vietnam"
HUTECH University - Ung Van Khiem Campus,Trường đại học,10.8095819,106.71500999999999,"31/36 Đ. Ung Văn Khiêm, Phường Thạnh Mỹ Tây, Bình Thạnh, Thành phố Hồ Chí Minh, Vietnam"
Ho Chi Minh City Cadre Academy,Trường đại học,10.8124129,106.7018494,"324 Chu Văn An, Phường 12, Bình Thạnh, Thành phố Hồ Chí Minh, Vietnam"
Tòa nhà A trường đại học giao thông vận tải thành phố Hồ Chí Minh,Trường đại học,10.804590899999999,106.7167748,"RP38+RPJ, Võ Oanh, Phường 25, Bình Thạnh, Thành phố Hồ Chí Minh, Vietnam"
University of Economics HCMC (UEH) - Campus A,Trường đại học,10.783089799999999,106.6947434,"59C Nguyễn Đình Chiểu, Phường 6, Quận 3, Thành phố Hồ Chí Minh, Vietnam"
HUTECH University - Hitech Park Campus,Trường đại học,10.8408075,106.8088987,"Khu Công nghệ cao TP.HCM, Đường D1, P.Long Thạnh Mỹ, Thành phố Hồ Chí Minh, Vietnam"
Du học Hàn Quốc và Hàn Ngữ Monday,Trường đại học,10.8033468,106.71629279999999,"36/39A Nguyễn Gia Trí, Phường 25, Bình Thạnh, Thành phố Hồ Chí Minh 70000, Vietnam"
Foreign Trade University - 2nd Campus,Trường đại học,10.8064582,106.71297609999999,"15 D5, Phường 25, Bình Thạnh, Thành phố Hồ Chí Minh, Vietnam"
BỘ GIÁO DỤC VÀ ĐÀO TẠO ĐẠI HỌC KỸ THUẬT CÔNG NGHỆ,Trường đại học,10.8095819,106.71500999999999,"31/36 Ung Văn Khiêm, P.25,Q.Bình Thạnh, Tp.Hồ Chí Minh, Phường 25, Bình Thạnh, Thành phố Hồ Chí Minh, Vietnam"
Van Thanh Market,Chợ,10.8019179,106.7206853,"181 Hẻm 152 Nguyễn Văn Thương, Phường 25, Bình Thạnh, Thành phố Hồ Chí Minh 700000, Vietnam"
Chợ Phan Văn Trị,Chợ,10.812155599999999,106.6951508,"233a Đ. Phan Văn Trị, Phường 11, Bình Thạnh, Thành phố Hồ Chí Minh, Vietnam"
Thi Nghe Market,Chợ,10.79199,106.70752019999999,"36R Công Trường Hòa Bình, Phường 19, Bình Thạnh, Thành phố Hồ Chí Minh 700000, Vietnam"
Chợ bà chiểu,Chợ,10.8023475,106.69861859999999,"Ba Chieu Market, 39 Diên Hồng, Phường 1, Bình Thạnh, Thành phố Hồ Chí Minh 70000, Vietnam"
Bà Chiểu Market,Chợ,10.802133699999999,106.6986702,"Ba Chieu Market, Đ. Bùi Hữu Nghĩa, Phường 1, Bình Thạnh, Thành phố Hồ Chí Minh 700000, Vietnam"
Chợ Thanh Đa,Chợ,10.8163983,106.7209218,"Chợ Đ. Thanh Đa, Phường 27, Bình Thạnh, Thành phố Hồ Chí Minh, Vietnam"
Chợ bán đồ Second hand,Chợ,10.801364699999999,106.6984755,"RM2X+G9X, Ngô Nhân Tịnh, Phường 1, Bình Thạnh, Thành phố Hồ Chí Minh, Vietnam"
lăng ông bà chiểu,Chợ,10.8026719,106.69751289999999,"4 Phan Đăng Lưu, Phường 14, Bình Thạnh, Thành phố Hồ Chí Minh, Vietnam"
CHỢ BÌNH THÀNH - PHƯỜNG BÌNH TÂN,Chợ,10.8007692,106.5873517,"42/4A, Bình Thành, Bình Hưng Hoà B, Bình Tân, Thành phố Hồ Chí Minh 71914, Vietnam"
Tan Binh Market,Chợ,10.7861046,106.65327699999999,"172 Đ. Lý Thường Kiệt, Phường 8, Tân Bình, Thành phố Hồ Chí Minh 700000, Vietnam"
Binh Tay Market,Chợ,10.7493647,106.65105799999999,"57A Tháp Mười, Phường 2, Quận 6, Thành phố Hồ Chí Minh 700900, Vietnam"
Chợ Phường 25,Chợ,10.8091127,106.714342,"RP57+JPW, Đ. Ung Văn Khiêm, Phường 25, Bình Thạnh, Thành phố Hồ Chí Minh, Vietnam"
Tan Binh Hospital,Bệnh viện,10.7945055,106.65498559999999,"605 Đ. Hoàng Văn Thụ, Phường Tân, sơn nhất, Thành phố Hồ Chí Minh 70000, Vietnam"
Thong Nhat Hospital,Bệnh viện,10.7915151,106.65345389999999,"1 Đ. Lý Thường Kiệt, Phường 7, Tân Bình, Thành phố Hồ Chí Minh 700000, Vietnam"
Tam Anh Hospital - HCMC,Bệnh viện,10.802484999999999,106.6660436,"RM38+5R4, 2B Đ. Phổ Quang, Phường 2, Tân Bình, Thành phố Hồ Chí Minh 700000, Vietnam"
Mỹ Đức General Hospital,Bệnh viện,10.7999169,106.6415827,"4 Đ. Núi Thành, Phường Tân Bình, Tân Bình, Thành phố Hồ Chí Minh 70000, Vietnam"
Binh Tan District Hospital,Bệnh viện,10.7643601,106.6032103,"QJ73+86P, 809 HL2, Bình Trị Đông A, Bình Tân, Thành phố Hồ Chí Minh 100000, Vietnam"
"Marian Hospital Co., Ltd",Bệnh viện,10.789605,106.656719,"118 Bành Văn Trân, Phường 7, Tân Bình, Thành phố Hồ Chí Minh 700000, Vietnam"
1A Hospital,Bệnh viện,10.7885869,106.6533956,"1A Đ. Lý Thường Kiệt, Phường 7, Tân Bình, Thành phố Hồ Chí Minh, Vietnam"
Gaya Hospital Vietnam - South,Bệnh viện,10.7958762,106.6410528,"23-23A-25A1, Trương Công Định, Phường Tân Bình, Tân Bình, Thành phố Hồ Chí Minh, Vietnam"
Khoa Y học cổ truyền - Bệnh viện Tân Bình,Bệnh viện,10.786624699999999,106.65459829999999,"01 Đông Sơn, Phường 7, Tân Bình, Thành phố Hồ Chí Minh, Vietnam"
City International Hospital,Bệnh viện,10.7410166,106.60912499999999,"3 Đường Số 17A, Bình Trị Đông B, Bình Tân, Thành phố Hồ Chí Minh 700000, Vietnam"
Bệnh viện Đa khoa Việt Mỹ tại 655-657-659 Lạc Long Quân,Bệnh viện,10.7800146,106.6498295,"Lạc Long Quân, Phường 10, Tân Bình, Thành phố Hồ Chí Minh 700000, Vietnam"
Bệnh viện mắt Việt,Bệnh viện,10.8018541,106.6456664,"249 Cộng Hòa, Phường Tân Bình, Tân Bình, Thành phố Hồ Chí Minh, Vietnam"
HCMC Orthopedics and Rehabilitation Hospital,Bệnh viện,10.7888141,106.65311559999999,"1A Đ. Lý Thường Kiệt, Phường 7, Tân Bình, Thành phố Hồ Chí Minh, Vietnam"
Trường Đại học Đại học Tài chính - Marketing Cơ sở Nguyễn Trọng Tuyển,Trường đại học,10.798387499999999,106.6683036,"306 Nguyễn Trọng Tuyển, Phường 1, Tân Bình, Thành phố Hồ Chí Minh, Vietnam"
Greenwich Việt Nam,Trường đại học,10.803406899999999,106.6524529,"20 Cộng Hòa, Phường 12, Tân Bình, Thành phố Hồ Chí Minh 700000, Vietnam"
Trường Đại học Văn Hiến (Cơ sở Tân Bình),Trường đại học,10.7841528,106.6426905,"624 Đ. Âu Cơ, Phường 10, Tân Bình, Thành phố Hồ Chí Minh, Vietnam"
Trường Đại học Văn Hiến,Trường đại học,10.784277,106.6413773,"613 Đ. Âu Cơ, Phú Trung, Tân Phú, Thành phố Hồ Chí Minh 700000, Vietnam"
Ly Tu Trong College of Ho Chi Minh City (LTTC),Trường đại học,10.7968444,106.6564178,"390 Đ. Hoàng Văn Thụ, Phường 4, Tân Bình, Thành phố Hồ Chí Minh, Vietnam"
Van Hien University,Trường đại học,10.7998684,106.6478968,"8-10-12-14 Đ. Nguyễn Bá Tuyển, Phường 12, Tân Bình, Thành phố Hồ Chí Minh 70000, Vietnam"
Học Viện Kỹ Thuật Quân Sự,Trường đại học,10.8008115,106.6557163,"71 Cộng Hòa, Phường 4, Tân Bình, Thành phố Hồ Chí Minh, Vietnam"
Swinburne Việt Nam - Cơ sở TP HCM,Trường đại học,10.8162554,106.6689454,"A35 Đ. Bạch Đằng, Phường 2, Tân Bình, Thành phố Hồ Chí Minh 730000, Vietnam"
Đại học Quốc Tế Hồng Bàng - Cơ sở Đầm Sen 1,Trường đại học,10.7697639,106.6342334,"213 Đ. Hòa Bình, Phú Trung, Tân Phú, Thành phố Hồ Chí Minh, Vietnam"
Ha Nam Teachers Training College,Trường đại học,10.778772199999999,106.6559199,"QMH4+G93, Đ. Lý Thường Kiệt, Phu Ly City, Tân Bình, Thành phố Hồ Chí Minh, Vietnam"
HCMC International College,Trường đại học,10.740519299999999,106.616249,"460D Đ. Kinh Dương Vương, An Lạc, Bình Tân, Thành phố Hồ Chí Minh, Vietnam"
HCMC Eco Tech College,Trường đại học,10.7924692,106.6457006,"122 Bàu Cát 2, Phường 12, Tân Bình, Thành phố Hồ Chí Minh, Vietnam"
Học Viện Kỹ Thuật Mật Mã - Miền Nam (KMP),Trường đại học,10.8007864,106.65718389999999,"17A Cộng Hòa, Phường 4, Tân Bình, Thành phố Hồ Chí Minh, Vietnam"
Hoang Hoa Tham Market,Chợ,10.798372599999999,106.64696719999999,"19 Hoàng Hoa Thám, Phường Tân Bình, Tân Bình, Thành phố Hồ Chí Minh, Vietnam"
Vo Thanh Trang Market,Chợ,10.8011701,106.6377552,"15 Đ. Trường Chinh, Phường Tân Bình, Tân Bình, Thành phố Hồ Chí Minh, Vietnam"
Pham Van Hai Market,Chợ,10.794700899999999,106.66285069999999,"Đường Phạm Văn Hai, Phường 1, Tân Bình, Thành phố Hồ Chí Minh 700000, Vietnam"
Chợ Trần Văn Quang,Chợ,10.778653799999999,106.64692799999999,"160 Trần Văn Quang, Phường 10, Tân Bình, Thành phố Hồ Chí Minh, Vietnam"
Market Nguyen Ba Tong,Chợ,10.7916327,106.6476392,"QJRX+M32, Trần Mai Ninh, Phường 11, Tân Bình, Thành phố Hồ Chí Minh, Vietnam"
Chợ Tân Trụ,Chợ,10.8190469,106.63450979999999,"30 Nguyễn Sỹ Sách, Phường 15, Tân Bình, Thành phố Hồ Chí Minh, Vietnam"
Chợ Bàu Cát,Chợ,10.791770699999999,106.6418104,"85 Đ. Nguyễn Hồng Đào, Phường Tân Bình, Tân Bình, Thành phố Hồ Chí Minh, Vietnam"
Nghia Hoa Market,Chợ,10.7870998,106.6595018,"QMP5+RRJ, Đ. Nghĩa Hòa, Phường 7, Tân Bình, Thành phố Hồ Chí Minh, Vietnam"
Tan Binh Exhibition and Convention Center,Chợ,10.7956472,106.6548167,"446 Đ. Hoàng Văn Thụ, Phường 4, Tân Bình, Thành phố Hồ Chí Minh 700000, Vietnam"
Cho Binh Hung Hoa A,Chợ,10.789357899999999,106.60424309999999,"Chiến Lược, Bình Hưng Hoà A, Bình Tân, Thành phố Hồ Chí Minh, Vietnam"
Chợ Tân Phước,Chợ,10.771062599999999,106.6509055,"122 Đ. Âu Cơ, Phường 9, Tân Bình, Thành phố Hồ Chí Minh, Vietnam"
Chợ Tân Trụ,Chợ,10.7960665,106.662725,"66 Đ. Tân Sơn Hoà, Phường 2, Tân Bình, Thành phố Hồ Chí Minh, Vietnam"
Chợ đồ Si,Chợ,10.798055,106.6461952,"QJXW+6FG, Hẻm 15 Hoàng Hoa Thám, Phường Tân Bình, Tân Bình, Thành phố Hồ Chí Minh, Vietnam"
Chợ Đông Kinh,Chợ,10.7906879,106.66119979999999,"QMR6+7FG, Hẻm 242, Phường 5, Tân Bình, Thành phố Hồ Chí Minh, Vietnam"
Tân Định Market,Chợ,10.789876,106.69002549999999,"336 Hai Bà Trưng, Phường Tân Định, Quận 1, Thành phố Hồ Chí Minh, Vietnam"
Chợ Tân Bình - Lý Thường Kiệt,Chợ,10.7859865,106.6536725,"phường 8, Tân Bình, Thành phố Hồ Chí Minh, Vietnam"
Phú Bình Market,Chợ,10.773693999999999,106.6430748,"QJFV+F6G, Bình Phú, Tân Phú, Thành phố Hồ Chí Minh, Vietnam"
BigSale Market - Chợ Phiên Cuối Tuần,Chợ,10.8011076,106.6536512,"20 Cộng Hòa, Phường 4, Tân Bình, Thành phố Hồ Chí Minh, Vietnam"
Hồ Chí Minh Chợ Tân Bình,Chợ,10.7861876,106.6535974,"phường 8, Tân Bình, Thành phố Hồ Chí Minh, Vietnam"
Go Vap Hospital,Bệnh viện,10.8346486,106.6615499,"Đ. Quang Trung/641 Thông Tây Hội, Phường, Gò Vấp, Thành phố Hồ Chí Minh, Vietnam"
Military Hospital 175,Bệnh viện,10.8175099,106.6806615,"Nguyễn Kiệm/786 Đ. Hạnh Thông, Phường, Gò Vấp, Thành phố Hồ Chí Minh, Vietnam"
Hong Duc III Hospital,Bệnh viện,10.833058999999999,106.66453709999999,"32/2 Đ. Thống Nhất, Phường 10, Gò Vấp, Thành phố Hồ Chí Minh, Vietnam"
Bệnh viện quân y 175,Bệnh viện,10.8164482,106.6799163,"80-90 Đ. Nguyễn Thái Sơn, Phường 3, Gò Vấp, Thành phố Hồ Chí Minh, Vietnam"
Bệnh viện Phụ sản Gò Vấp,Bệnh viện,10.8268808,106.6794377,"1 Nguyễn Oanh, Phường 1, Gò Vấp, Thành phố Hồ Chí Minh, Vietnam"
Trường Đại học Trần Đại Nghĩa - truongvietnam.com,Trường đại học,10.836405599999999,106.674465,"189 Nguyễn Oanh, Phường 10, Gò Vấp, Thành phố Hồ Chí Minh, Vietnam"
Industrial University of Ho Chi Minh City,Trường đại học,10.8221589,106.6868454,"Nguyễn Văn Bảo/12 Đ. Hạnh Thông, Phường, Gò Vấp, Thành phố Hồ Chí Minh 700000, Vietnam"
Phân viện Học viện Hành chính Quốc gia tại TP. Hồ Chí Minh,Trường đại học,10.8365349,106.68083209999999,"181 Đ. Lê Đức Thọ, Phường 5, Gò Vấp, Thành phố Hồ Chí Minh 700000, Vietnam"
GDU - TRƯỜNG ĐẠI HỌC GIA ĐỊNH TPHCM,Trường đại học,10.816638099999999,106.67710269999999,"Nguyễn Kiệm/371 Đ. Hạnh Thông, Phường, Gò Vấp, Thành phố Hồ Chí Minh 70000, Vietnam"
Van Lang University - Main Campus,Trường đại học,10.8275396,106.70002579999999,"69/68 Đ. Đặng Thuỳ Trâm, Phường 5, Gò Vấp, Thành phố Hồ Chí Minh 70000, Vietnam"
Trường Đại Học Nội Vụ Hà Nội,Trường đại học,10.8365349,106.68083209999999,"181 Đ. Lê Đức Thọ, Phường 5, Gò Vấp, Thành phố Hồ Chí Minh 011810, Vietnam"
Trường Đại học Gia Định,Trường đại học,10.8171127,106.6770761,"Nguyễn Kiệm/371 Đ. Hạnh Thông, Phường, Gò Vấp, Thành phố Hồ Chí Minh 700000, Vietnam"
Đại học Công nghiệp TP.HCM cơ sở 2,Trường đại học,10.8502685,106.6431415,"53 Đ. Phạm Văn Chiêu, Phường 8, Gò Vấp, Thành phố Hồ Chí Minh, Vietnam"
Đại học Nguyễn Tất Thành - Cơ sở 3,Trường đại học,10.8393693,106.67588789999999,"27A Nguyễn Oanh, Phường 17, Gò Vấp, Thành phố Hồ Chí Minh, Vietnam"
Đại Học Hồng Bàng,Trường đại học,10.8289545,106.68716239999999,"Hẻm 424 Đ. Phan Văn Trị, Phường 5, Gò Vấp, Thành phố Hồ Chí Minh, Vietnam"
Đại học Văn Lang cổng Dương Quảng Hàm,Trường đại học,10.826936199999999,106.6983444,"Hẻm 97 Hẻm 97 Đường số 6, Phường 5, Gò Vấp, Thành phố Hồ Chí Minh, Vietnam"
Van Lang Saigon College,Trường đại học,10.8282366,106.6984488,"80/68 Đ, Dương Quảng Hàm, Phường 5, Gò Vấp, Thành phố Hồ Chí Minh 700000, Vietnam"
Khoa Cơ Khí - IUH,Trường đại học,10.8217172,106.68848179999999,"12 Nguyễn Văn Bảo, Phường 1, Gò Vấp, Thành phố Hồ Chí Minh, Vietnam"
Trường Cao đẳng Miền Nam,Trường đại học,10.844249099999999,106.6476886,"416 Nguyễn Văn Khối, Phường, Gò Vấp, Thành phố Hồ Chí Minh 700000, Vietnam"
HCMC Open University - Campus 1,Trường đại học,10.776328399999999,106.6902291,"97 Võ Văn Tần, Phường 6, Quận 3, Thành phố Hồ Chí Minh 700000, Vietnam"
College of Medicine Hong Duc,Trường đại học,10.835484899999999,106.66139489999999,"5 Đ. Quang Trung, Phường 11, Gò Vấp, Thành phố Hồ Chí Minh, Vietnam"
Liên Thông Đại Học Sư Phạm TPHCM,Trường đại học,10.814780899999999,106.67805919999999,"8A Đ. Nguyễn Thái Sơn, Phường 3, Gò Vấp, Thành phố Hồ Chí Minh 70000, Vietnam"
Chợ Gò Vấp,Chợ,10.823710799999999,106.6869325,"188 Đ.Nguyễn Văn Nghi, Phường 1, Gò Vấp, Thành phố Hồ Chí Minh, Vietnam"
Go Vap Market dining area,Chợ,10.8241312,106.6861926,"RMFP+MF4, Lý Thường Kiệt, Phường 1, Gò Vấp, Thành phố Hồ Chí Minh, Vietnam"
Chợ Thạch Đà,Chợ,10.8503923,106.65293989999999,"Đ. Phạm Văn Chiêu, Phường 8, Gò Vấp, Thành phố Hồ Chí Minh, Vietnam"
Chợ An Nhơn,Chợ,10.8414,106.67736699999999,"394 Đ. Lê Đức Thọ, Khu phố 2, Gò Vấp, Thành phố Hồ Chí Minh, Vietnam"
Chợ Hoàng Mai,Chợ,10.8488861,106.66849239999999,"Phường 15, Gò Vấp, Thành phố Hồ Chí Minh, Vietnam"
Can Cu Market,Chợ,10.8321867,106.6779059,"14/1 Đ. Lê Thị Hồng, Phường 1, Gò Vấp, Thành phố Hồ Chí Minh 700000, Vietnam"
Chợ Hạnh Thông Tây,Chợ,10.8361073,106.65882769999999,"17/1R, Đ. Quang Trung, Phường 11, Gò Vấp, Thành phố Hồ Chí Minh, Vietnam"
Chợ nông sản cầu Trường Đai,Chợ,10.8589308,106.6515817,"1317 Đ. Lê Đức Thọ, Phường 15, Gò Vấp, Thành phố Hồ Chí Minh, Vietnam"
Quang Trung Bridge Market,Chợ,10.8511645,106.637214,"649 Đ. Nguyễn Văn Quá, Đông Hưng Thuận, Quận 12, Thành phố Hồ Chí Minh, Vietnam"
Đại Phúc Food - chợ hải sản - cửa hàng tiện lợi - quán ăn gia đình Gò Vấp,Chợ,10.8365241,106.66583519999999,"220/42 Đ. Thống Nhất, phường, Gò Vấp, Thành phố Hồ Chí Minh 70000, Vietnam"
Cầu Market,Chợ,10.847226899999999,106.63582629999999,"Đ. Tô Ký, Đông Hưng Thuận, Quận 12, Thành phố Hồ Chí Minh, Vietnam"
Don Price Wholesaler,Chợ,10.8383574,106.67430259999999,"167 Đ. Nguyễn Văn Lượng, Phường 10, Gò Vấp, Thành phố Hồ Chí Minh 700000, Vietnam"
Nông sản Việt,Chợ,10.831994499999999,106.6430314,"821 Phạm Văn Bạch, Phường 12, Gò Vấp, Thành phố Hồ Chí Minh 760000, Vietnam"
Gò Vấp Floral Village Park,Chợ,10.841896,106.65614599999999,"191 Đ. Lê Văn Thọ, Phường 8, Gò Vấp, Thành phố Hồ Chí Minh, Vietnam"
GO! Go Vap,Chợ,10.8257882,106.6801198,"792 Nguyễn Kiệm, Phường 3, Gò Vấp, Thành phố Hồ Chí Minh, Vietnam"
Sửa máy bơm nước Tại nhà Phạm Văn Chiêu- Gò Vấp - Điện Cơ Khiêm,Chợ,10.846763,106.645364,"116c Đ. Phạm Văn Chiêu, Thông Tây Hội, Gò Vấp, Thành phố Hồ Chí Minh 70000, Vietnam"
Chợ Hải Sản Online,Chợ,10.8286505,106.69785429999999,"163 Nguyễn Thái Sơn, Phường 5, Gò Vấp, Thành phố Hồ Chí Minh 70000, Vietnam"
Tan Phu District Hospital,Bệnh viện,10.783638,106.6422004,"611 Đ. Âu Cơ, Phú Trung, Tân Phú, Thành phố Hồ Chí Minh, Vietnam"
Tan Phu District Hospital,Bệnh viện,10.7764927,106.6309747,"34 Đ. Trần Văn Giáp, Phú Thạnh, Tân Phú, Thành phố Hồ Chí Minh, Vietnam"
Bệnh viện Đa Khoa Tân phú,Bệnh viện,10.783642,106.6420247,"609 - 611 Đ. Âu Cơ, P, Tân Phú, Thành phố Hồ Chí Minh 735000, Vietnam"
Trường Cao Đẳng Quốc Tế Sài Gòn,Trường đại học,10.7746873,106.6343342,"12 D. Trịnh Đình Thảo, Phường, Tân Phú, Thành phố Hồ Chí Minh 72006, Vietnam"
Hong Bang International University - Tan Phu Office,Trường đại học,10.77046,106.63393479999999,"120 Đ. Hòa Bình, Hòa Thạnh, Tân Phú, Thành phố Hồ Chí Minh, Vietnam"
Trường đại học,Trường đại học,10.778577199999999,106.6268393,"19 Đ. Đỗ Bí, Phú Thạnh, Tân Phú, Hồ Chí Minh, Vietnam"
Chợ Tân Phú,Chợ,10.7911792,106.63629949999999,"2 Nguyễn Bá Tòng, Tân Thành, Tân Phú, Thành phố Hồ Chí Minh, Vietnam"
Chợ TÂN HƯƠNG,Chợ,10.790290899999999,106.6228854,"200 Tân Hương, P. Phú Thuận, Tân Phú, Thành phố Hồ Chí Minh, Vietnam"
Chợ Phú Thọ Hòa,Chợ,10.7840092,106.62558209999999,"QJMG+J64, Đ. Hoàng Ngọc Phách, Phú Thọ Hoà, Tân Phú, Thành phố Hồ Chí Minh, Vietnam"
Chợ Phường 18,Chợ,10.783239,106.62574099999999,"264 Nguyễn Sơn, Phú Thọ Hoà, Tân Phú, Thành phố Hồ Chí Minh, Vietnam"
Chợ Phú Trung,Chợ,10.7738106,106.6432188,"24 Trịnh Đình Trọng, Phường 5, Tân Phú, Thành phố Hồ Chí Minh, Vietnam"
Chợ Hiệp Tân,Chợ,10.7745587,106.6298851,"26 Đ. Lê Thận, Phú Thạnh, Tân Phú, Thành phố Hồ Chí Minh, Vietnam"
Út Trái Cây chợ Sơn Kỳ,Chợ,10.8060534,106.6224673,"Hẻm 37 Đ. Tân Thắng, Sơn Kỳ, Tân Phú, Thành phố Hồ Chí Minh 700000, Vietnam"
Minh Anh International Hospital,Bệnh viện,10.747508999999999,106.6145533,"36 Đường số 1B, Bình Trị Đông B, Bình Tân, Thành phố Hồ Chí Minh, Vietnam"
Southern Agricultural College Ho Chi Minh City Branch,Trường đại học,10.7480811,106.62382389999999,"511 An Dương Vương, An Lạc, Bình Tân, Thành phố Hồ Chí Minh, Vietnam"
Trường Cao Đẳng Y Dược Sài Gòn - CS Bình Hưng Hòa TPHCM,Trường đại học,10.7899909,106.5959192,"1036 Đ. Tân Kỳ Tân Quý, Bình Hưng Hoà, Bình Tân, Thành phố Hồ Chí Minh 76000, Vietnam"
University of Economics Ho Chi Minh City (Nguyen Van Linh Facility),Trường đại học,10.706018,106.6401289,"Khu Chức Năng Số 15, Đô Thị Mới Nam Thành Phố, Phong Phú, Bình Chánh, Thành phố Hồ Chí Minh, Vietnam"
Pasteur Saigon College of Medicine and Pharmacy,Trường đại học,10.7217907,106.60129959999999,"913/3 QL1A, An Lạc, Bình Tân, Thành phố Hồ Chí Minh 700000, Vietnam"
Trường Cao đẳng Bách khoa Sài Gòn - BKC - TPHCM,Trường đại học,10.7486599,106.6137382,"232 Đ. Số 1, Bình Trị Đông B, Bình Tân, Thành phố Hồ Chí Minh, Vietnam"
Trung Tâm Luyện Thi Tuyển Sinh Vào Lớp 10 - Đại Học | NQH Bình Tân,Trường đại học,10.761567999999999,106.62235969999999,"250 Tân Hòa Đông, Bình Trị Đông, Bình Tân, Thành phố Hồ Chí Minh, Vietnam"
Trung Tâm Luyện Thi Tuyển Sinh Vào Lớp 10 - Đại Học | Trung Tâm Anh Ngữ | NQH Hương Lộ 2,Trường đại học,10.7667275,106.60662389999999,"694 HL2, Bình Trị Đông A, Bình Tân, Thành phố Hồ Chí Minh, Vietnam"
Trường Việt Anh (Cơ sở Bình Tân),Trường đại học,10.7537199,106.6046052,"Số 7 đường 38A, Tân Tạo, Bình Tân, Thành phố Hồ Chí Minh 700000, Vietnam"
Kindy City,Trường đại học,10.747822,106.61540439999999,"164 - 166 Đ. Vành Đai Trong, An Lạc A, Bình Tân, Thành phố Hồ Chí Minh 700000, Vietnam"
DU HỌC TRUNG QUỐC - NHẬT BẢN - SCHOLARSHIP.EDU.VN,Trường đại học,10.7447263,106.60852829999999,"139 Đường Số 13B, Bình Trị Đông B, Bình Tân, Thành phố Hồ Chí Minh 700000, Vietnam"
Trường Cao đẳng Nông nghiệp Nam Bộ - Phân hiệu TP.HCM,Trường đại học,10.7482309,106.6220905,"1 Đ. Số 1, An Lạc A, Bình Tân, Thành phố Hồ Chí Minh, Vietnam"
Market Block 2,Chợ,10.7261604,106.60842939999999,"PJG5+F97, An Lạc, Bình Tân, Thành phố Hồ Chí Minh, Vietnam"
Chợ Đầu mối Bình Điền,Chợ,10.702307,106.60862739999999,"Đại lộ Nguyễn Văn Linh, Khu Phố 6, Quận 8, Thành phố Hồ Chí Minh, Vietnam"
Chợ Bà Hom,Chợ,10.7533088,106.5909863,"37 Lộ Tẻ, Tân Tạo A, Bình Tân, Thành phố Hồ Chí Minh, Vietnam"
Chợ Bình Long,Chợ,10.7385367,106.61638409999999,"383/2 Đ. Kinh Dương Vương, An Lạc, Bình Tân, Thành phố Hồ Chí Minh, Vietnam"
Chợ An Lạc,Chợ,10.7420762,106.61999739999999,"357 Đ. Kinh Dương Vương, An Lạc, Bình Tân, Thành phố Hồ Chí Minh, Vietnam"
Chợ Nhỏ,Chợ,10.7901983,106.5902838,"Đ. Liên Khu 5-6, Bình Hưng Hoà B, Bình Tân, Thành phố Hồ Chí Minh, Vietnam"
Chợ Huy Hoàng Gia,Chợ,10.773167299999999,106.62058979999999,"QJFC+758, 449 HL2, Bình Trị Đông, Bình Tân, Thành phố Hồ Chí Minh, Vietnam"
Chợ Bình Trị Đông,Chợ,10.763568699999999,106.6129126,"112 Trương Phước Phan, Bình Trị Đông, Bình Tân, Thành phố Hồ Chí Minh, Vietnam"
Chợ Lê Đình Cẩn,Chợ,10.7598754,106.59517419999999,"233 Lê Đình Cẩn, Tân Tạo, Bình Tân, Thành phố Hồ Chí Minh, Vietnam"
Chợ Bình Long,Chợ,10.782629499999999,106.61693059999999,"33 Đ. số 3, Bình Hưng Hoà A, Bình Tân, Thành phố Hồ Chí Minh 700000, Vietnam"
Kien Duc Market 2,Chợ,10.7287901,106.619981,"PJH9+GX9, An Lạc, Bình Tân, Thành phố Hồ Chí Minh, Vietnam"
Chợ Đêm Bà Hom,Chợ,10.7500539,106.59058999999999,"45 Đ. Số 5, Tân Tạo A, Bình Tân, Thành phố Hồ Chí Minh, Vietnam"
Binh Hung Hoa Market,Chợ,10.78942,106.59567919999999,"QHQW+VMX, Đ. Tân Kỳ Tân Quý, Bình Hưng Hoà, Bình Tân, Thành phố Hồ Chí Minh, Vietnam"
chợ Kiến Đức,Chợ,10.7534672,106.61393389999999,"158 Đường số 19, Bình Trị Đông B, Bình Tân, Thành phố Hồ Chí Minh 700000, Vietnam"
Pham Dang Giang Market,Chợ,10.8176969,106.60439509999999,"Đ. Phạm Đăng Giảng, Bình Hưng Hoà, Bình Tân, Thành phố Hồ Chí Minh, Vietnam"
Tan Dinh Hospital - Branch No. 2,Bệnh viện,10.765051,106.693235,"237 Trần Hưng Đạo, Phường Cô Giang, Quận 1, Thành phố Hồ Chí Minh, Vietnam"
Tân Định General Hospital,Bệnh viện,10.7901324,106.6895943,"338 Hai Bà Trưng, Phường Tân Định, Quận 1, Thành phố Hồ Chí Minh, Vietnam"
Bệnh viện Đa khoa Sài Gòn,Bệnh viện,10.7721693,106.6993921,"125 Lê Lợi, Phường Bến Thành, Quận 1, Thành phố Hồ Chí Minh 700000, Vietnam"
University of Social Sciences and Humanities (USSH-VNUHCM) - HCMC National University,Trường đại học,10.785860699999999,106.7027086,"10-12 Đinh Tiên Hoàng, phường Sài Gòn, Quận 1, Thành phố Hồ Chí Minh, Vietnam"
Van Lang University - Campus 1,Trường đại học,10.7627591,106.69330649999999,"45 Nguyễn Khắc Nhu, Phường Cô Giang, Quận 1, Thành phố Hồ Chí Minh 700000, Vietnam"
Banking University of HCMC - Main Campus,Trường đại học,10.770160299999999,106.7039075,"36 Tôn Thất Đạm, Phường Nguyễn Thái Bình, Quận 1, Thành phố Hồ Chí Minh, Vietnam"
Saigon University,Trường đại học,10.7599171,106.6822583,"273 An Dương Vương, Phường, Chợ Quán, Thành phố Hồ Chí Minh 700000, Vietnam"
HCMC Open University - Campus 2,Trường đại học,10.761147099999999,106.6923099,"37 Hồ Hảo Hớn, Phường Cô Giang, Quận 1, Thành phố Hồ Chí Minh, Vietnam"
Hoa Sen University,Trường đại học,10.7700877,106.6923949,"8 Nguyễn Văn Tráng, Phường Bến Thành, Quận 1, Thành phố Hồ Chí Minh 700000, Vietnam"
University of Economics HCMC - Campus E,Trường đại học,10.790410699999999,106.6993687,"54 Nguyễn Văn Thủ, Đa Kao, Quận 1, Thành phố Hồ Chí Minh, Vietnam"
HCMC Open University - Campus 4,Trường đại học,10.7903963,106.7005621,"2 Mai Thị Lựu, Đa Kao, Quận 1, Thành phố Hồ Chí Minh, Vietnam"
Trường Đại Học Sài Gòn - Khoa Sư Phạm Mầm Non,Trường đại học,10.7836235,106.7069945,"1 Nguyễn Hữu Cảnh, Bến Nghé, Quận 1, Thành phố Hồ Chí Minh, Vietnam"
Cơ Sở Trường Đại Học Nội Vụ Cơ Sở Trường Đại Học Nội Vụ Hà Nội Tại Thành Phố Hồ Chí Minh Hà Nội Tại Thành Phố Hồ Chí Minh,Trường đại học,10.7903275,106.6994629,"89 Nguyễn Văn Thủ, Đa Kao, Quận 1, Thành phố Hồ Chí Minh 70000, Vietnam"
Đại học sư phạm thành phố hồ chí minh,Trường đại học,10.775777399999999,106.70408409999999,"80 Đồng Khởi, Bến Nghé, Quận 1, Thành phố Hồ Chí Minh, Vietnam"
The University of Theatre and Cinema Ho Chi Minh City,Trường đại học,10.765725699999999,106.6897254,"125 Đ. Cống Quỳnh, Phường Nguyễn Cư Trinh, Quận 1, Thành phố Hồ Chí Minh, Vietnam"
Law University of HCMC,Trường đại học,10.7674758,106.7056752,"2 Đ. Nguyễn Tất Thành, Phường 13, Quận 4, Thành phố Hồ Chí Minh, Vietnam"
University of Economics HCMC - Campus D,Trường đại học,10.7916937,106.68839899999999,"196 Trần Quang Khải, Phường Tân Định, Quận 1, Thành phố Hồ Chí Minh, Vietnam"
HCMC Conservatory of Music,Trường đại học,10.7741828,106.6950945,"112 Nguyễn Du, Phường Bến Thành, Quận 1, Thành phố Hồ Chí Minh, Vietnam"
Ton That Dam Old Market,Chợ,10.771554,106.7031813,"Tôn Thất Đạm, Bến Nghé, Quận 1, Thành phố Hồ Chí Minh 700000, Vietnam"
"Russian Market, Ho Chi Minh",Chợ,10.780473599999999,106.70016389999999,"125 Hai Bà Trưng, Bến Nghé, Quận 1, Thành phố Hồ Chí Minh 700000, Vietnam"
Thái Bình Market,Chợ,10.7667302,106.6886914,"Đ. Cống Quỳnh, Phường Phạm Ngũ Lão, Quận 1, Thành phố Hồ Chí Minh, Vietnam"
Cay Thi Market,Chợ,10.779826,106.6964296,"107 Pasteur, Bến Nghé, Quận 1, Thành phố Hồ Chí Minh, Vietnam"
Co Giang Market,Chợ,10.7626408,106.6946598,"110 Cô Giang, Phường Cô Giang, Quận 1, Thành phố Hồ Chí Minh, Vietnam"
hội chợ Hello Weekend,Chợ,10.7767473,106.69282869999999,"55B Nguyễn Thị Minh Khai, Phường Bến Thành, Quận 1, Thành phố Hồ Chí Minh, Vietnam"
Ben Thanh Mart,Chợ,10.7720706,106.6983101,"171 Lê Thánh Tôn, Phường Bến Thành, Quận 1, Thành phố Hồ Chí Minh, Vietnam"
CHỢ ĐAKAO,Chợ,10.792544999999999,106.69660119999999,"QMVW+2JF, Nguyễn Huy Tự, Đa Kao, Quận 1, Thành phố Hồ Chí Minh, Vietnam"
Ho Thi Ky Flower Market,Chợ,10.7653897,106.67700509999999,"Hẻm 52 Hồ Thị Kỷ, Phường 1, Quận 10, Thành phố Hồ Chí Minh 700000, Vietnam"
Vuon Chuoi Market,Chợ,10.772959799999999,106.684595,"428 Nguyễn Đình Chiểu, Phường 4, Quận 3, Thành phố Hồ Chí Minh, Vietnam"
The Box Concept,Chợ,10.782097199999999,106.69748109999999,"37 Nguyễn Thị Minh Khai, Bến Nghé, Quận 1, Thành phố Hồ Chí Minh 700000, Vietnam"
Cửa Tây Chợ Bến Thành,Chợ,10.772286099999999,106.6976988,"23 Phan Chu Trinh, Phường Bến Thành, Quận 1, Thành phố Hồ Chí Minh, Vietnam"
Nguyen Tien,Chợ,10.7756587,106.7004238,"Bến Nghé, Quận 1, Thành phố Hồ Chí Minh, Vietnam"
Cho Oc Hai Nam seafood restaurant,Chợ,10.7916834,106.6974278,"47 Nguyễn Văn Giai, Đa Kao, Quận 1, Thành phố Hồ Chí Minh 90000, Vietnam"
Ong Lanh Bridge Market,Chợ,10.7741279,106.6674671,"525/11A Sư Vạn Hạnh, Phường 12, Quận 10, Thành phố Hồ Chí Minh 72510, Vietnam"
Trung My Tay General Hospital,Bệnh viện,10.860610999999999,106.6307806,"111 Đ. Dương Thị Mười, Tân Chánh Hiệp, Quận 12, Thành phố Hồ Chí Minh 700000, Vietnam"
Hong Duc II Hospital,Bệnh viện,10.8533049,106.70429279999999,"259 An Phú Đông 3, An Phú Đông, Quận 12, Thành phố Hồ Chí Minh, Vietnam"
Anh Dung 1 Hospital,Bệnh viện,10.8763072,106.6468859,"4 Đ. Nguyễn Ảnh Thủ, Hiệp Thành, Quận 12, Thành phố Hồ Chí Minh, Vietnam"
Preventive Health Center District 12,Bệnh viện,10.874354199999999,106.63907329999999,"495 Đ. Dương Thị Mười, Hiệp Thành, Quận 12, Thành phố Hồ Chí Minh, Vietnam"
Phòng khám đa khoa Chợ Cầu Quận 12,Bệnh viện,10.8455625,106.6330625,"748 Đ. Nguyễn Văn Quá, Đông Hưng Thuận, Quận 12, Thành phố Hồ Chí Minh, Vietnam"
Phòng Khám Đa Khoa Phú Long,Bệnh viện,10.8863477,106.6829143,"22/3 Hà Huy Giáp, Thạnh Lộc, Quận 12, Thành phố Hồ Chí Minh, Vietnam"
"Trung tâm y tế dự phòng q12 - khoa tham vấn,hổ trợ HIV",Bệnh viện,10.8670453,106.67477199999999,"79 Tô Ngọc Vân, KP5, Quận 12, Thành phố Hồ Chí Minh, Vietnam"
Tam Tri Saigon General Hospital,Bệnh viện,10.8317366,106.6218418,"171 Đ. Trường Chinh, Tân Thới Nhất, Thành phố Hồ Chí Minh, 71510, Vietnam"
Hủ tiếu mì bệnh viện quận 12 (quán Phố đêm),Bệnh viện,10.8600512,106.6307099,"VJ6J+27G, Tân Chánh Hiệp, Quận 12, Thành phố Hồ Chí Minh, Vietnam"
Lưu Tâm Medicine Clinic,Bệnh viện,10.8344171,106.6202452,"255 Đ. Trường Chinh, Tân Thới Nhất, Quận 12, Thành phố Hồ Chí Minh, Vietnam"
PHÒNG KHÁM ĐA KHOA 118- CHI NHÁNH CÔNG TY TNHH TRUNG TÂM XÉT NGHIỆM Y KHOA THUỶ NHI,Bệnh viện,10.844743399999999,106.6210377,"7C3-8C3, Đ. DD5, Quận 12, Thành phố Hồ Chí Minh 70000, Vietnam"
PHÒNG KHÁM ĐA KHOA AN SƯƠNG,Bệnh viện,10.8325786,106.6155785,"57 Đ. Tân Thới Nhất 1, Tân Thới Nhất, Quận 12, Thành phố Hồ Chí Minh, Vietnam"
Hoang Anh Dung Medical Center,Bệnh viện,10.8763201,106.6470743,"31/4D Đ. Nguyễn Ảnh Thủ, Hiệp Thành, Quận 12, Thành phố Hồ Chí Minh, Vietnam"
Phòng khám đa khoa Tâm Phúc,Bệnh viện,10.866838099999999,106.6151312,"1C Đ. Nguyễn Ảnh Thủ, Trung Mỹ Tây, Quận 12, Thành phố Hồ Chí Minh, Vietnam"
Phòng Khám Nội Nhi,Bệnh viện,10.865446799999999,106.6867645,"88 Đ. Thạnh Lộc 15, Thạnh Lộc, Quận 12, Thành phố Hồ Chí Minh, Vietnam"
Nguyen Tat Thanh University - Campus District 12,Trường đại học,10.8598029,106.6946237,"Đỗ Mười/331A-331B An Phú Đông 10, An Phú Đông, Quận 12, Thành phố Hồ Chí Minh, Vietnam"
University of Labour and Social Affairs,Trường đại học,10.8669557,106.61790409999999,"1018 Đ. Tô Ký, Tân Chánh Hiệp, Quận 12, Thành phố Hồ Chí Minh 70000, Vietnam"
Van Hien University,Trường đại học,10.8610259,106.67551879999999,"2A2 QL1A, Thạnh Xuân, Quận 12, Thành phố Hồ Chí Minh, Vietnam"
TRƯỜNG ĐẠI HỌC GIAO THÔNG VẬN TẢI TP.HCM [CƠ SỞ 3],Trường đại học,10.8657455,106.6181179,"70 Đ. Tô Ký, Tân Chánh Hiệp, Quận 12, Thành phố Hồ Chí Minh, Vietnam"
Nguyen Tat Thanh University (An Phu Dong Campus),Trường đại học,10.8598939,106.7065509,"1165 QL1A, An Phú Đông, Quận 12, Thành phố Hồ Chí Minh, Vietnam"
Ho Chi Minh City University of Foreign Languages - Information Technology (HUFLIT) - Hoc Mon Campus,Trường đại học,10.8653321,106.6006639,"806 Lê Quang Đạo, Trung Mỹ Tây, Quận 12, Thành phố Hồ Chí Minh, Vietnam"
Đại Học Từ Xa Trực Tuyến,Trường đại học,10.8732062,106.6551882,"Đ. Lê Thị Riêng, Thới An, Quận 12, Thành phố Hồ Chí Minh 700000, Vietnam"
Trường Cao đẳng Giao thông Vận tải TP. HCM,Trường đại học,10.857735499999999,106.60984359999999,"8 Đ. Nguyễn Ảnh Thủ, Trung Mỹ Tây, Quận 12, Thành phố Hồ Chí Minh 700000, Vietnam"
College Radio - Television 2,Trường đại học,10.8479928,106.63032109999999,"1 Đông Hưng Thuận 27, Đông Hưng Thuận, Quận 12, Thành phố Hồ Chí Minh, Vietnam"
Trường Cao đẳng Kinh tế - Công nghệ Tp.Hồ Chí Minh - truongvietnam.com,Trường đại học,10.8569468,106.6798297,"138 Hà Huy Giáp, Thạnh Lộc, Quận 12, Thành phố Hồ Chí Minh 71515, Vietnam"
Hoa Sen University (Campus Quang Trung 1),Trường đại học,10.856710699999999,106.63015539999999,"Đường số 5, CVPM, Quang Trung, Phường 14, Quận 12, Thành phố Hồ Chí Minh, Vietnam"
Tân Chánh Hiệp Market,Chợ,10.859603199999999,106.6180452,"Đ. Tô Ký, Tân Chánh Hiệp, Quận 12, Thành phố Hồ Chí Minh, Vietnam"
Thanh Xuan Market,Chợ,10.8800552,106.67808289999999,"12 Tô Ngọc Vân, KP5, Quận 12, Thành phố Hồ Chí Minh, Vietnam"
Chợ An Sương,Chợ,10.846007499999999,106.62117479999999,"42/2 Tổ17 KP4, Trung Mỹ Tây, Quận 12, Thành phố Hồ Chí Minh, Vietnam"
Khanh An Pagoda Temporary Market,Chợ,10.8601168,106.70522419999999,"VP64+23X, An Phú Đông, Quận 12, Thành phố Hồ Chí Minh, Vietnam"
Chợ Lạc Quang,Chợ,10.8337294,106.61805369999999,"RJM9+F6V, Hẻm 265 Đ. Trường Chinh, Khu Phố 2, Quận 12, Thành phố Hồ Chí Minh, Vietnam"
Chợ Hạt Điều,Chợ,10.8677133,106.63554459999999,"468 Đ. Dương Thị Mười, Tân Thới Hiệp, Quận 12, Thành phố Hồ Chí Minh, Vietnam"
Sửa máy bơm nước quận 12 - Gia Lộc,Chợ,10.8625321,106.64089419999999,"69/9 Tân Thới Hiệp 6, Tân Thới Hiệp, Quận 12, Thành phố Hồ Chí Minh, Vietnam"
Hoc Mon Agricultural Products Wholesale Market,Chợ,10.860085399999999,106.60131469999999,"14/7A Nguyễn Thị Sóc, Xuân Thới Đông, Hóc Môn, Thành phố Hồ Chí Minh 700000, Vietnam"
Sugar Market Park,Chợ,10.896540199999999,106.6891474,"VMWQ+JM6, Hà Huy Giáp, Thạnh Lộc, Quận 12, Thành phố Hồ Chí Minh, Vietnam"
Ngã Ba Bầu Market,Chợ,10.8701841,106.6152975,"Trịnh Thị Miếng, Tân Chánh Hiệp, Hóc Môn, Thành phố Hồ Chí Minh, Vietnam"
Hải Sản Tuấn Anh,Chợ,10.8575542,106.61696239999999,"Bis 25 419, Phan Văn Hùm, Trung Mỹ Tây, Quận 12, Thành phố Hồ Chí Minh, Vietnam"
Chợ Đồ Cũ Lớn Nhất TP.HCM,Chợ,10.8639823,106.68101809999999,"694/49 QL1A, P, Quận 12, Thành phố Hồ Chí Minh, Vietnam"
Minh Chien Second-hand Market,Chợ,10.864005899999999,106.6811716,"694/49 QL1A, Thạnh Lộc, Quận 12, Thành phố Hồ Chí Minh, Vietnam"
Vựa Hải Sản Biển Đảo,Chợ,10.8623601,106.63245769999999,"161 Đ. Dương Thị Mười, Tân Thới Hiệp, Quận 12, Thành phố Hồ Chí Minh, Vietnam"
Hóc Môn Market,Chợ,10.888904499999999,106.5966826,"Lý Nam Đế, Khu Phố 6, Hóc Môn, Thành phố Hồ Chí Minh 700000, Vietnam"
Cửa hàng nhựa Thảo Hà,Chợ,10.845615299999999,106.6210904,"DN5/16c3 Cho An Suong, Đông Hưng Thuận, Quận 12, Thành phố Hồ Chí Minh, Vietnam"
Vựa Mía Cần Thơ Cô Út,Chợ,10.871585099999999,106.64387939999999,"15 Đ. Nguyễn Thị Đặng, Hiệp Thành, Quận 12, Thành phố Hồ Chí Minh, Vietnam"
Nhà Bè General Hospital,Bệnh viện,10.7044461,106.704459,"281A Đ. Lê Văn Lương, Ấp 3, Nhà Bè, Thành phố Hồ Chí Minh 70000, Vietnam"
Bệnh viện Nhà Bè (mới),Bệnh viện,10.704327099999999,106.70544249999999,"281A Đ. Lê Văn Lương, Phường, Nhà Bè, Thành phố Hồ Chí Minh 70000, Vietnam"
Trung tâm Y tế Huyện Nhà Bè,Bệnh viện,10.6768164,106.7354282,"1 Đường số 18, Ấp 1, Nhà Bè, Thành phố Hồ Chí Minh, Vietnam"
City Open University. Ho Chi Minh (campus 3),Trường đại học,10.6754047,106.6906695,"Khu dân cư, Nhà Bè, Thành phố Hồ Chí Minh, Vietnam"
Trường Đại học Sư phạm Thể dục Thể thao TP. Hồ Chí Minh,Trường đại học,10.675403099999999,106.69066389999999,"Unnamed Road, Nhơn Đức, Nhà Bè, Thành phố Hồ Chí Minh, Vietnam"
Trường Đại học Tài nguyên & Môi trường TP Hồ Chí Minh - Cơ sở Nhà Bè,Trường đại học,10.6778703,106.6923078,"MMHR+5Q7, Nhơn Đức, Nhà Bè, Thành phố Hồ Chí Minh, Vietnam"
Chợ Dân Sinh Nhà Bè,Chợ,10.6974244,106.7390307,"1806 Huỳnh Tấn Phát, TT. Nhà Bè, Nhà Bè, Thành phố Hồ Chí Minh 73200, Vietnam"
Ba Choi Market,Chợ,10.650653499999999,106.7298721,"MP2H+7W9, Đ. Nguyễn Văn Tạo, Long Thới, Nhà Bè, Thành phố Hồ Chí Minh, Vietnam"
Chợ Bờ Băng,Chợ,10.6770436,106.7493179,"MPGX+RP8, Nguyễn Bình, Phú Xuân, Nhà Bè, Thành phố Hồ Chí Minh, Vietnam"
Chợ Tạm Phước Kiển,Chợ,10.7153906,106.70073169999999,"143 Đ. Lê Văn Lương, Phước Kiển, Nhà Bè, Thành phố Hồ Chí Minh, Vietnam"
Chợ Lô Đất,Chợ,10.6826257,106.7533041,"MQM3+383, Lô Đất, Phú Xuân, Nhà Bè, Thành phố Hồ Chí Minh, Vietnam"
Ha Dong Hospital,Bệnh viện,20.9713174,105.7745386,"XQCF+GWV, 2 P. Bế Văn Đàn, P. Quang Trung, Hà Đông, Hà Nội 100000, Vietnam"
Thien Duc Hospital,Bệnh viện,20.9686774,105.78677959999999,"207 Đ. Phùng Hưng, P. Phúc La, Hà Đông, Hà Nội, Vietnam"
Tue Tinh Hospital,Bệnh viện,20.984472,105.7928951,"2 Đ. Trần Phú, P. Đại Mỗ, Hà Đông, Hà Nội 100000, Vietnam"
Bệnh Viện Đa Khoa 16A - Hà Đông,Bệnh viện,20.969157199999998,105.7874382,"P. Nguyễn Sơn Hà, P. Phúc La, Hà Đông, Hà Nội, Vietnam"
Bệnh Viện Da Liễu Hà Nội,Bệnh viện,20.9699645,105.7732321,"20 P. Bế Văn Đàn, P. Quang Trung, Hà Đông, Hà Nội 11550, Vietnam"
Military Hospital 103,Bệnh viện,20.9675412,105.7891425,"Bệnh viện Quân y 103, Số 261 Đ. Phùng Hưng, P. Phúc La, Hà Đông, Hà Nội, Vietnam"
Bệnh Viện Phụ Sản Hà Nội cơ sở 3,Bệnh viện,20.9722235,105.7766012,"10 Đ. Quang Trung, P. Quang Trung, Hà Đông, Hà Nội, Vietnam"
Trường Đại học Kiến trúc Hà Nội,Trường đại học,20.9805574,105.7891549,"57 P. Đại An, P. Văn Quán, Hà Đông, Hà Nội, Vietnam"
Nguyen Trai University,Trường đại học,20.963087299999998,105.76411759999999,"28A Đ. Lê Trọng Tấn, Hà Cầu, Hà Đông, Hà Nội 100000, Vietnam"
Dai Nam University,Trường đại học,20.9476712,105.75778849999999,"1 Xốm, Phú Lâm, Hà Đông, Hà Nội 100000, Vietnam"
Phenikaa University,Trường đại học,20.962611199999998,105.7486864,"P. Nguyễn Trác, Yên Nghĩa, Hà Đông, Hà Nội, Vietnam"
TRUNG VUONG UNIVERSITY,Trường đại học,20.9790317,105.7856461,"102 Đ. Trần Phú, P. Mộ Lao, Hà Đông, Hà Nội 760000, Vietnam"
Hanoi University,Trường đại học,20.9891582,105.7956571,"Km9 Đ. Nguyễn Trãi, P. Văn Quán, Nam Từ Liêm, Hà Nội, Vietnam"
Trường Đại Học Sư Phạm Nghệ Thuật Trung Ương,Trường đại học,20.983675299999998,105.79385769999999,"18 Ng. 55 Đ. Trần Phú, Trần Phú, Hà Đông, Hà Nội, Vietnam"
Foreign Trade University,Trường đại học,21.023032999999998,105.805437,"91 P. Chùa Láng, Láng Thượng, Đống Đa, Hà Nội, Vietnam"
Hanoi Medical University,Trường đại học,21.0035569,105.8306303,"1 P. Tôn Thất Tùng, Kim Liên, Đống Đa, Hà Nội, Vietnam"
CMC University,Trường đại học,20.980057199999997,105.7663783,"84C P. Nguyễn Thanh Bình, Vạn Phúc, Hà Đông, Hà Nội 100000, Vietnam"
Đại học Đông Đô,Trường đại học,20.9990232,105.8066807,"60B Nguyễn Huy Tưởng, Thanh Xuân Trung, Thanh Xuân, Hà Nội, Vietnam"
Hanoi University Of Culture,Trường đại học,21.023450099999998,105.8225669,"418 Đ. La Thành, Chợ Dừa, Đống Đa, Hà Nội, Vietnam"
Hanoi National University of Education,Trường đại học,21.0374663,105.7833679,"136 Đ. Xuân Thủy, Dịch Vọng Hậu, Cầu Giấy, Hà Nội 100000, Vietnam"
Phuong Dong University,Trường đại học,21.0158941,105.7939823,"171 P. Trung Kính, Yên Hoà, Cầu Giấy, Hà Nội, Vietnam"
"University of Science, Vietnam National University Hanoi",Trường đại học,20.995872199999997,105.8079772,"334 Đ. Nguyễn Trãi, Thanh Xuân Trung, Thanh Xuân, Hà Nội, Vietnam"
Vietnam University Of Traditional Medicine,Trường đại học,20.9847279,105.7925659,"2 Đ. Trần Phú, P. Mộ Lao, Hà Đông, Hà Nội 100000, Vietnam"
Hanoi Procuratorate School,Trường đại học,20.9686395,105.746833,"59 ngõ 230 Đường Ỷ La, Dương Kinh, Hà Đông, Hà Nội, Vietnam"
Thuyloi University,Trường đại học,21.007158699999998,105.8248052,"175 P. Tây Sơn, Trung Liệt, Đống Đa, Hà Nội 116705, Vietnam"
Political Academy,Trường đại học,20.974122299999998,105.7691078,"124 Quyền, P. Quang Trung, Hà Đông, Hà Nội, Vietnam"
Trường Cao đẳng Kinh tế - Kỹ thuật Thương mại,Trường đại học,20.942863499999998,105.7561947,"126 Xốm, Phú Lâm, Hà Đông, Hà Nội, Vietnam"
Hà Đông Market,Chợ,20.969892899999998,105.77968469999999,"P. Lê Lợi, P. Quang Trung, Hà Đông, Hà Nội, Vietnam"
Chợ đồ cũ Vạn Phúc,Chợ,20.9828667,105.77308289999999,"69 P. Tố Hữu, Vạn Phúc, Hà Đông, Hà Nội 10000, Vietnam"
Chợ Vạn Phúc Hà Đông,Chợ,20.9788469,105.7751894,"Đường Vạn Phúc, Vạn Phúc, Hà Đông, Hà Nội 12100, Vietnam"
Mỗ Lao Market,Chợ,20.980016799999998,105.78268279999999,"63 Đường 18M, Khu đô thị Mỗ Lao, Hà Đông, Hà Nội, Vietnam"
Chợ Đầu Mối Vạn Phúc Hà Đông,Chợ,20.9798415,105.76688019999999,"XQH8+WQJ, Vạn Phúc, Hà Đông, Hà Nội, Vietnam"
Chợ Đầu Mối Thủy Sản La Khê,Chợ,20.9724005,105.75382649999999,"La Khê, Hà Đông, Hà Nội, Vietnam"
E Hospital,Bệnh viện,21.050339599999997,105.7888586,"87-89 Đ. Trần Cung, Nghĩa Tân, Cầu Giấy, Hà Nội 100000, Vietnam"
Ha Noi Traditional Medicine Hospital,Bệnh viện,21.0342727,105.7797935,"8 Đ. Phạm Hùng, Mai Dịch, Cầu Giấy, Hà Nội, Vietnam"
19 - 8 Hospital Ministry of Public Security,Bệnh viện,21.0333918,105.77849069999999,"Số 9 P. Trần Bình, Mai Dịch, Cầu Giấy, Hà Nội, Vietnam"
Hanoi Medical University Hospital Clinic in Cau Giay district,Bệnh viện,21.0351602,105.7910653,"10 P. Trương Công Giai, Dịch Vọng, Cầu Giấy, Hà Nội, Vietnam"
Phòng khám ĐKQT Thu Cúc TCI Trần Duy Hưng,Bệnh viện,21.0082882,105.79569989999999,"216 Đ. Trần Duy Hưng, Trung Hoà, Cầu Giấy, Hà Nội 100000, Vietnam"
Vietnam - Russia Ha Noi International Eye Hospital,Bệnh viện,21.0388958,105.79355559999999,"9 P. Nguyễn Đỗ Cung, Làng Quốc tế Thăng Long, Cầu Giấy, Hà Nội, Vietnam"
National Institute of Hematology and Blood Transfusion (NIHBT),Bệnh viện,21.0251113,105.78875359999999,"5 P. Phạm Văn Bạch, Phường, Cầu Giấy, Hà Nội 100000, Vietnam"
Đa khoa Quốc tế Việt - Nga,Bệnh viện,21.0388759,105.7936819,"Số 4-5 C2, Làng Quốc tế Thăng Long, Cầu Giấy, Hà Nội, Vietnam"
PHÒNG KHÁM ĐA KHOA MEDLATEC VIỆT NAM,Bệnh viện,21.0317538,105.7827684,"2 Ng. 82 P. Duy Tân, Dịch Vọng Hậu, Cầu Giấy, Hà Nội 100000, Vietnam"
"Hospital Of Vietnam National University, Hanoi",Bệnh viện,20.9910686,105.7967429,"182 Lương Thế Vinh, Thanh Xuân Bắc, Thanh Xuân, Hà Nội, Vietnam"
Phòng khám Đa khoa Tâm Anh Cầu Giấy,Bệnh viện,21.0342996,105.7947241,"265 Đ. Cầu Giấy, Dịch Vọng, Cầu Giấy, Hà Nội 11300, Vietnam"
Y Cao Clinic Cầu Giấy,Bệnh viện,21.0346515,105.7959937,"8 Ng. 260 Đ. Cầu Giấy, Quan Hoa, Cầu Giấy, Hà Nội, Vietnam"
Khoa khám chữa bệnh theo yêu cầu và Quốc tế - Bệnh viện E,Bệnh viện,21.0506039,105.7895063,"89 Đ. Trần Cung, Nghĩa Tân, Cầu Giấy, Hà Nội, Vietnam"
Yên Hòa Medical Clinic,Bệnh viện,21.0222002,105.7863787,"P. Yên Hòa, Yên Hoà, Cầu Giấy, Hà Nội, Vietnam"
Phuong Dong General Hospital,Bệnh viện,21.071116,105.7765072,"9 P. Viên, Phường Đông Ngạc, Bắc Từ Liêm, Hà Nội 100000, Vietnam"
Thu Cuc International General Hospital,Bệnh viện,21.0450412,105.814358,"286 Đ. Thụy Khuê, Bưởi, Tây Hồ, Hà Nội 100000, Vietnam"
Bệnh Viện Giao Thông Vận Tải,Bệnh viện,21.0243386,105.8032578,"169 Huỳnh Thúc Kháng, Láng Hạ, Đống Đa, Hà Nội, Vietnam"
"Hội Chữ Thập Đỏ Quận Cầu Giấy, số 4 Đ. Phạm Hùng, Mai Dịch, Cầu Giấy, Hà Nội",Bệnh viện,21.0354638,105.7799003,"số 4 Đ. Phạm Hùng, Mai Dịch, Cầu Giấy, Hà Nội, Vietnam"
Thanh Chân Clinic,Bệnh viện,21.007696,105.803468,"Số 6 P. Nguyễn Thị Thập, Trung Hoà, Cầu Giấy, Hà Nội 123061, Vietnam"
Bệnh viện Quốc tế Mặt Trời,Bệnh viện,21.0642289,105.79038609999999,"Văn An, Khu Ngoại giao đoàn, Bắc Từ Liêm, Hà Nội 10000, Vietnam"
VNU University of Engineering and Technology,Trường đại học,21.038238399999997,105.782679,"144 Đ. Xuân Thủy, Dịch Vọng Hậu, Cầu Giấy, Hà Nội 10000, Vietnam"
Hanoi Metropolitan University,Trường đại học,21.036317999999998,105.8014939,"98 phố Dương Quảng Hàm, Nghĩa Đô, Cầu Giấy, Hà Nội, Vietnam"
Đại Học Quốc Gia Hà Nội,Trường đại học,21.036854899999998,105.78229139999999,"144 Đ. Xuân Thủy, Dịch Vọng Hậu, Cầu Giấy, Hà Nội 11300, Vietnam"
VNU University of Medicine and Pharmacy,Trường đại học,21.0403748,105.78132339999999,"144 Đ. Xuân Thủy, Dịch Vọng Hậu, Cầu Giấy, Hà Nội 10000, Vietnam"
Thuongmai University,Trường đại học,21.0365464,105.77494469999999,"79 Đ. Hồ Tùng Mậu, Mai Dịch, Nam Từ Liêm, Hà Nội 122868, Vietnam"
University of Transport and Communications,Trường đại học,21.0281545,105.8034205,"3 Đ. Cầu Giấy, Ngọc Khánh, Đống Đa, Hà Nội, Vietnam"
VNU School of Economics,Trường đại học,21.0380912,105.78282469999999,"144 Đ. Xuân Thủy, Dịch Vọng Hậu, Cầu Giấy, Hà Nội, Vietnam"
University of Labour & Social Affairs (ULSA),Trường đại học,21.0122519,105.8022477,"43 Đ. Trần Duy Hưng, Trung Hoà, Cầu Giấy, Hà Nội, Vietnam"
University of Languages & International Studies (ULIS),Trường đại học,21.0392424,105.78181409999999,"Đ. Phạm Văn Đồng, Dịch Vọng Hậu, Cầu Giấy, Hà Nội, Vietnam"
Trường Đại học Khoa học và Công nghệ Hà Nội (USTH),Trường đại học,21.048081699999997,105.80123619999999,"18 Hoàng Quốc Việt, Nghĩa Đô, Cầu Giấy, Hà Nội, Vietnam"
University of Theater and Performing Arts of Hanoi,Trường đại học,21.040476599999998,105.77552019999999,"2QRG+56R, Khu văn hóa nghệ thuật, Ng. 76 P. Mai Dịch, Mai Dịch, Cầu Giấy, Hà Nội, Vietnam"
Trường Đại học Tài chính - Ngân hàng Hà Nội,Trường đại học,21.031979,105.7870257,"31 P. Dịch Vọng Hậu, Dịch Vọng Hậu, Cầu Giấy, Hà Nội, Vietnam"
Trường Đại học Thương Mại,Trường đại học,21.0438485,105.7742955,"136 P. Trần Vỹ, Mai Dịch, Cầu Giấy, Hà Nội, Vietnam"
"G2 auditorium, University of Engineering and Technology - Vietnam National University",Trường đại học,21.037954499999998,105.7833733,"144 Đ. Xuân Thủy, Dịch Vọng Hậu, Cầu Giấy, Hà Nội, Vietnam"
Ho Chi Minh National Academy of Politics,Trường đại học,21.0450749,105.7883916,"135 Đ. Nguyễn Phong Sắc, Nghĩa Tân, Cầu Giấy, Hà Nội, Vietnam"
University of Law - Vietnam National University,Trường đại học,21.0379556,105.7824437,"Nhà E1, 144 Đ. Xuân Thủy, Dịch Vọng Hậu, Cầu Giấy, Hà Nội, Vietnam"
Greenwich Việt Nam,Trường đại học,21.023871699999997,105.79043379999999,"2 P. Phạm Văn Bạch, Yên Hoà, Cầu Giấy, Hà Nội 100000, Vietnam"
Chợ Trung Kính,Chợ,21.013095999999997,105.79961639999999,"P. Trung Kính, Trung Hoà, Cầu Giấy, Hà Nội, Vietnam"
Trung Hòa Market,Chợ,21.0113363,105.79805719999999,"Ng. 43 P. Trung Kính, Trung Hoà, Cầu Giấy, Hà Nội, Vietnam"
Chợ Nghĩa Tân,Chợ,21.0448844,105.794136,"P. Nghĩa Tân, Nghĩa Tân, Cầu Giấy, Hà Nội 11308, Vietnam"
Chợ Tốt Làng MDRT,Chợ,21.0464593,105.7952394,"106 Hoàng Quốc Việt, Nghĩa Đô, Cầu Giấy, Hà Nội 100000, Vietnam"
Chợ Cóc Hoa Bằng,Chợ,21.026132399999998,105.7964167,"2QGW+FH3, Yên Hoà, Cầu Giấy, Hà Nội, Vietnam"
Chợ Nam Trung Yên,Chợ,21.013272999999998,105.78869759999999,"Khu đô thị Nam Trung Yên, Cầu Giấy, Hà Nội, Vietnam"
Chợ Nhà Xanh,Chợ,21.0371049,105.7860054,"P. Phan Văn Trường, Dịch Vọng Hậu, Cầu Giấy, Hà Nội 100000, Vietnam"
Chợ Đồng Xa,Chợ,21.0426817,105.77445069999999,"241 Mai Dịch, Cầu Giấy, Hà Nội, Vietnam"
Chợ Nghĩa Đô,Chợ,21.0519631,105.807465,"Tòa nhà C.E Group, 8, số 10 Ngách 24/3, Nghĩa Đô, Cầu Giấy, Hà Nội, Vietnam"
Chợ Cầu Giấy,Chợ,21.030307,105.8008266,"2RJ2+48G, Đ. Cầu Giấy, Quan Hoa, Cầu Giấy, Hà Nội, Vietnam"
Chợ Quan Hoa,Chợ,21.034809,105.799898,"2QMX+WXR, Dương Quảng Hàm, Quan Hoa, Cầu Giấy, Hà Nội, Vietnam"
Chợ Cầu Diễn,Chợ,21.041686499999997,105.759934,"26b Ng. 31 Đ. Cầu Diễn, Cầu Diễn, Bắc Từ Liêm, Hà Nội 00000, Vietnam"
Chợ Mỹ Đình,Chợ,21.0311219,105.77783769999999,"P. Trần Bình, Mỹ Đình, Nam Từ Liêm, Hà Nội, Vietnam"
Chợ Đồng Xa,Chợ,21.0427663,105.77418039999999,"Mai Dịch, Cầu Giấy, Hanoi, Vietnam"
Cầu Giấy,Chợ,21.0276005,105.790872,"Hanoi, Vietnam"
Chợ Cóc Chính Kinh,Chợ,20.9999103,105.8115844,"P. Chính Kinh, Thanh Xuân Trung, Thanh Xuân, Hà Nội, Vietnam"
Nhân Chính Market,Chợ,21.0020356,105.80654349999999,"40 Ng. 116 P. Nhân Hòa, Nhân Chính, Thanh Xuân, Hà Nội 100000, Vietnam"
UCA Mart,Chợ,21.022647799999998,105.78878879999999,"số 6 P. Dương Đình Nghệ, Yên Hoà, Cầu Giấy, Hà Nội, Vietnam"
Chợ Quê Restaurant,Chợ,21.008955399999998,105.8036668,"1 Ng. 163 P. Hoàng Ngân, Trung Hoà, Cầu Giấy, Hà Nội 100000, Vietnam"
chợ đêm mai dịch,Chợ,21.0409254,105.7748755,"35, Hà Nội 100000, Vietnam"
Hong Ngoc Hospital - Phuc Truong Minh,Bệnh viện,21.008998,105.76945429999999,"8 Đ. Châu Văn Liêm, Phường, Nam Từ Liêm, Hà Nội 12013, Vietnam"
Southern Thanglong Hospital,Bệnh viện,21.0792239,105.7860285,"38 Đ. Tân Xuân, Xuân Đỉnh, Bắc Từ Liêm, Hà Nội, Vietnam"
Bệnh Viện Thể Thao Việt Nam,Bệnh viện,21.0230332,105.7617377,"Bệnh viện Thể Thao, P. Đỗ Xuân Hợp, Mỹ Đình, Nam Từ Liêm, Hà Nội, Vietnam"
Nam Tu Liem District Medical Center,Bệnh viện,21.0387755,105.765884,"Khu Liên Cơ, Mỹ Đình, Nam Từ Liêm, Hà Nội, Vietnam"
Bệnh Viện Đa khoa Chữ Thập Xanh,Bệnh viện,21.031418199999997,105.77397599999999,"33 P. Nguyễn Hoàng, Mỹ Đình, Nam Từ Liêm, Hà Nội, Vietnam"
Phenikaa University Hospital,Bệnh viện,21.0387433,105.7509932,"Trịnh Văn Bô, Xuân Phương, Nam Từ Liêm, Hà Nội 10000, Vietnam"
Vinmec Smart City International Hospital,Bệnh viện,21.007438,105.74731919999999,"Tây Mỗ, Nam Từ Liêm, Hà Nội, Vietnam"
Bệnh viện Quốc tế DoLife,Bệnh viện,21.0332509,105.7715896,"108 P. Nguyễn Hoàng, Mỹ Đình, Nam Từ Liêm, Hà Nội, Vietnam"
Traditional Medicine Police Hospital,Bệnh viện,20.9960397,105.7894721,"278 Lương Thế Vinh, Trung Văn, Nam Từ Liêm, Hà Nội, Vietnam"
Bệnh viện Đặng Văn Ngữ,Bệnh viện,20.9924581,105.7935337,"245 Lương Thế Vinh, Đại Mỗ, Nam Từ Liêm, Hà Nội 100000, Vietnam"
Phoenix Health & Spa - Trị liệu Dưỡng Sinh,Bệnh viện,21.0347008,105.76031119999999,"P. Hàm Nghi, Vinhomes Gadenia, Nam Từ Liêm, Hà Nội 100000, Vietnam"
Bệnh viện PNK toà B,Bệnh viện,21.038529999999998,105.751671,"2QQ2+7XM, Kiều Mai, Bắc Từ Liêm, Hà Nội, Vietnam"
Bệnh viện Đại Học Phenikaa cổng Kiều Mai,Bệnh viện,21.0401949,105.75098949999999,"99 Kiều Mai, Bắc Từ Liêm, Hà Nội, Vietnam"
Viện Sốt Rét - Ký Sinh Trùng - Côn trùng Trung Ương,Bệnh viện,20.9922584,105.79244369999999,"34 Đ. Trung Văn, Trung Văn, Nam Từ Liêm, Hà Nội, Vietnam"
Văn phòng lấy mẫu MEDLATEC Minh Khai - Bắc Từ Liêm,Bệnh viện,21.0499141,105.7405759,"142 Đ. Cầu Diễn, Minh Khai, Bắc Từ Liêm, Hà Nội 100000, Vietnam"
Hanoi University of Industry,Trường đại học,21.053731,105.7351068,"Số 298 Đ. Cầu Diễn, Minh Khai, Bắc Từ Liêm, Hà Nội, Vietnam"
Trường Đại Học Hòa Bình,Trường đại học,21.031792,105.7659097,"CC2 P. Bùi Xuân Phái, Xuân Phương, Nam Từ Liêm, Hà Nội 100000, Vietnam"
Hanoi University of Natural Resources and Environment,Trường đại học,21.0470486,105.7624371,"41A Đ. Phú Diễn, Phú Diễn, Bắc Từ Liêm, Hà Nội, Vietnam"
Hanoi University of Mining and Geology,Trường đại học,21.0720703,105.773929,"18 P. Viên, Đông Ngạc, Bắc Từ Liêm, Hà Nội 100000, Vietnam"
Electric Power University,Trường đại học,21.046929499999997,105.7854863,"235 Hoàng Quốc Việt, Cổ Nhuế, Bắc Từ Liêm, Hà Nội, Vietnam"
Trường Đại học Tài chính - Ngân hàng Hà Nội,Trường đại học,21.0759626,105.7856904,"136 Đ. Phạm Văn Đồng, Xuân Đỉnh, Bắc Từ Liêm, Hà Nội, Vietnam"
Minh Khai Market,Chợ,21.050368,105.73751399999999,"Ng. 136 Đ. Cầu Diễn, Minh Khai, Nam Từ Liêm, Hà Nội, Vietnam"
Chợ Cốm Mễ Trì Hạ,Chợ,21.013654499999998,105.7801538,"100 Ngõ 57 Mễ Trì, Mễ Trì, Nam Từ Liêm, Hà Nội, Vietnam"
Bắc Hà International General Hospital,Bệnh viện,21.0430694,105.8709446,"137 Đ. Nguyễn Văn Cừ, Ngọc Lâm, Long Biên, Hà Nội, Vietnam"
Duc Giang General Hospital,Bệnh viện,21.0613454,105.8983239,"54 P. Trường Lâm, Đức Giang, Long Biên, Hà Nội, Vietnam"
Hanoi Psychiatric Hospital,Bệnh viện,21.0342667,105.9090597,"Ngõ 467 Nguyễn Văn Linh, Phúc Đồng, Long Biên, Hà Nội, Vietnam"
Tam Anh Hospital - Ha Noi,Bệnh viện,21.0407305,105.87664629999999,"2VRG+7M, 108 P. Hoàng Như Tiếp, Bồ Đề, Long Biên, Hà Nội, Vietnam"
Railway Hospital,Bệnh viện,21.049933799999998,105.8771086,"481, Long Biên, 100000, Vietnam"
Trung Tâm Y Tế Quận Long Biên,Bệnh viện,21.068521,105.9102557,"3W96+C42, Khu đô thị Việt Hưng, Long Biên, Hà Nội, Vietnam"
Polyclinics Hong Ngoc Long Bien Savico,Bệnh viện,21.0501971,105.893332,"Savico Megamall, 07-09 Đ. Nguyễn Văn Linh, Việt Hưng, Long Biên, Hà Nội, Vietnam"
Duc Giang Maternity Hospital,Bệnh viện,21.0614947,105.89731069999999,"52 P. Trường Lâm, Ô Cách, Long Biên, Hà Nội, Vietnam"
Phòng Khám Đa Khoa Bồ Đề,Bệnh viện,21.038171,105.87134209999999,"99 P. Bồ Đề, Bồ Đề, Long Biên, Hà Nội 100000, Vietnam"
Phòng Khám Đa Khoa Giao Thông Vận Tải Gia Lâm,Bệnh viện,21.049933799999998,105.8771086,"481 Đ. Ngọc Lâm, Ngọc Lâm, Long Biên, Hà Nội 100000, Vietnam"
Saint Paul's General Hospital,Bệnh viện,21.0312585,105.8360687,"12 P. Chu Văn An, Điện Biên, Ba Đình, Hà Nội, Vietnam"
Khoa Hồi sức cấp cứu nhi bệnh viện Đa khoa Đức Giang,Bệnh viện,21.061398399999998,105.8983315,"3V6X+H84, Ô Cách, Long Biên, Hà Nội, Vietnam"
Phòng Chẩn trị Y học cổ truyền Từ Tuệ Dược Đường,Bệnh viện,21.054752399999998,105.899929,"tổ 6 P. Lệ Mật, Việt Hưng, Long Biên, Hà Nội, Vietnam"
Central Military Hospital 108,Bệnh viện,21.0182483,105.86035109999999,"1B Trần Hưng Đạo, Bạch Đằng, Hai Bà Trưng, Hà Nội, Vietnam"
Bach Mai Hospital,Bệnh viện,21.0019532,105.840418,"78 Đ. Giải Phóng, Phương Đình, Đống Đa, Hà Nội 10000, Vietnam"
Vinmec International Hospital,Bệnh viện,20.996215199999998,105.8669144,"458 P. Minh Khai, Khu đô thị Times City, Hai Bà Trưng, Hà Nội 100000, Vietnam"
Hanoi Hospital of Dermatology,Bệnh viện,21.0281275,105.838579,"79B P. Nguyễn Khuyến, Văn Miếu – Quốc Tử Giám, Đống Đa, Hà Nội, Vietnam"
Văn phòng lấy mẫu MEDLATEC Thạch Bàn - Long Biên,Bệnh viện,21.026591699999997,105.91034979999999,"56 Đ. Thạch Bàn, Thạch Bàn, Long Biên, Hà Nội 100000, Vietnam"
Bệnh Viện Đức Phúc,Bệnh viện,21.0141912,105.84091559999999,"48 P. Ô Đồng Lầm, Phương Liên, Đống Đa, Hà Nội, Vietnam"
Văn phòng lấy mẫu MEDLATEC Đức Giang - Long Biên,Bệnh viện,21.0591012,105.89142749999999,"141 Đ. Ngô Gia Tự, Đức Giang, Long Biên, Hà Nội 100000, Vietnam"
Institute of Logistics,Trường đại học,21.0657304,105.8755948,"3V8G+76X, Ngọc Thụy, Long Biên, Hà Nội, Vietnam"
ĐẠI HỌC EDX,Trường đại học,21.036087,105.87397759999999,"166 P. Bồ Đề, Bồ Đề, Long Biên, Hà Nội 100000, Vietnam"
Hanoi University of Business and Technology,Trường đại học,20.9998644,105.87771409999999,"29A Ngõ 124 Phố Vĩnh Tuy, Thanh Long, Hai Bà Trưng, Hà Nội, Vietnam"
Thang Long University,Trường đại học,20.9758759,105.81559349999999,"Đ. Nghiêm Xuân Yêm, Đại Kim, Hoàng Mai, Hà Nội 100000, Vietnam"
College Long Bien,Trường đại học,21.028430399999998,105.92067,"Số 765A Đ. Nguyễn Văn Linh, TT. Sài Đồng, Long Biên, Hà Nội, Vietnam"
Học viện Kinh doanh quốc tế,Trường đại học,21.0364023,105.8736749,"Số 166 P. Bồ Đề, Bồ Đề, Long Biên, Hà Nội 100000, Vietnam"
National Economics University,Trường đại học,21.0000942,105.84249919999999,"207 Đ. Giải Phóng, Đồng Tâm, Hai Bà Trưng, Hà Nội, Vietnam"
Hanoi University,Trường đại học,21.0209086,105.8584166,"19 P. Lê Thánh Tông, Phan Chu Trinh, Hoàn Kiếm, Hà Nội, Vietnam"
Du Học Việt Đài,Trường đại học,21.0285062,105.88679909999999,"10 ngách 01 Ng. 36 Đường Cổ Linh, Long Biên, Hà Nội, Vietnam"
"VNU University of Social Sciences and Humanities, Hanoi",Trường đại học,20.9950503,105.8077807,"336 Đ. Nguyễn Trãi, Thanh Xuân Trung, Thanh Xuân, Hà Nội, Vietnam"
School of Quang Trung,Trường đại học,21.0367018,105.9034219,"28 P. Chu Huy Mân, Phúc Đồng, Long Biên, Hà Nội, Vietnam"
Chợ Long Biên,Chợ,21.041267899999998,105.8504815,"Hồng Hà, Phúc xá, Hoàn Kiếm, Hà Nội, Vietnam"
Ngọc Thụy Market,Chợ,21.055878099999997,105.8669839,"Ng. 264 Đ. Ngọc Thụy, Ngọc Thụy, Long Biên, Hà Nội, Vietnam"
Chợ làng nha,Chợ,21.0240852,105.8984157,"51 Đ. Cổ Linh, Long Biên, Hà Nội, Vietnam"
Chợ tạm May 10,Chợ,21.03792,105.91678379999999,"2WJC+G82, P. Cầu Bây, Phúc Lợi, Long Biên, Hà Nội, Vietnam"
Phúc Lợi Market,Chợ,21.0430481,105.92595229999999,"Chợ, Phúc Lợi, Long Biên, Hà Nội 100000, Vietnam"
Bồ Đề Market,Chợ,21.0343169,105.8699975,"Ngõ 199 P. Phú Viên, Bồ Đề, Long Biên, Hà Nội, Vietnam"
Chợ Đồng Dinh1,Chợ,21.0235612,105.9169014,"Thạch Bàn, Long Biên, Hà Nội, Vietnam"
Chợ Thượng Thanh,Chợ,21.0697226,105.8907746,"Thượng Thanh, Long Biên, Hà Nội, Vietnam"
Chợ Lâm Du,Chợ,21.0375254,105.874865,"43 Ng. 135 P. Bồ Đề, Bồ Đề, Long Biên, Hà Nội 84000, Vietnam"
Chợ Vồ,Chợ,21.062967399999998,105.8794834,"3V7H+5QQ, Khu tập thể Z133, Long Biên, Hà Nội, Vietnam"
Gia Lam Market,Chợ,21.047326599999998,105.8751382,"234 Ng. 366 Đ. Ngọc Lâm, Ngọc Lâm, Long Biên, Hà Nội, Vietnam"
Thạch Cầu Market,Chợ,21.024313199999998,105.87820909999999,"Tổ 2, Thạch Cầu, Hà Nội 10000, Vietnam"
Chợ Tư Đình,Chợ,21.0272795,105.8869658,"Tư Đình, Long Biên, Hà Nội, Vietnam"
Cuisine market Ngoc Lam,Chợ,21.0440008,105.86522459999999,"2VV8+J35, Ngõ 219, Ngọc Lâm, Long Biên, Hà Nội, Vietnam"
Phúc Đồng Market,Chợ,21.0409892,105.9023694,"Phúc Đồng, Long Biên, Hà Nội, Vietnam"
Chợ Thượng Cát,Chợ,21.0601023,105.88842269999999,"3V6Q+2C6, 68 Ngõ 94 Thượng Thanh, Thượng Thanh, Long Biên, Hà Nội, Vietnam"
Chợ Thạch Bàn,Chợ,21.021534199999998,105.9029004,"285 Đ. Thạch Bàn, Thạch Bàn, Long Biên, Hà Nội, Vietnam"
Chợ Phúc Đồng,Chợ,21.039763999999998,105.90278269999999,"43 Ng. 99 P. Chu Huy Mân, Phúc Đồng, Long Biên, Hà Nội, Vietnam"
"Cổ Linh, Thạch Bàn",Chợ,21.027617,105.89431359999999,"2VHV+2PW, Đ. Cổ Linh, Làng Trạm, Long Biên, Hà Nội, Vietnam"
Long Biên,Chợ,21.0386761,105.88774939999999,"Hanoi, Vietnam"
Dong Do Hospital,Bệnh viện,21.009180699999998,105.83818679999999,"5 P. Xã Đàn, Phương Liên, Đống Đa, Hà Nội, Vietnam"
Hanoi Medical University Hospital,Bệnh viện,21.0023139,105.8301675,"1 P. Tôn Thất Tùng, Kim Liên, Đống Đa, Hà Nội, Vietnam"
Ha Thanh Clinic,Bệnh viện,21.026808,105.82661069999999,"61 P. Vũ Thạnh, Chợ Dừa, Đống Đa, Hà Nội 100000, Vietnam"
Saigon Eye Hospital - Hanoi,Bệnh viện,21.0117981,105.8104022,"532 Đ. Láng, Láng Hạ, Đống Đa, Hà Nội, Vietnam"
Agriculture General Hospital 2,Bệnh viện,21.0135525,105.8210582,"16 Ng. 183 Đặng Tiến Đông, Trung Liệt, Đống Đa, Hà Nội, Vietnam"
Bệnh viện Da Liễu Trung Ương,Bệnh viện,21.0038019,105.8386591,"15A Phương Mai, Đống Đa, Hà Nội 100000, Vietnam"
Bảo Sơn Hospital 2,Bệnh viện,21.024225599999998,105.81029079999999,"52 Đ. Nguyễn Chí Thanh, Láng Thượng, Đống Đa, Hà Nội 100000, Vietnam"
Trang An General Hospital,Bệnh viện,21.0256881,105.8353315,"59 Ng. Thông Phong, Văn Chương, Đống Đa, Hà Nội, Vietnam"
Bệnh Viện Nội Tiết Trung Ương,Bệnh viện,21.012126199999997,105.8152039,"80 Ng. 82 P. Yên Lãng, Láng Hạ, Đống Đa, Hà Nội, Vietnam"
Bệnh Viện Mắt Hà Nội 2,Bệnh viện,21.0179635,105.8068639,"72 Đ. Nguyễn Chí Thanh, Láng Thượng, Đống Đa, Hà Nội 100000, Vietnam"
National Children's Hospital,Bệnh viện,21.0258583,105.80963799999999,"18, Ngõ 879 Đ. La Thành, Láng Thượng, Đống Đa, Hà Nội, Vietnam"
Bệnh Viện Châm Cứu Trung Ương,Bệnh viện,21.008523699999998,105.82002229999999,"49 P. Thái Thịnh, Thịnh Quang, Đống Đa, Hà Nội, Vietnam"
National Otorhinolaryngology Hospital,Bệnh viện,20.999657799999998,105.8406131,"78 Đ. Giải Phóng, Phương Đình, Đống Đa, Hà Nội, Vietnam"
Hong Ha General Hospital,Bệnh viện,21.0267947,105.8390869,"16 P. Nguyễn Như Đổ, Văn Miếu – Quốc Tử Giám, Đống Đa, Hà Nội 100000, Vietnam"
National Geriatric Hospital,Bệnh viện,21.0039448,105.839539,"1A Phương Mai, Đống Đa, Hà Nội, Vietnam"
Hanoi French Hospital,Bệnh viện,21.0040056,105.84002199999999,"1 Phương Mai, Kim Liên, Đống Đa, Hà Nội, Vietnam"
Trade Union University,Trường đại học,21.0097381,105.8257124,"169 P. Tây Sơn, Quang Trung, Đống Đa, Hà Nội, Vietnam"
Hanoi Law University,Trường đại học,21.021360899999998,105.80937809999999,"87 Đ. Nguyễn Chí Thanh, Láng Thượng, Đống Đa, Hà Nội, Vietnam"
Hanoi University of Civil Engineering,Trường đại học,21.003313499999997,105.84332069999999,"55 Đ. Giải Phóng, Đồng Tâm, Hai Bà Trưng, Hà Nội, Vietnam"
University of Industrial Arts,Trường đại học,21.023573499999998,105.82367169999999,"360 Đ. La Thành, Chợ Dừa, Đống Đa, Hà Nội, Vietnam"
Đại học Nam Columbia tại Việt Nam,Trường đại học,21.022558999999998,105.8088849,"3 P. Chùa Láng, Láng Thượng, Đống Đa, Hà Nội, Vietnam"
Đại học RMIT Việt Nam - Cơ sở Hà Nội,Trường đại học,21.029509299999997,105.8114684,"Handi Resco Building, 521 P. Kim Mã, Ngọc Khánh, Ba Đình, Hà Nội, Vietnam"
Banking Academy,Trường đại học,21.008743199999998,105.8286961,"12 P. Chùa Bộc, Quang Trung, Đống Đa, Hà Nội 100000, Vietnam"
Hanoi University of Science and Technology,Trường đại học,21.0061832,105.84313069999999,"1 Đ. Đại Cồ Việt, Bách Khoa, Hai Bà Trưng, Hà Nội, Vietnam"
Diplomatic Academy of Vietnam,Trường đại học,21.0229841,105.80650899999999,"69 P. Chùa Láng, Láng Thượng, Đống Đa, Hà Nội 100000, Vietnam"
Ha Noi University Medical Center - Hoang Mai Campus,Bệnh viện,20.9790909,105.8693502,"Ngõ 587 Đ. Tam Trinh, Yên Sở, Hoàng Mai, Hà Nội, Vietnam"
Andrology and Fertility Hospital of Hanoi,Bệnh viện,20.9828628,105.8660409,"431, Đ. Tam Trinh/3A Cụm công nghiệp, Phường, Hoàng Mai, Hà Nội 10000, Vietnam"
Viện Y Học Cổ Truyền Quân Đội,Bệnh viện,20.9728641,105.82431539999999,"442 Đ. Kim Giang, Đại Kim, Hoàng Mai, Hà Nội, Vietnam"
Medical Center in Hoang Mai,Bệnh viện,20.9797801,105.89102419999999,"XVHR+WC6, Lĩnh Nam, Hoàng Mai, Hà Nội, Vietnam"
Trung Tâm Y Tế Quận Hoàng Mai,Bệnh viện,20.9684782,105.84649449999999,"5 P. Bùi Huy Bích, Hoàng Liệt, Hoàng Mai, Hà Nội, Vietnam"
Phòng khám Đa khoa Thu Cúc TCI Đại Từ,Bệnh viện,20.973554099999998,105.838573,"32 P. Đại Từ, Đại Kim, Hoàng Mai, Hà Nội 100000, Vietnam"
Institute of Medical Radiology and Oncology,Bệnh viện,20.9809083,105.82013169999999,"18 Định Công Thượng, Định Công, Hoàng Mai, Hà Nội, Vietnam"
ĐÔNG Y KHANG HƯNG,Bệnh viện,20.9704318,105.82925589999999,"Đại Kim, Hoàng Mai, Hà Nội, Vietnam"
Tổ hợp Y tế Mediplus,Bệnh viện,20.983888099999998,105.8479268,"99 P. Tân Mai, Tân Mai, Hoàng Mai, Hà Nội 100000, Vietnam"
BỆNH VIỆN MẮT QUỐC TẾ CUNG HỒNG SƠN,Bệnh viện,20.9882504,105.8413719,"709 Đ. Giải Phóng, Giáp Bát, Hoàng Mai, Hà Nội, Vietnam"
Khoa khám bệnh theo yêu cầu BV Bạch Mai,Bệnh viện,21.0038916,105.84069869999999,"78 Đ. Giải Phóng, Phương Mai, Đống Đa, Hà Nội, Vietnam"
Văn phòng lấy mẫu MEDLATEC Đại Kim - Hoàng Mai,Bệnh viện,20.9727,105.8199358,"CT12B Kim Văn Kim Lũ, CH15 tòa C Vinaconex 2, Đại Kim, Hoàng Mai, Hà Nội 100000, Vietnam"
Phòng Khám Đa Khoa Linh Đàm,Bệnh viện,20.970353499999998,105.8292931,"4 TT6 street, Khu đô thị Bắc Linh Đàm, Hoàng Mai, Hà Nội, Vietnam"
National Lung Hospital,Bệnh viện,21.043280199999998,105.81409,"463 Đ. Hoàng Hoa Thám, Vĩnh Phú, Ba Đình, Hà Nội, Vietnam"
Văn phòng lấy mẫu MEDLATEC Định Công - Hoàng Mai,Bệnh viện,20.9864927,105.8349282,"38 P. Trịnh Đình Cửu, Định Công, Thanh Xuân, Hà Nội 100000, Vietnam"
Trung Tâm Hỗ Trợ Sinh Sản Bệnh viện Bưu Điện,Bệnh viện,20.9905942,105.83140039999999,"Tầng 2, Tòa nhà Bệnh viện Bưu Điện, Số 49 Trần Điền Định Công, Hoàng Mai, Hà Nội, Vietnam"
Phòng Khám Siêu Âm Sản Phụ Khoa 936Trương Định,Bệnh viện,20.9772334,105.8416146,"936 Trương Định, Giáp Bát, Hoàng Mai, Hà Nội, Vietnam"
Vinmec Biotek Center,Bệnh viện,20.9937584,105.8672137,"458 P. Minh Khai, Khu đô thị Times City, Hoàng Mai, Hà Nội, Vietnam"
Phòng Khám Phụ Sản Khoa BS Tạ Thị Loan - Khám thai uy tín chất lượng tại hà nội,Bệnh viện,20.9907562,105.8787234,"267 P. Vĩnh Hưng, Vĩnh Hưng, Hoàng Mai, Hà Nội 100000, Vietnam"
University of Technology and Management,Trường đại học,20.9829485,105.8652372,"431 Đ. Tam Trinh, Hoàng Văn Thụ, Hoàng Mai, Hà Nội, Vietnam"
Trường Đại Học Kinh Tế Kỹ Thuật Công Nghiệp,Trường đại học,20.980355,105.8758057,"218 Đ. Lĩnh Nam, Vĩnh Hưng, Hoàng Mai, Hà Nội, Vietnam"
"Faculty of Economics, Hanoi Open University",Trường đại học,20.988585699999998,105.87659719999999,"193 P. Vĩnh Hưng, Vĩnh Hưng, Hai Bà Trưng, Hà Nội, Vietnam"
Trường Đại học Công nghiệp Việt Hung,Trường đại học,20.988916,105.877185,"193 P. Vĩnh Hưng, Vĩnh Hưng, Hoàng Mai, Hà Nội, Vietnam"
Uneti Lĩnh Nam,Trường đại học,20.9802717,105.87592079999999,"XVJG+4FH, Lĩnh Nam, Hoàng Mai, Hà Nội, Vietnam"
Chợ Hoàng Mai,Chợ,20.9910839,105.8532333,"17/160 Đ. Hoàng Mai, Hoàng Văn Thụ, Hoàng Mai, Hà Nội, Vietnam"
CHỢ ĐẦU MỐI ĐỀN LỪ HOÀNG MAI,Chợ,20.9820595,105.8620771,"XVJ6+RRG, Hoàng Văn Thụ, Hoàng Mai, Hà Nội, Vietnam"
Chợ Mai Động,Chợ,20.991569,105.8633459,"2 Đ. Lĩnh Nam, Mai Động, Hoàng Mai, Hà Nội, Vietnam"
SeABank@ Nguyen An Ninh Transaction Office,Chợ,20.9909964,105.84498289999999,"7 Nguyễn An Ninh, Tương Mai, Hoàng Mai, Hà Nội, Vietnam"
Dai Tu Market,Chợ,20.9705515,105.83282229999999,"P. Đại Từ, Đại Kim, Hoàng Mai, Hà Nội, Vietnam"
Linh Nam night market,Chợ,20.983876,105.8742896,"56 P. Vĩnh Hưng, Vĩnh Hưng, Hoàng Mai, Hà Nội 127334, Vietnam"
Medical Center Thanh Xuan district,Bệnh viện,20.990836899999998,105.8123624,"23 Ng. 282 Đ. Khương Đình, Hạ Đình, Thanh Xuân, Hà Nội, Vietnam"
địa chỉ chữa viêm tinh hoàn ở thanh xuân,Bệnh viện,20.993451399999998,105.81659909999999,"148 P.Khương Trung, Khương Trung, Thanh Xuân, Hà Nội, Vietnam"
Bệnh Viện Đa Khoa An Việt,Bệnh viện,20.9973571,105.8415917,"1E Đ. Trường Chinh, Phương Liệt, Thanh Xuân, Hà Nội 100000, Vietnam"
Hospital of Construction,Bệnh viện,20.9934847,105.7972922,"Nguyễn Quý Đức, Thanh Xuân Bắc, Thanh Xuân, Hà Nội 100000, Vietnam"
Phòng khám Đa khoa MEDLATEC Thanh Xuân,Bệnh viện,20.9928264,105.8017272,"Số 3 Khuất Duy Tiến, Thanh Xuân Bắc, Thanh Xuân, Hà Nội 100000, Vietnam"
Clinical areas as requested - Doctors Medical University,Bệnh viện,21.001255399999998,105.826352,"225 Đ. Trường Chinh, Khương Thượng, Thanh Xuân, Hà Nội 100000, Vietnam"
Bệnh viện than - Khoáng sản,Bệnh viện,20.988547399999998,105.83939749999999,"Ng. 1 P. Phan Đình Giót, Phương Liệt, Thanh Xuân, Hà Nội, Vietnam"
Phòng Khám An Viên Hà Nội,Bệnh viện,20.9971486,105.8424687,"Ngõ 01 Đ. Trường Chinh, Phương Liệt, Thanh Xuân, Hà Nội 121100, Vietnam"
Trung tâm Phục hồi chức năng VinaHealth,Bệnh viện,20.9987624,105.8271875,"49 Nguyễn Viết Xuân, Khương Mai, Thanh Xuân, Hà Nội 100000, Vietnam"
Viện Y học Phòng Không Không Quân,Bệnh viện,21.000986299999997,105.82614219999999,"225 Đ. Trường Chinh, Khương Thượng, Thanh Xuân, Hà Nội, Vietnam"
Phòng Khám Da Liễu Hà Nội,Bệnh viện,20.9902879,105.80369519999999,"54 Nguyễn Xiển, Thanh Xuân Bắc, Thanh Xuân, Hà Nội 100000, Vietnam"
Hanoi Kidney Hospital,Bệnh viện,21.01866,105.8065788,"70 Đ. Nguyễn Chí Thanh, Láng Thượng, Đống Đa, Hà Nội, Vietnam"
Bệnh viện chuyên khoa Nam học và Hiếm muộn Việt - Bỉ,Bệnh viện,20.9867724,105.8399766,"23 P.Nguyễn Văn Trỗi, Phương Liệt, Thanh Xuân, Hà Nội, Vietnam"
Phòng Khám Chuyên Khoa Nhi Tiến sỹ Giang,Bệnh viện,20.9992374,105.80691929999999,"54 Nguyễn Huy Tưởng, Thanh Xuân Trung, Thanh Xuân, Hà Nội, Vietnam"
University of Transport Technology,Trường đại học,20.984792,105.79883199999999,"54 P. Triều Khúc, Thanh Xuân Bắc, Thanh Xuân, Hà Nội, Vietnam"
National Academy for Education Management,Trường đại học,20.9906577,105.83834399999999,"31 P. Phan Đình Giót, Phương Liệt, Thanh Xuân, Hà Nội, Vietnam"
Hanoi College of Industry and Trade,Trường đại học,20.9985927,105.80912629999999,"54A1 Đ. Vũ Trọng Phụng, Thanh Xuân Trung, Thanh Xuân, Hà Nội 100000, Vietnam"
Trường Đại học Phòng chát chữa cháy CS1,Trường đại học,21.0007915,105.7946595,"243 Khuất Duy Tiến, Nhân Chính, Thanh Xuân, Hà Nội, Vietnam"
Chợ Thanh Xuân Nam,Chợ,20.989355699999997,105.8036774,"Ngõ 100 Nguyễn Xiển, Thanh Xuân Bắc, Thanh Xuân, Hà Nội, Vietnam"
Chợ Kim Giang,Chợ,20.982025,105.81395889999999,"Ng. 64 Đ. Kim Giang, Đại Kim, Thanh Xuân, Hà Nội 100000, Vietnam"
Xuân La Market,Chợ,21.063814,105.8074067,"Ng. 28 Đ. Xuân La, Xuân La, Tây Hồ, Hà Nội, Vietnam"
Chợ Đồng Xuân,Chợ,21.0381434,105.8500387,"Đồng Xuân Market, 23 P. Cầu Đông, Đồng Xuân, Hoàn Kiếm, Hà Nội 100000, Vietnam"
Lập Thạch Market,Chợ,20.9885579,105.80586319999999,"79 Nguyễn Xiển, Hạ Đình, Thanh Xuân, Hà Nội 100000, Vietnam"
Bệnh Viện Tim Hà Nội - Cơ Sở 2,Bệnh viện,21.0686255,105.8072004,"Đ. Võ Chí Công, Xuân La, Tây Hồ, Hà Nội, Vietnam"
Phòng khám Đa khoa MEDLATEC Tây Hồ,Bệnh viện,21.0472972,105.8140281,"99 P. Trích Sài, Bưởi, Tây Hồ, Hà Nội, Vietnam"
Thien An Maternity Hospital,Bệnh viện,21.0673578,105.80946809999999,"27 Ng. 603 Đ. Lạc Long Quân, Xuân La, Tây Hồ, Hà Nội, Vietnam"
địa chỉ chữa viêm tinh hoàn ở tây hồ,Bệnh viện,21.0563558,105.8358351,"140 P. Yên Phụ, Yên Phụ, Tây Hồ, Hà Nội, Vietnam"
Phòng Khám Đa Khoa,Bệnh viện,21.079648499999998,105.8166004,"679 Đ. Lạc Long Quân, Phú Thượng, Tây Hồ, Hà Nội, Vietnam"
Trạm y tế phường Tây Hồ,Bệnh viện,21.0795873,105.8165681,"695 Đ. Lạc Long Quân, phường, Tây Hồ, Hà Nội, Vietnam"
Phòng Khám Bệnh Đa Khoa,Bệnh viện,21.055703599999998,105.83663759999999,"230 Đ. Nghi Tàm, Yên Phụ, Tây Hồ, Hà Nội, Vietnam"
Phòng khám đa khoa Hồng Ngọc Tây Hồ,Bệnh viện,21.068486999999998,105.8025041,"Tầng 1, 2 & 3 - Kosmo Tây Hồ, 161 Đ. Xuân La, Xuân Đỉnh, Bắc Từ Liêm, Hà Nội, Vietnam"
Phòng Khám Âu Lạc,Bệnh viện,21.052356,105.80925289999999,"178 Đ. Lạc Long Quân, Bưởi, Tây Hồ, Hà Nội, Vietnam"
Phòng Khám Đa Khoa Quận Tây Hồ,Bệnh viện,21.0414374,105.8232797,"124 Đ. Hoàng Hoa Thám, Ngọc Hồ, Tây Hồ, Hà Nội, Vietnam"
Hong Ngoc General Hospital,Bệnh viện,21.0424822,105.8441768,"55 P. Yên Ninh, Quán Thánh, Ba Đình, Hà Nội, Vietnam"
PHÒNG KHÁM MẮT KỸ THUẬT CAO HÀ NỘI,Bệnh viện,21.0481804,105.8097567,"480 Đ. Thụy Khuê, Bưởi, Tây Hồ, Hà Nội 100000, Vietnam"
Military Hospital 354,Bệnh viện,21.0400408,105.8120137,"120 P. Đốc Ngữ, Vĩnh Phú, Ba Đình, Hà Nội, Vietnam"
Phòng Khám Chuyên Khoa Phụ Sản Tây Hồ,Bệnh viện,21.0517836,105.8115129,"4 Ng. 45A P. Võng Thị, Bưởi, Tây Hồ, Hà Nội, Vietnam"
Clinic Minh Ngoc,Bệnh viện,21.0626767,105.80893739999999,"517 Đ. Lạc Long Quân, Xuân La, Tây Hồ, Hà Nội 100000, Vietnam"
Học viện Hành chính và Quản trị công,Trường đại học,21.0675806,105.8048898,"Ng. 36 Đ. Xuân La, Xuân La, Tây Hồ, Hà Nội, Vietnam"
Nguyen Trai University,Trường đại học,21.0363425,105.8159395,"266 Đội Cấn, Liễu Giai, Ba Đình, Hà Nội, Vietnam"
Tứ Liên Market,Chợ,21.0658273,105.8309256,"Ngõ 200 Đường Âu Cơ, Tứ Liên, Tây Hồ, Hà Nội, Vietnam"
Tam Da Market,Chợ,21.0428307,105.8186454,"Thuỵ Khuê, Tây Hồ, Hà Nội, Vietnam"
Chợ Làng Hồ,Chợ,21.046896,105.812697,"378 Đ. Thụy Khuê, Bưởi, Ba Đình, Hà Nội, Vietnam"
Phú Gia Market,Chợ,21.0854839,105.8105365,"P. Phú Gia, Phú Thượng, Tây Hồ, Hà Nội, Vietnam"
Buoi Market,Chợ,21.047971,105.80650109999999,"2RX4+5JJ, Đ. Hoàng Hoa Thám, Bưởi, Tây Hồ, Hà Nội 10000, Vietnam"
Chợ Đồ Cũ Tây Hồ - Chợ Đồ Cũ Lớn Nhất Miền Băc,Chợ,21.0750961,105.81551639999999,"612 Đ. Lạc Long Quân, Nhật Tân, Tây Hồ, Hà Nội 10000, Vietnam"
Chợ Hoa Quảng An - Âu Cơ,Chợ,21.066581,105.8278567,"236 Đ. Âu Cơ, Quảng An, Tây Hồ, Hà Nội, Vietnam"
Huyền Hải Sản 24 Dốc Tam Đa,Chợ,21.0429139,105.8185594,"24 Dốc Tam Đa, Thuỵ Khuê, Tây Hồ, Hà Nội, Vietnam"
Cống Vị Market,Chợ,21.0373758,105.8142695,"228 Đội Cấn, Cống Vị, Ba Đình, Hà Nội, Vietnam"
Thung lũng hoa hồ Tây,Chợ,21.0742133,105.81974559999999,"Ngã 3 P. Nhật Chiêu, Nhật Tân, Tây Hồ, Hà Nội, Vietnam"
VietNam Foods,Chợ,21.047758899999998,105.80806779999999,"Bưởi, Tây Hồ, Hà Nội, Vietnam"
Thanh Nhan Hospital,Bệnh viện,21.0035559,105.859375,"42 P. Thanh Nhàn, Thanh Nhàn, Hai Bà Trưng, Hà Nội, Vietnam"
Hanoi Hospital,Bệnh viện,21.0182646,105.855612,"29 P.Hàn Thuyên, Phạm Đình Hổ, Hai Bà Trưng, Hà Nội, Vietnam"
Bệnh Viện Mắt Hà Nội,Bệnh viện,21.0248728,105.84998639999999,"37 P. Hai Bà Trưng, Tràng Tiền, Hoàn Kiếm, Hà Nội 100000, Vietnam"
Vietnam - Soviet Friendship Hospital,Bệnh viện,21.0159436,105.8622649,"01 Đ. Trần Khánh Dư, Bạch Đằng, Hai Bà Trưng, Hà Nội, Vietnam"
Vietnam - Cuba Friendship Hospital,Bệnh viện,21.0246337,105.85046589999999,"37 P. Hai Bà Trưng, Tràng Tiền, Hoàn Kiếm, Hà Nội, Vietnam"
Hưng Việt Cancer Hospital,Bệnh viện,21.0088681,105.8486805,"34 Đ. Đại Cồ Việt, Lê Đại Hành, Hai Bà Trưng, Hà Nội 112012, Vietnam"
National Hospital of Traditional Medicine,Bệnh viện,21.0161259,105.84860649999999,"29 P. Nguyễn Bỉnh Khiêm, Nguyễn Du, Hai Bà Trưng, Hà Nội, Vietnam"
DND International Eye Hospital,Bệnh viện,21.0129813,105.8497081,"128 P. Bùi Thị Xuân, Nguyễn Du, Hai Bà Trưng, Hà Nội, Vietnam"
Hanoi Lung Hospital,Bệnh viện,21.0033411,105.8583403,"44 P. Thanh Nhàn, Thanh Nhàn, Hai Bà Trưng, Hà Nội, Vietnam"
Bệnh Viện Đa Khoa Hồng Phát,Bệnh viện,21.0183505,105.84161669999999,"219 Đ. Lê Duẩn, Nguyễn Du, Hai Bà Trưng, Hà Nội 100000, Vietnam"
Mắt Sài Gòn Nguyễn Du (Bệnh viện Mắt Sài Gòn Hà Nội),Bệnh viện,21.020235,105.8421947,"77 Nguyễn Du, Hai Bà Trưng, Hà Nội 100000, Vietnam"
Bệnh Viện Dệt May,Bệnh viện,20.9970778,105.8651737,"Ngõ 454 P. Minh Khai, Vĩnh Tuy, Hai Bà Trưng, Hà Nội 100000, Vietnam"
Hanoi Oncology Hospital,Bệnh viện,21.0044994,105.8591613,"42A P. Thanh Nhàn, Thanh Nhàn, Hai Bà Trưng, Hà Nội, Vietnam"
An Thinh Maternity Hospital,Bệnh viện,20.997201099999998,105.8497594,"496 P. Bạch Mai, Trương Định, Hai Bà Trưng, Hà Nội, Vietnam"
Bệnh viện mắt trung ương,Bệnh viện,21.0175655,105.8495715,"85 P. Bà Triệu, Nguyễn Du, Hai Bà Trưng, Hà Nội, Vietnam"
Bệnh Viện Mắt Kỹ Thuật Cao Hà Nội (Mắt Hitec),Bệnh viện,21.01681,105.849459,"P. Trần Nhân Tông, Nguyễn Du, Hai Bà Trưng, Hà Nội, Vietnam"
Hanoi Open University,Trường đại học,21.0011212,105.8478842,"B101 P. Nguyễn Hiền, Bách Khoa, Hai Bà Trưng, Hà Nội 100000, Vietnam"
Cổng Trần Đại Nghĩa - Đại Học Bách Khoa Hà Nội,Trường đại học,21.005157099999998,105.8454778,"2 Trần Đại Nghĩa, P, Hai Bà Trưng, Hà Nội, Vietnam"
University of Economics - Technology for Industries (UNETI),Trường đại học,20.9957004,105.865545,"456 P. Minh Khai, Vĩnh Tuy, Hai Bà Trưng, Hà Nội, Vietnam"
Phuong Dong University,Trường đại học,20.9944086,105.8540328,"4 Ng. Chùa Hưng Ký, Minh Khai, Hai Bà Trưng, Hà Nội, Vietnam"
School of International Education,Trường đại học,21.004034,105.844867,"Phòng 201-D7, ĐHBK Hà Nội, Trần Đại Nghĩa, Bách Khoa, Hai Bà Trưng, Hà Nội 112400, Vietnam"
NEU E-Learning,Trường đại học,21.0001131,105.84236949999999,"207 Đ. Giải Phóng, Đồng Tâm, Hai Bà Trưng, Hà Nội 100000, Vietnam"
Trường Đại Học Kinh Tế Quốc Dân (NEU) - Cổng Trần Đại Nghĩa,Trường đại học,20.9986875,105.8479229,"XRXX+F5F, Trần Đại Nghĩa, Đồng Tâm, Hai Bà Trưng, Hà Nội, Vietnam"
Hanoi University of Pharmacy,Trường đại học,21.0217064,105.85805599999999,"13-15 P. Lê Thánh Tông, Phan Chu Trinh, Hoàn Kiếm, Hà Nội, Vietnam"
Hanoi Vocational College of Technology,Trường đại học,21.0031327,105.84763009999999,"92 A P. Lê Thanh Nghị, Bách Khoa, Hai Bà Trưng, Hà Nội, Vietnam"
Chợ Trời,Chợ,21.0102402,105.8531888,"33 P. Thịnh Yên, Phố Huế, Hai Bà Trưng, Hà Nội 100000, Vietnam"
Chợ Mơ,Chợ,20.996250399999997,105.8501888,"Số 459 P. Bạch Mai, Trương Định, Hai Bà Trưng, Hà Nội 113901, Vietnam"
Chợ khu C,Chợ,20.9988892,105.85449279999999,"XVX3+HQ5, P. Hồng Mai, Bạch Mai, Hai Bà Trưng, Hà Nội, Vietnam"
Chợ Nguyễn Cao,Chợ,21.0129833,105.8611159,"12-40 P. Nguyễn Cao, Phạm Đình Hổ, Hai Bà Trưng, Hà Nội, Vietnam"
Chợ Đồng Tâm,Chợ,20.9949366,105.8461299,"88 Ngh. 20 Ng. Trại Cá, Trương Định, Hai Bà Trưng, Hà Nội, Vietnam"
Chợ Hôm - Đức Viên,Chợ,21.0170901,105.8517183,"79 P. Huế, Ngô Thì Nhậm, Hai Bà Trưng, Hà Nội, Vietnam"
Thu Trần - sạp Vải 40 chợ Hôm,Chợ,21.0173623,105.8516648,"79 P. Huế, Ngô Thì Nhậm, Hai Bà Trưng, Hà Nội, Vietnam"
Quán lòng Bà Tình ( chợ đuổi cũ ),Chợ,21.011162499999998,105.8487653,"42 P. Lê Đại Hành, Lê Đại Hành, Hai Bà Trưng, Hà Nội 100000, Vietnam"
Triển lãm Vân Hồ,Chợ,21.0107885,105.8476111,"2 P. Hoa Lư, Lê Đại Hành, Hai Bà Trưng, Hà Nội, Vietnam"
Long Thuyen Market,Chợ,20.9814333,105.88138389999999,"467 Đ. Lĩnh Nam, Lĩnh Nam, Hoàng Mai, Hà Nội, Vietnam"
Dalat Hasfarm,Chợ,21.027173299999998,105.84244079999999,"73 P. Hai Bà Trưng, Cửa Nam, Hoàn Kiếm, Hà Nội 100000, Vietnam"
Chợ Hải Sản Huyền Chiến,Chợ,21.024351499999998,105.86085779999999,"2-4-6-8 P. Cầu Đất, Chương Dương Độ, Hoàn Kiếm, Hà Nội, Vietnam"
Vincom Center Ba Trieu,Chợ,21.0108794,105.84957969999999,"191 P. Bà Triệu, Lê Đại Hành, Hai Bà Trưng, Hà Nội, Vietnam"
Hàng Da Market,Chợ,21.031482399999998,105.8463316,"P. Hàng Da, Cửa Đông, Hoàn Kiếm, Hà Nội, Vietnam"
Ngọc Hà Market,Chợ,21.0338425,105.83167499999999,"2RMJ+GMM, Ngọc Hồ, Ba Đình, Hà Nội, Vietnam"
Chợ Châu Long,Chợ,21.0440397,105.8421254,"2RVR+HQV, Ng. Chùa Châu Long/118/50B P. Châu Long, Trúc Bạch, Ba Đình, Hà Nội, Vietnam"
Bệnh viện đa khoa Phạm Ngọc Thạch,Bệnh viện,21.0820985,105.7792305,"1A Đ. Đức Thắng, Đông Ngạc, Bắc Từ Liêm, Hà Nội 100000, Vietnam"
Bệnh Viện Mắt Ánh Sáng,Bệnh viện,21.0513244,105.7905894,"Ngõ 208 Đ. Trần Cung, Nghĩa Tân, Bắc Từ Liêm, Hà Nội 100000, Vietnam"
Phòng Khám Đa Khoa Chèm,Bệnh viện,21.092367499999998,105.77850099999999,"UBND quận Bắc Từ Liêm, QL32, Thuỵ Phương, Từ Liêm, Hà Nội, Vietnam"
Khám sức khỏe doanh nghiệp,Bệnh viện,21.0701428,105.775403,"9 P. Viên, Cổ Nhuế, Bắc Từ Liêm, Hà Nội, Vietnam"
Trường Đại học Mỏ - Địa chất.,Trường đại học,21.0690277,105.76117149999999,"KTX Khu B Trường Đại học Mỏ - Địa Chất, 90000, Vietnam"
Hanoi University of Public Health,Trường đại học,21.0821842,105.7799318,"3QJJ+V83, 1A Đ. Đức Thắng, Đông Ngạc, Bắc Từ Liêm, Hà Nội 100000, Vietnam"
Hanoi University of Natural Resources and Environment,Trường đại học,21.0739427,105.7768485,"3QFG+HPH, Đông Ngạc, Bắc Từ Liêm, Hà Nội, Vietnam"
Hanoi University of Industry,Trường đại học,21.075785699999997,105.7296159,"3PGH+8R9, ĐT70A, thôn Trung, Bắc Từ Liêm, Hà Nội, Vietnam"
Trường đại học Công nghệ Đông Á,Trường đại học,21.0400095,105.7419583,"Đường Phan Tây Nhạc, Xuân Phương, Nam Từ Liêm, Hà Nội 129630, Vietnam"
Khu Đô thị Đại học - Trường Đại học Mỏ - Địa chất,Trường đại học,21.0735296,105.77920689999999,"P. Nguyễn Đình Tứ, Cổ Nhuế, Bắc Từ Liêm, Hà Nội 100000, Vietnam"
Vietnam Academy of Finance,Trường đại học,21.0753336,105.77279279999999,"58 P. Lê Văn Hiến, Đông Ngạc, Bắc Từ Liêm, Hà Nội 10000, Vietnam"
"Trường Đại học Việt Nhật - Đại học Quốc gia Hà Nội (Cơ sở Mỹ Đình, Lưu Hữu Phước)",Trường đại học,21.0329765,105.76224289999999,"P. Lưu Hữu Phước, Cầu Diễn, Nam Từ Liêm, Hà Nội, Vietnam"
Trường Quốc tế - Đại học Quốc gia Hà Nội,Trường đại học,21.037962699999998,105.7482983,"Trịnh Văn Bô, Xuân Phương, Nam Từ Liêm, Hà Nội, Vietnam"
Học viện Kỹ thuật Quân sự,Trường đại học,21.046755599999997,105.7864177,"236 Hoàng Quốc Việt, Cổ Nhuế, Bắc Từ Liêm, Hà Nội, Vietnam"
Chợ Vẽ Đông Ngạc,Chợ,21.091408299999998,105.7776523,"21/10 P. Kẻ Vẽ, Đông Ngạc, Bắc Từ Liêm, Hà Nội, Vietnam"
Chợ Cổ Nhuế,Chợ,21.061014999999998,105.7813467,"105 Đ. Cổ Nhuế, Phường, Bắc Từ Liêm, Hà Nội 100000, Vietnam"
Phu Dien Market New,Chợ,21.0516765,105.7580055,"Chợ phú diễn mới, Ng. 193 Đ. Phú Diễn, Làng Phú Diễn, Từ Liêm, Hà Nội, Vietnam"
Lien Mac Market,Chợ,21.085594999999998,105.75134489999999,"3QP2+6GQ, Ngõ 7, Yên Nội, Bắc Từ Liêm, Hà Nội, Vietnam"
Chợ Tạm Văn Trì,Chợ,21.004340199999998,105.7812127,"2Q3J+PFP, Mễ Trì, Bắc Từ Liêm, Hà Nội, Vietnam"
Chợ Nông Lâm,Chợ,21.074064999999997,105.7762668,"3QFG+JGC, Nông Lâm, Bắc Từ Liêm, Hà Nội, Vietnam"
Chợ Thượng Cát,Chợ,21.0946073,105.733648,"3PVM+RFR, Thượng Cát, Bắc Từ Liêm, Hà Nội, Vietnam"
db,Chợ,21.060855,105.783884,"232 Đ. Phạm Văn Đồng, Cổ Nhuế, Bắc Từ Liêm, Hà Nội 100000, Vietnam"
Chợ Phúc Lý,Chợ,21.0702353,105.7457659,"3PCW+38R, Minh Khai, Bắc Từ Liêm, Hà Nội, Vietnam"
Chợ Xuân Đỉnh II,Chợ,21.0689392,105.78762049999999,"3Q9Q+H2H, Ng. 207 Đ. Xuân Đỉnh, Xuân Đỉnh, Bắc Từ Liêm, Hà Nội, Vietnam"
Chợ Thụy Phương,Chợ,21.089545299999997,105.774672,"3QQF+RV7, Ngõ 123, Thuỵ Phương, Bắc Từ Liêm, Hà Nội, Vietnam"
Tây Tựu Flower Market,Chợ,21.0673951,105.72948819999999,"3P8H+XQ5, Tây Tựu, Bắc Từ Liêm, Hà Nội, Vietnam"
Chợ Nguyên Xá,Chợ,21.0512351,105.73936139999999,"59 Ng. 134 Đ. Cầu Diễn, Nguyên Xá, Bắc Từ Liêm, Hà Nội, Vietnam"
Chợ đồ cũ Thưởng Thưởng Bắc Từ Liêm Hà Nội,Chợ,21.0907242,105.7580588,"42 Đường Liên Mạc, Liên Mạc, Bắc Từ Liêm, Hà Nội 100000, Vietnam"
Chợ cổng nền thôn Hạ,Chợ,21.0670493,105.7391622,"3P8Q+RM7, thôn Hạ, Bắc Từ Liêm, Hà Nội, Vietnam"
CHỢ PHIÊN OCOP VIỆT NAM,Chợ,21.0662235,105.76139909999999,"58 Ngõ 2, Khu tập thể Tổng Cục II, Bắc Từ Liêm, Hà Nội, Vietnam"
"Tu Ntt, XưởNg In ThiêN Kim",Chợ,21.0323364,105.7583265,"464 Phúc Diễn, Xuân Phương, Nam Từ Liêm, Hà Nội, Vietnam"
MEDLATEC Hospital,Bệnh viện,21.048569399999998,105.8460875,"42-44 P. Nghĩa Dũng, phường Hồng Hà, Ba Đình, Hà Nội 100000, Vietnam"
Hoe Nhai General Hospital,Bệnh viện,21.040970299999998,105.84598059999999,"34 P. Hoè Nhai, Trúc Bạch, Ba Đình, Hà Nội, Vietnam"
Bệnh Viện phụ sản Hà Nội,Bệnh viện,21.0268128,105.807739,"929 Đ. La Thành, Láng Thượng, Ba Đình, Hà Nội 10000, Vietnam"
Hoe Nhai 2 General Hospital,Bệnh viện,21.0471655,105.8459604,"Số 34 Ng. 53 P. Tân Ấp, Ấp Thạnh Vinh, Ba Đình, Hà Nội, Vietnam"
Trung Tâm Y Tế Ba Đình - Phòng Khám Bệnh Lao & Bệnh Phổi,Bệnh viện,21.0411167,105.8130595,"112 P. Đốc Ngữ, Vĩnh Phú, Ba Đình, Hà Nội 100000, Vietnam"
Hanoi Heart Hospital,Bệnh viện,21.0236186,105.8438683,"92 Trần Hưng Đạo, Cửa Nam, Hoàn Kiếm, Hà Nội, Vietnam"
Van Dinh General Hospital,Bệnh viện,20.7259271,105.7740152,"PQGF+9JC, TT. Vân Đình, Ứng Hòa, Hà Nội, Vietnam"
Trung Tâm Cấp Cứu Bệnh viện Đa khoa Xanh Pôn,Bệnh viện,21.031512199999998,105.83568419999999,"59 P. Trần Phú, Điện Biên, Ba Đình, Hà Nội, Vietnam"
Bệnh viện phổi TW (cổng 2),Bệnh viện,21.040992199999998,105.8128764,"2A Đội Nhân, ph. Vĩnh Phúc, Ba Đình, Hà Nội, Vietnam"
Hanoi Metropolitan University,Trường đại học,21.0449009,105.81039249999999,"6 P. Vĩnh Phúc, ph. Vĩnh Phúc, Ba Đình, Hà Nội, Vietnam"
Military University of Culture and Arts,Trường đại học,21.0172566,105.8073154,"Trường Đại học Văn hóa Nghệ thuật Quân đội, Kim Mã, Ba Đình, Hà Nội 100000, Vietnam"
Trường Đại Học Dân Lập Đông Đô,Trường đại học,21.031273,105.8168524,"50 P. Vạn Bảo, Ngọc Khánh, Ba Đình, Hà Nội 100000, Vietnam"
Linh Lang Market,Chợ,21.034217299999998,105.81032719999999,"53 Linh Lang, Cống Vị, Ba Đình, Hà Nội, Vietnam"
Cổng chợ thành công,Chợ,21.0228373,105.81550329999999,"2RF8+46J, Thành Công, Ba Đình, Hà Nội, Vietnam"
Chợ Thành Công B,Chợ,21.022482399999998,105.81494939999999,"2RC7+XXW, Thành Công, Ba Đình, Hà Nội, Vietnam"
B52 Chợ Phiên Xanh Mãi - Nông Sản Hữu Cơ Vùng Miền,Chợ,21.0372982,105.8261684,"167 Ng. 158 P. Ngọc Hà, Ngọc Hồ, Ba Đình, Hà Nội, Vietnam"
Chợ Láng B,Chợ,21.0125894,105.80902139999999,"2R75+G65, 564 Đ. Láng, Láng Hạ, Đống Đa, Hà Nội, Vietnam"
Mua Bán Rạo,Chợ,21.0327675,105.8308419,"2RMJ+484, Kim Mã, Ba Đình, Hà Nội 100000, Vietnam"
Vietnam National University of Agriculture,Trường đại học,21.0050533,105.9317643,"Đường Phố Ngô Xuân Quảng, Trâu Quỳ, Gia Lâm, Hà Nội, Vietnam"
Vietnam National Forestry University,Trường đại học,20.9111884,105.57666259999999,"QL21, TT. Xuân Mai, Chương Mỹ, Hà Nội, Vietnam"
Cổng Đại học VinUni,Trường đại học,20.991042399999998,105.9461676,"XWRW+CF7, Đa Tốn, Gia Lâm, Hà Nội, Vietnam"
Trường Đại Học Công Nghiệp Dệt May Hà Nội,Trường đại học,21.037522799999998,106.01171819999999,"22Q6+2M4, Lệ Chi, Gia Lâm, Hà Nội, Vietnam"
Học viện nông nghiệp Việt Nam,Trường đại học,21.008881199999998,105.9334373,"15 Đường Trường Đại Học, Nông Nghiệp, Gia Lâm, Hà Nội, Vietnam"
VinUniversity,Trường đại học,20.9883667,105.9444841,"Vinhomes Ocean Park, Gia Lâm, Hà Nội 12426, Vietnam"
Lecture Hall E - Institute of Agriculture Vietnam,Trường đại học,21.0079654,105.9328499,"36 Ng. 62 Đ. Trâu Quỳ, Trâu Quỳ, Gia Lâm, Hà Nội, Vietnam"
Academy of Legal Courts,Trường đại học,21.0263609,105.9979463,"2XGR+Q72, QL, 18B QL17, Kim Sơn, Gia Lâm, Hà Nội, Vietnam"
Phân hiệu Trường Đại học Lâm nghiệp tại tỉnh Gia Lai,Trường đại học,13.9510562,108.01163539999999,"X226+CMC, Phường Chi Lăng, Pleiku, Gia Lai 600000, Vietnam"
Du Học HK,Trường đại học,21.0165749,105.95261269999999,"30BT4 Hoa Viên- KĐT, Đặng Xá, Gia Lâm, Hà Nội, Vietnam"
National Economic & Technical College,Trường đại học,20.9962792,105.96891459999999,"Dương Xá, Gia Lâm, Hà Nội, Vietnam"
Thai Nguyen University Of Agriculture and Forestry,Trường đại học,21.594294599999998,105.80854649999999,"Quyết Thắng, Thành phố Thái Nguyên, Thái Nguyên, Vietnam"
Bac Giang Agriculture and Forestry University,Trường đại học,21.282280699999998,106.09276559999999,"TT. Bích Động, Việt Yên, Bắc Giang, Vietnam"
Học Viện Nông Nghiệp Việt Nam,Trường đại học,21.0047696,105.9334238,"Viện Sinh học Nông nghiệp, Trâu Quỳ, Gia Lâm, Hà Nội, Vietnam"
Trâu Quỳ Market,Chợ,21.0115616,105.93850499999999,"2W6Q+J79, 12 P. Cửu Việt, Trâu Quỳ, Gia Lâm, Hà Nội, Vietnam"
Chợ Vàng,Chợ,21.031570199999997,105.9420147,"2WJR+JRC, Cổ Bi, Gia Lâm, Hà Nội, Vietnam"
Chợ Gióng,Chợ,21.0540561,105.96108699999999,"Phù Đổng, Gia Lâm, Hà Nội, Vietnam"
Chợ Yên Mỹ,Chợ,21.006581,105.9993272,"2X4X+JPP, Yên Mỹ, Gia Lâm, Hà Nội, Vietnam"
"Chợ Trung mầu, xã Trung Mầu, Gia Lâm, Hà Nội, Việt Nam",Chợ,21.0590542,105.98794269999999,"3X5Q+J5G, Xom 1, Gia Lâm, Hà Nội, Vietnam"
Chợ Lã Côi,Chợ,21.097525899999997,105.92037429999999,"3WXC+249, Yên Viên, Gia Lâm, Hà Nội, Vietnam"
Chợ Bún,Chợ,20.9853557,105.928894,"314 Đ. Chợ Bún, Thuận Tốn, Gia Lâm, Hà Nội, Vietnam"
Chợ Gia Lâm,Chợ,11.820786,108.3358128,"R8CP+888, Gia Lâm, Lâm Hà, Lâm Đồng, Vietnam"
Ninh Hiep Market,Chợ,21.0789415,105.947578,"Ninh Hiệp, Gia Lâm, Hà Nội, Vietnam"
Public markets Ninh Hiep village 8,Chợ,21.078221199999998,105.94090779999999,"3WHR+79M, Ninh Hiệp, Gia Lâm, Hà Nội, Vietnam"
Chợ thôn đá,Chợ,21.0060427,105.97029309999999,"2X4C+C47, Unnamed Road, Dương Xá, Gia Lâm, Hà Nội, Vietnam"
Chợ gốm Bát Tràng,Chợ,20.9749029,105.9118968,"XWG6+9XF, Đ. Chợ Gốm, Bát Tràng, Gia Lâm, Hà Nội, Vietnam"
Chợ vải,Chợ,21.0788434,105.94816569999999,"3WHX+G7M, Xóm 5, Gia Lâm, Hà Nội, Vietnam"
Binh Duong Hospital,Bệnh viện,10.9967534,106.6563977,"5 Phạm Ngọc Thạch, Hiệp Thành, Thủ Dầu Một, Bình Dương, Vietnam"
Thuan My TDM Hospital,Bệnh viện,10.9913191,106.6495959,"152 Huỳnh Văn Cù, Chánh Mỹ, Thủ Dầu Một, Bình Dương, Vietnam"
Hoan My Binh Duong Hospital,Bệnh viện,11.004217599999999,106.6418142,"45 Hồ Văn Cống, Tương Bình Hiệp, Thủ Dầu Một, Bình Dương, Vietnam"
Medic - BD General Hospital Company Limited,Bệnh viện,10.9758782,106.6571038,"14A Nguyễn An Ninh, Phú Cường, Thủ Dầu Một, Bình Dương, Vietnam"
Becamex International Hospital,Bệnh viện,10.9041605,106.71021069999999,"Đại lộ Bình Dương, Lái Thiêu, Thuận An, Thành phố Hồ Chí Minh, Vietnam"
Bệnh Viện Đa Khoa Hoàn Hảo Thuận An,Bệnh viện,10.890906399999999,106.7272938,"22 Đồng An, Binh Hoà, Thành phố, Bình Dương, Vietnam"
Columbia Asia Hospital,Bệnh viện,10.9511489,106.7072336,"Đường 22 tháng 12, Khu Phố Hòa Lân 1, Thuận Giao, Thuận An, Bình Dương, Vietnam"
Bệnh Viện Y Học Cổ Truyền Tỉnh Bình Dương,Bệnh viện,10.9807242,106.6576261,"207 Yersin, Phú Cường, Thủ Dầu Một, Bình Dương, Vietnam"
Thuan My Binh Duong Hospital,Bệnh viện,10.979325,106.7401835,"28 1, khu phố Bình Phước B, Thuận An, Bình Dương, Vietnam"
Phuong Chi General Hospital,Bệnh viện,11.0220437,106.6515886,"DX 76, khu phố 2, Thủ Dầu Một, Bình Dương, Vietnam"
Binh Duong Rehabilitation Hospital,Bệnh viện,10.983352199999999,106.6632039,"31 Yersin, Phú Cường, Thủ Dầu Một, Bình Dương, Vietnam"
Thuan An General Hospital,Bệnh viện,10.9087251,106.7023811,"WP52+FXR, Nguyễn Văn Tiết, Lái Thiêu, Thuận An, Bình Dương, Vietnam"
Binh Duong Obstetrics and Gynecology Hospital,Bệnh viện,10.9824357,106.6533113,"455 Đ. Cách Mạng Tháng Tám, Phú Cường, Thủ Dầu Một, Bình Dương, Vietnam"
Cty TNHH Bệnh Viện Sài Gòn Bình Dương,Bệnh viện,11.005005599999999,106.64241659999999,"39 Hồ Văn Cống, KP4, Thủ Dầu Một, Bình Dương 70000, Vietnam"
My Phuoc Hospital,Bệnh viện,11.1405019,106.6069101,"TC3, Mỹ Phước, Bến Cát, Bình Dương, Vietnam"
4 Military Hospital,Bệnh viện,10.889811499999999,106.7399695,"137 ĐT743, Khu Phố Thống Nhất 2, Dĩ An, Bình Dương, Vietnam"
Nam Anh Hospital,Bệnh viện,10.9075238,106.7494602,"2 8, Khu Phố Thống Nhất 1, Dĩ An, Bình Dương, Vietnam"
Hoàn Hảo General Hospital,Bệnh viện,10.8701134,106.7628155,"26/14 Kp. Bình Đường 2, Dĩ An, Bình Dương, Vietnam"
ANPHU GENERAL HOSPITAL,Bệnh viện,10.9475532,106.7371794,"5 Đ. 22 Tháng 12, An Phú, Thuận An, Bình Dương, Vietnam"
Chau Thanh Clinic - Nam Tan Uyen医院,Bệnh viện,11.04452,106.73117859999999,"2PXF+7CG, 68 ĐT746, Xã Tân Hiệp, Tân Uyên, Bình Dương, Vietnam"
Thu Dau Mot University,Trường đại học,10.9806893,106.67435959999999,"06 Trần Văn Ơn, Phú Hoà, Thủ Dầu Một, Bình Dương, Vietnam"
Đại học Bình Dương,Trường đại học,10.9902032,106.6642095,"504 Đại lộ Bình Dương, Hiệp Thành, Thủ Dầu Một, Bình Dương 82000, Vietnam"
Binh Duong Economics and Technology University,Trường đại học,10.9567069,106.7116721,"333 Đường Thuận Giao 16, P, Thuận An, Bình Dương, Vietnam"
HCMC Open University - Binh Duong Campus,Trường đại học,10.987814799999999,106.6735119,"68 Lê Thị Trung, Phú Lợi, Thủ Dầu Một, Bình Dương, Vietnam"
Eastern International University,Trường đại học,11.0526552,106.66650969999999,"81 Nam Kỳ Khởi Nghĩa, Phường Bình Dương, Thành phố, Hồ Chí Minh, Vietnam"
Ho Chi Minh city University of Technology,Trường đại học,10.8805585,106.8053863,"VRJ4+65C, Đông Hoà, Dĩ An, Bình Dương, Vietnam"
Military Engineering Academy,Trường đại học,10.9856062,106.64637239999999,"229B Bạch Đằng, Phú Cường, Thủ Dầu Một, Bình Dương, Vietnam"
Chợ Thủ Dầu Một,Chợ,10.977877699999999,106.6518198,"Đ. Điểu Ong, Phú Cường, Thủ Dầu Một, Bình Dương, Vietnam"
Phú Mỹ Market,Chợ,11.016399199999999,106.67914169999999,"107a An Mỹ - Phú Mỹ, Khu Phố 3, Thủ Dầu Một, Bình Dương, Vietnam"
Thanh Binh Market,Chợ,10.9599022,106.694825,"415 D1, An Thạnh, Thuận An, Bình Dương, Vietnam"
Chợ Hội Nghĩa,Chợ,11.1007685,106.76654149999999,"4Q28+8H9, Ấp 1, Tân Uyên, Bình Dương, Vietnam"
Pacific Market,Chợ,10.9555964,106.70964749999999,"2 Ấp Bình Thuận, Thuận Giao, Thuận An, Bình Dương, Vietnam"
Tan Binh Market,Chợ,10.9399053,106.7652078,"WQQ8+X38, Bùi Thị Xuân, Tân Phú, Dĩ An, Bình Dương, Vietnam"
Ben The Market,Chợ,11.0208579,106.61776019999999,"2JC9+84R, Huỳnh Thị Hiếu, Tân An, Thủ Dầu Một, Bình Dương, Vietnam"
Ben Suc Market,Chợ,11.161334799999999,106.4454028,"ĐT744, Thanh Tuyền, Dầu Tiếng, Bình Dương, Vietnam"
Phu Chanh A Market,Chợ,11.0767662,106.6920541,"Phú Chánh, Thủ Dầu Một, Bình Dương, Vietnam"
Tuong Binh Hiep Market,Chợ,11.005638699999999,106.6308317,"Lê Văn Tách, Tương Bình Hiệp, Thủ Dầu Một, Bình Dương, Vietnam"
Nhat Huy Market,Chợ,11.0821281,106.6649135,"359 Nguyễn Văn Thành, Hoà Lợi, Bến Cát, Bình Dương, Vietnam"
Dinh Market,Chợ,10.9855625,106.6679375,"Phú Lợi, Thủ Dầu Một, Bình Dương, Vietnam"
Thanh An Market,Chợ,11.204628999999999,106.3985453,"693X+VC3, ĐT744, Thanh An, Dầu Tiếng, Bình Dương, Vietnam"
Quang Vinh 1 Market,Chợ,11.049451,106.75219709999999,"Tổ 7-11 Ấp 1, Khánh Bình, Tân Uyên, Bình Dương, Vietnam"
Búng Market,Chợ,10.9455025,106.6904467,"ĐT745, An Thạnh, Thuận An, Bình Dương, Vietnam"
Thung Tho Market,Chợ,11.0770656,106.56624599999999,"3HHC+555, ĐT744, An Tây, Bến Cát, Bình Dương, Vietnam"
Bung Cau Market,Chợ,11.0255304,106.647117,"4-52 Phan Đăng Lưu, Xã Hiệp An, Thủ Dầu Một, Bình Dương, Vietnam"
Chợ Bình An,Chợ,10.898500799999999,106.8085065,"304 ĐT743A, Xã Bình Thắng, Dĩ An, Bình Dương, Vietnam"
Chợ Đêm Bình Dương,Chợ,10.9773336,106.6505842,"6 Bạch Đằng, Phú Cường, Thủ Dầu Một, Bình Dương, Vietnam"
Chợ An Bình,Chợ,10.8723444,106.75724629999999,"Khu Phố Bình Đường 2, An Bình, Dĩ An, Bình Dương, Vietnam"
Da Nang Hospital,Bệnh viện,16.0735901,108.21524939999999,"124 Hải Phòng, Thạch Thang, Hải Châu, Đà Nẵng 550000, Vietnam"
Hoan My Da Nang Hospital,Bệnh viện,16.0594374,108.20983539999999,"291 Nguyễn Văn Linh, Thạc Gián, Thanh Khê, Đà Nẵng 550000, Vietnam"
Vinmec Da Nang International Hospital,Bệnh viện,16.0388384,108.2112851,"30 Tháng 4, Hoà Cường Bắc, Hải Châu, Đà Nẵng 550000, Vietnam"
Binh Dan Hospital - Da Nang,Bệnh viện,16.0714124,108.20008179999999,"376 Trần Cao Vân, Xuân Hà, Thanh Khê, Đà Nẵng 550000, Vietnam"
Family Hospital,Bệnh viện,16.0539192,108.2090795,"73 Nguyễn Hữu Thọ, Hòa Thuận Nam, Hải Châu, Đà Nẵng 550000, Vietnam"
Bệnh viện Đa khoa Tâm Trí Đà Nẵng,Bệnh viện,16.022906499999998,108.21421529999999,"64 Cách Mạng Tháng 8, Khuê Trung, Cẩm Lệ, Đà Nẵng, Vietnam"
Da Nang Traditional Medicine Hospital,Bệnh viện,16.005667199999998,108.21068369999999,"77 Đinh Gia Trinh, Hoà Châu, Cẩm Lệ, Đà Nẵng 550000, Vietnam"
Da Nang C Hospital,Bệnh viện,16.0725819,108.2165749,"122 Hải Phòng, Thạch Thang, Hải Châu, Đà Nẵng 550000, Vietnam"
Bệnh viện Đa Khoa quận Cẩm Lệ,Bệnh viện,16.0093286,108.1955248,"105 Đ. Nguyễn Nhàn, Hòa Thọ Đông, Cẩm Lệ, Đà Nẵng 550000, Vietnam"
Bệnh viện đa khoa Hải Châu,Bệnh viện,16.0765434,108.21406479999999,"38 Cao Thắng, Thanh Bình, Hải Châu, Đà Nẵng 550000, Vietnam"
Da Nang Hospital for Women and Children,Bệnh viện,16.0230078,108.2497568,"402 Đ. Lê Văn Hiến, Khuê Mỹ, Ngũ Hành Sơn, Đà Nẵng, Vietnam"
Bệnh viện Mắt thành phố Đà Nẵng,Bệnh viện,16.037357,108.2196975,"68 Phan Đăng Lưu, Hoà Cường Bắc, Hải Châu, Đà Nẵng, Vietnam"
Da Nang Dermatology & Venereology Hospital,Bệnh viện,16.0740809,108.1764541,"91 Đ. Dũng Sĩ Thanh Khê, Thanh Khê Tây, Thanh Khê, Đà Nẵng, Vietnam"
199 Hospital,Bệnh viện,16.065579,108.2361258,"216 Nguyễn Công Trứ, An Hải Bắc, Sơn Trà, Đà Nẵng 550000, Vietnam"
Da Nang Psychiatric Hospital,Bệnh viện,16.0797175,108.1469532,"193 Nguyễn Lương Bằng, Hoà Khánh Bắc, Liên Chiểu, Đà Nẵng 550000, Vietnam"
Traditional Medicine Hospital Da Nang City (Facility 2),Bệnh viện,16.066068299999998,108.2219736,"51 Trần Quốc Toản, Phước Ninh, Hải Châu, Đà Nẵng 50000, Vietnam"
Orthopedic and physical rehabilitation hospital of Danang,Bệnh viện,16.0740196,108.21728519999999,"95 Quang Trung, Thạch Thang, Hải Châu, Đà Nẵng 550000, Vietnam"
Ngu Hanh Son District Hospital,Bệnh viện,16.0085411,108.25769989999999,"582 Đ. Lê Văn Hiến, Hoà Hải, Ngũ Hành Sơn, Đà Nẵng 550000, Vietnam"
Thiện Nhân Hospital,Bệnh viện,16.0765671,108.21556939999999,"276-278-280 Đống Đa, Thanh Bình, Hải Châu, Đà Nẵng 550000, Vietnam"
Rehabilitation Hospital of Danang,Bệnh viện,16.0058236,108.209409,"79 Đinh Gia Trinh, Hoà Châu, Hòa Vang, Đà Nẵng 550000, Vietnam"
Dong A University,Trường đại học,16.0320289,108.2213025,"33 Xô Viết Nghệ Tĩnh, Hòa Cường, Hải Châu, Đà Nẵng 550000, Vietnam"
University of Economics - The University of Đà Nẵng,Trường đại học,16.0473935,108.2394734,"71 Ngũ Hành Sơn, Bắc Mỹ An, Ngũ Hành Sơn, Đà Nẵng 550000, Vietnam"
Đại học Đà Nẵng,Trường đại học,16.0710251,108.2201228,"41 Lê Duẩn, Hải Châu, Đà Nẵng 550000, Vietnam"
Duy Tan University,Trường đại học,16.0599416,108.2097422,"254 Nguyễn Văn Linh, Thạc Gián, Thanh Khê, Đà Nẵng 550000, Vietnam"
University of Technology and Education - University of Đà Nẵng,Trường đại học,16.0773428,108.2134243,"48 Cao Thắng, Thanh Bình, Hải Châu, Đà Nẵng 550000, Vietnam"
University of Science and Education - The University of Danang,Trường đại học,16.0616474,108.15912399999999,"459 Tôn Đức Thắng, Hoà Khánh Nam, Liên Chiểu, Đà Nẵng 550000, Vietnam"
Danang Architecture University,Trường đại học,16.0321875,108.2220601,"566 Núi Thành, Hoà Cường Nam, Hải Châu, Đà Nẵng 52018, Vietnam"
University of Foreign Language Studies - University of Đà Nẵng,Trường đại học,16.034582399999998,108.2116631,"131 Lương Nhữ Hộc, Khuê Trung, Cẩm Lệ, Đà Nẵng 550000, Vietnam"
Da Nang University of Science and Technology,Trường đại học,16.0736606,108.149869,"54 Nguyễn Lương Bằng, Hoà Khánh Bắc, Liên Chiểu, Đà Nẵng 550000, Vietnam"
Da Nang University of Medical Technology and Pharmacy,Trường đại học,16.0674886,108.21846749999999,"99 Hùng Vương, Hải Châu, Đà Nẵng 550000, Vietnam"
Duy Tân University,Trường đại học,16.0746492,108.22287539999999,"3 Quang Trung, Hải Châu, Đà Nẵng 550000, Vietnam"
Vietnam - Korea University of Information and Communication Technology,Trường đại học,15.975260299999999,108.253227,"470 Trần Đại Nghĩa, Hoà Hải, Ngũ Hành Sơn, Đà Nẵng 550000, Vietnam"
Trung Tâm Đại Học Mở Hà Nội Tại Đà Nẵng,Trường đại học,16.078359799999998,108.20973629999999,"295 Nguyễn Tất Thành, Thanh Bình, Hải Châu, Đà Nẵng 550000, Vietnam"
Trường Đại Học Mỏ Địa Chất - Văn phòng đại diện tại Đà Nẵng,Trường đại học,16.032491399999998,108.22707469999999,"26JG+XRW, Nguyễn Lộ Trạch, Hoà Cường Nam, Hải Châu, Đà Nẵng, Vietnam"
Danang Professional Training College,Trường đại học,16.059949,108.2438737,"99 Tô Hiến Thành, An Hải, Sơn Trà, Đà Nẵng 550000, Vietnam"
Greenwich Việt Nam,Trường đại học,16.082228699999998,108.2359371,"658 Ng. Quyền, An Hải, Sơn Trà, Đà Nẵng 550000, Vietnam"
"Viện Nghiên cứu và Đào tạo Việt - Anh, Đại học Đà Nẵng",Trường đại học,16.0710342,108.2202532,"158a Lê Lợi, Hải Châu, Đà Nẵng 550000, Vietnam"
Đại học Duy Tân - cơ sở 4,Trường đại học,16.0603721,108.2155037,"137 Nguyễn Văn Linh, P, Hải Châu, Đà Nẵng 084236, Vietnam"
Danang Vocational Tourism College,Trường đại học,15.977144299999999,108.2577007,"Nam Kỳ Khởi Nghĩa, Tổ 69, Ngũ Hành Sơn, Đà Nẵng 550000, Vietnam"
Faculty of Physical Education - UD,Trường đại học,16.0738374,108.15284589999999,"Quầy 21, 62 Đ. Ng. Sĩ Liên, Hoà Khánh Bắc, Liên Chiểu, Đà Nẵng 550000, Vietnam"
Con Market,Chợ,16.0677927,108.21448339999999,"90 Hùng Vương, Hải Châu, Đà Nẵng 550000, Vietnam"
Bac My An Market,Chợ,16.0415773,108.24226639999999,"25 Nguyễn Bá Lân, Bắc Mỹ An, Ngũ Hành Sơn, Đà Nẵng 550000, Vietnam"
Chợ Đống Đa,Chợ,16.0813701,108.2171915,"42 Lương Ngọc Quyến, Thuận Phước, Hải Châu, Đà Nẵng 550000, Vietnam"
Chợ Hà Thân,Chợ,16.0646977,108.23113869999999,"367J+RFR, 01 Triệu Việt Vương, An Hải Trung, Sơn Trà, Đà Nẵng 550000, Vietnam"
Han Market,Chợ,16.0681959,108.2242217,"119 Trần Phú, Hải Châu, Đà Nẵng 550000, Vietnam"
Chợ Chiều,Chợ,16.0918092,108.2442679,"Mân Thái, Sơn Trà, Đà Nẵng, Vietnam"
Chợ Hòa Cường,Chợ,16.0428417,108.21769599999999,"Lê Thanh Nghị, Hoà Cường Bắc, Hải Châu, Đà Nẵng 550000, Vietnam"
Chợ Tân Chính,Chợ,16.0705617,108.20706249999999,"K 383 Hải Phòng, Chính Gián, Thanh Khê, Đà Nẵng 550000, Vietnam"
Chợ An Hải Đông,Chợ,16.0564063,108.2387279,"K 38 Lê Hữu Trác, An Hải Đông, Sơn Trà, Đà Nẵng 550000, Vietnam"
Chợ Đầu mối Thủy sản Thọ Quang,Chợ,16.097270599999998,108.2401295,"20 Vân Đồn, Thọ Quang, Sơn Trà, Đà Nẵng, Vietnam"
Market Nguyen Tri Phuong,Chợ,16.0426103,108.21202319999999,"Nguyễn Quang Bích, Hoà Cường Bắc, Hải Châu, Đà Nẵng 550000, Vietnam"
Chợ Trời (Flea Market),Chợ,16.0662395,108.21622789999999,"35b Triệu Nữ Vương, Hải Châu, Đà Nẵng 550000, Vietnam"
Man Thai Market,Chợ,16.0855916,108.2432216,"36PV+55Q, Đ. Trần Duy Chiến, Mân Thái, Sơn Trà, Đà Nẵng 550000, Vietnam"
Chợ chính gián,Chợ,16.068401299999998,108.195467,"197-4 Thái Thị Bôi, Chính Gián, Thanh Khê, Đà Nẵng 550000, Vietnam"
Nai Hien Market,Chợ,16.0597162,108.2221998,"17 Trưng Nữ Vương, Phước Ninh, Hải Châu, Đà Nẵng 550000, Vietnam"
Thanh Binh Market,Chợ,16.0766635,108.2114218,"Ông Ích Khiêm, Thanh Bình, Hải Châu, Đà Nẵng 550000, Vietnam"
Chợ Cẩm Lệ,Chợ,16.0137976,108.2069944,"Hoàng Xuân Hãn, Khuê Trung, Cẩm Lệ, Đà Nẵng 550000, Vietnam"
Chợ Trần Đình Tri,Chợ,16.0851835,108.1582737,"35P5+38C, Kiệt 164 Nguyễn Chánh, Hoà Minh, Liên Chiểu, Đà Nẵng 550000, Vietnam"
Tam Thuan Market,Chợ,16.0716617,108.2051956,"95 Trần Cao Vân, Xuân Hà, Thanh Khê, Đà Nẵng 550000, Vietnam"
Quán Hộ Market,Chợ,16.0700407,108.1872808,"358P+X4G, 135 Kỳ Đồng, Thanh Khê Đông, Thanh Khê, Đà Nẵng, Vietnam"
Khanh Hoa general hospital,Bệnh viện,12.2486073,109.19185549999999,"19 Yersin, Lộc Thọ, Nha Trang, Khánh Hòa 650000, Vietnam"
Vinmec Nha Trang International Hospital,Bệnh viện,12.212712699999999,109.2107881,"Vĩnh Nguyên, Nha Trang, Khánh Hòa 650000, Vietnam"
Tam Tri Nha Trang General Hospital,Bệnh viện,12.212631199999999,109.195028,"57-59 Cao Thắng, Phường Nam, Nha Trang, Khánh Hòa 57131, Vietnam"
Sai Gon Nha Trang General Hospital,Bệnh viện,12.257773199999999,109.1689914,"Lô 10 19 Tháng 5, KDC Vĩnh Điềm, Nha Trang, Khánh Hòa 650000, Vietnam"
Bệnh Viện Bệnh Nhiệt Đới Khánh Hòa,Bệnh viện,12.257673599999999,109.10914,"Diên An, Diên Khánh, Khánh Hòa, Vietnam"
Center Health Services - Hospital Khanh Hoa Province,Bệnh viện,12.2488961,109.1926345,"19 Yersin, Lộc Thọ, Nha Trang, Khánh Hòa 650000, Vietnam"
Yersin Nha Trang General Hospital,Bệnh viện,12.2384164,109.165523,"Đường số 20, Vĩnh Thái, Nha Trang, Khánh Hòa, Vietnam"
22-12 Hospital,Bệnh viện,12.236387599999999,109.1928792,"34/4 Nguyễn Thiện Thuật, Tân Tiến, Nha Trang, Khánh Hòa 650000, Vietnam"
Khánh Hòa Lung Hospital,Bệnh viện,12.277648,109.1878062,"159/1 Đường Nguyễn Khuyến, Phường Bắc, Nha Trang, Khánh Hòa 650000, Vietnam"
Khanh Hoa Venero Dermatology Hospital,Bệnh viện,12.2784479,109.1840148,"229 Đường Nguyễn Khuyến, Phường Bắc, Nha Trang, Khánh Hòa, Vietnam"
Military Hospital 87,Bệnh viện,12.230567599999999,109.1948802,"148 Nguyễn Thiện Thuật, phường, Nha Trang, Khánh Hòa 650000, Vietnam"
Ninh Hoa Town Hospital,Bệnh viện,12.5088732,109.13719929999999,"Mười Sáu Tháng Bảy, TT. Ninh Hòa, Ninh Hòa, Khánh Hòa, Vietnam"
Bệnh viện Đa Khoa khu vực Cam Ranh,Bệnh viện,11.920158899999999,109.1445854,"97 Nguyễn Thái Học, Cam Lộc, Cam Ranh, Khánh Hòa, Vietnam"
Saigon Eye Hospital - Nha Trang,Bệnh viện,12.255619,109.16124049999999,"Đ. 23 Tháng 10, Vĩnh Hiệp, Nha Trang, Khánh Hòa, Vietnam"
Traditional Medicine Hospital and Rehabilitation Khanh Hoa,Bệnh viện,12.2724655,109.2034316,"Phạm Văn Đồng, Vĩnh Phước, Nha Trang, Khánh Hòa 650000, Vietnam"
Khanh Hoa Oncology Hospital,Bệnh viện,12.278534899999999,109.1818325,"229 Đường Nguyễn Khuyến, Tổ 14 Tây Nam, Nha Trang, Khánh Hòa 57000, Vietnam"
Khoa Cấp Cứu-Bệnh viện Đa khoa tỉnh Khánh Hòa,Bệnh viện,12.249027,109.1917331,"Khu A, 19 Yersin, Lộc Thọ, Nha Trang, Khánh Hòa 650000, Vietnam"
Dien Khanh General Hospital,Bệnh viện,12.271056399999999,109.11117,"74C6+GC8, Bệnh viện khu vực Diên Khánh, Thôn Đông 1, Diên Khánh, Khánh Hòa, Vietnam"
Specialty Mental Hospital Khanh Hoa.,Bệnh viện,12.2593844,109.0415963,"Diên Phước, Diên Khánh, Khánh Hòa, Vietnam"
Dự án Bệnh viện Đa khoa tỉnh Khánh Hoà mới,Bệnh viện,12.226967799999999,109.1668658,"65H8+XH, Vĩnh Thái, Nha Trang, Khánh Hòa, Vietnam"
Nha Trang University,Trường đại học,12.2681437,109.20237589999999,"2 Đ. Nguyễn Đình Chiểu, Vĩnh Thọ, Nha Trang, Khánh Hòa 650000, Vietnam"
Khanh Hoa College,Trường đại học,12.2455038,109.1955155,"1 Đ. Nguyễn Chánh, Lộc Thọ, Nha Trang, Khánh Hòa 650000, Vietnam"
Tôn Đức Thắng University,Trường đại học,12.2710452,109.20399289999999,"22 Đ. Nguyễn Đình Chiểu, Vĩnh Phước, Nha Trang, Khánh Hòa 650000, Vietnam"
Telecommunications University,Trường đại học,12.283545,109.199376,"101 Mai Xuân Thưởng, Vĩnh Hải, Nha Trang, Khánh Hòa 650000, Vietnam"
Khanh Hoa College 2,Trường đại học,12.277884,109.202063,"58 Phạm Văn Đồng, Vĩnh Hải, Nha Trang, Khánh Hòa 650000, Vietnam"
Thai Binh Duong University,Trường đại học,12.2855441,109.18041249999999,"79 Đường Mai Thị Dõng, Vĩnh Ngọc, Nha Trang, Khánh Hòa, Vietnam"
Trường Dân tộc nội trú,Trường đại học,12.235622999999999,109.1939428,"46 Nguyễn Thiện Thuật, Tân Tiến, Nha Trang, Khánh Hòa 650000, Vietnam"
Xom Moi Market,Chợ,12.242762299999999,109.19043029999999,"49 Ngô Gia Tự, Tân Tiến, Nha Trang, Khánh Hòa 650000, Vietnam"
Dam Market,Chợ,12.2549514,109.1918164,"Đường Đ. Phan Bội Châu, Vạn Thạnh, Nha Trang, Khánh Hòa 650000, Vietnam"
Vinh Hai Market,Chợ,12.2790521,109.1945746,"Hai Tháng Tư, Vĩnh Hải, Nha Trang, Khánh Hòa 650000, Vietnam"
Thanh Market,Chợ,12.2577261,109.1001218,"36 Đ. Trần Quý Cáp, Diên Khánh, Khánh Hòa, Vietnam"
Chợ Hải Sản Cảng Vĩnh Lương,Chợ,12.335027199999999,109.2041175,"190 Phạm Văn Đồng, Vĩnh Lương, Nha Trang, Khánh Hòa, Vietnam"
Night Market Nha Trang,Chợ,12.2397172,109.19644219999999,"Trần Phú, Lộc Thọ, Nha Trang, Khánh Hòa 650000, Vietnam"
Vinh Luong market,Chợ,12.336743499999999,109.1953446,"85PW+M4X, QL1A, Vĩnh Lương, Nha Trang, Khánh Hòa, Vietnam"
Chợ Gò Đình,Chợ,12.263998299999999,109.09200299999999,"737R+HRR, Trần Quang Khải, Diên Khánh, Khánh Hòa, Vietnam"
Ninh Hoa Market (New),Chợ,12.4932742,109.12710949999999,"TT. Ninh Hòa, Ninh Hòa, Khánh Hòa, Vietnam"
Chợ Tô Hạp,Chợ,12.0072124,108.9487839,"đường Lạc Long Quân, tt trấn, Khánh Sơn, Khánh Hòa, Vietnam"
Cho Tu Bong,Chợ,12.7775477,109.3125366,"Q8H7+227, Hai tháng Chín, Vạn Phước, Vạn Ninh, Khánh Hòa, Vietnam"
Chợ Ninh Diêm,Chợ,12.537564099999999,109.2160035,"chợ Ninh Diêm, Ninh Diên, Ninh Hòa, Khánh Hòa, Vietnam"
Chợ Ba làng,Chợ,12.289577999999999,109.204284,"150 Ba Làng, Vĩnh Hải, Nha Trang, Khánh Hòa, Vietnam"
Hon Ro Market,Chợ,12.2001671,109.19385799999999,"652V+3G9, Phước Đồng, Nha Trang, Khánh Hòa, Vietnam"
Chợ suối tân,Chợ,12.1600333,109.0758601,"536G+289, Lê Nghị, Vĩnh Hòa, Nha Trang, Khánh Hòa, Vietnam"
Chợ Vĩnh Trường,Chợ,12.206125,109.20109409999999,"Hẻm 56 Võ Thị Sáu, Vĩnh Trường, Nha Trang, Khánh Hòa, Vietnam"
Chợ Phương Sơn,Chợ,12.253364999999999,109.1820357,"09 Đường Bến cá, Street, Nha Trang, Khánh Hòa 650000, Vietnam"
Ga market,Chợ,12.258300799999999,109.1495434,"745X+8RF, Vĩnh Thạnh, Nha Trang, Khánh Hòa, Vietnam"
Chợ Lầu,Chợ,12.2336785,109.1977132,"65MX+F3G, Trần Phú, Lộc Thọ, Nha Trang, Khánh Hòa 650000, Vietnam"
Chợ Vạn Khánh,Chợ,12.770879599999999,109.3028659,"Q8C3+945, Vạn Khánh, Vạn Ninh, Khánh Hòa, Vietnam"
Dong Nai General Hospital,Bệnh viện,10.9526833,106.86786099999999,"2 Đ. Đồng Khởi, Bình Đa, Biên Hòa, Đồng Nai, Vietnam"
Dong Nai Hospital - 2,Bệnh viện,10.951314,106.8672943,"2 Đ. Đồng Khởi, P, Biên Hòa, Đồng Nai 810000, Vietnam"
Dong Nai Thong Nhat General Hospital,Bệnh viện,10.967773399999999,106.9002093,"234 QL1A, Tân Biên, Biên Hòa, Đồng Nai, Vietnam"
Bệnh Viện Thuận Mỹ ITO Đồng Nai,Bệnh viện,10.9478381,106.8287847,"F99 Đ. Võ Thị Sáu, Thống Nhất, Biên Hòa, Đồng Nai 76108, Vietnam"
Hoan My Dong Nai Hospital,Bệnh viện,10.9581898,106.84723699999999,"1048A Phạm Văn Thuận, Tân Mai, Biên Hòa, Đồng Nai, Vietnam"
Au Co Hospital,Bệnh viện,10.9628148,106.8870247,"47/19A đường Điểu Xiển, KP5B, Biên Hòa, Đồng Nai, Vietnam"
Đồng Nai Rubber Hospital,Bệnh viện,10.9457556,107.2102553,"W6W6+842, Suối Tre, Long Khánh, Đồng Nai, Vietnam"
Dong Nai Lung Hospital,Bệnh viện,10.8754786,106.9190754,"VWG9+5JW, Phước Tân, Biên Hòa, Đồng Nai, Vietnam"
Bệnh viện Đại học Y dược Shing Mark,Bệnh viện,10.8964825,106.8632399,"1054 QL51, Khu pho I, Biên Hòa, Đồng Nai 810000, Vietnam"
Long Khanh Regional General Hospital,Bệnh viện,10.9403729,107.215291,"911 21/4, Suối Tre, Long Khánh, Đồng Nai, Vietnam"
Dong Nai Children's Hospital,Bệnh viện,10.9561978,106.87435669999999,"XLHN, Khu Phố 5, Biên Hòa, Đồng Nai, Vietnam"
Hospital Tam Hong Phuoc,Bệnh viện,10.970277,106.8665608,"148A Nguyễn Ái Quốc, Trảng Dài, Biên Hòa, Đồng Nai, Vietnam"
Nhơn Trạch District General Hospital,Bệnh viện,10.7268251,106.8843703,"PVGM+PPQ, Nguyễn Hữu Cảnh, Phú Hội, Nhơn Trạch, Đồng Nai, Vietnam"
Bệnh viện đa khoa Tp. Biên Hoà,Bệnh viện,10.95284,106.85260129999999,"98/487, Kp2, Đồng Nai, Vietnam"
Hospital of Long Thanh district,Bệnh viện,10.793386199999999,106.9483161,"Lý Thái Tổ, Long Thành, Đồng Nai, Vietnam"
Dermatology Hospital of Dong Nai Province,Bệnh viện,11.000963599999999,106.85095849999999,"2V22+4F4, 1490 Đ. Đồng Khởi, khu phố 3, Biên Hòa, Đồng Nai, Vietnam"
7B Military Hospital,Bệnh viện,10.9658725,106.8525375,"XV83+82V, Nguyễn Ái Quốc, Tân Mai, Biên Hòa, Đồng Nai, Vietnam"
Bệnh Viện Đa Khoa Nhi Sài Gòn - Chi Nhánh Tại Đồng Nai,Bệnh viện,10.9603532,106.8483787,"185 Đ. Phan Trung, P, Biên Hòa, Đồng Nai, Vietnam"
Dong Nai University,Trường đại học,10.9585273,106.8621204,"4 Lê Quý Đôn, P, Biên Hòa, Đồng Nai, Vietnam"
Dong Nai University of Technology,Trường đại học,10.984400599999999,106.86873469999999,"Đ. Nguyễn Khuyến, Khu Phố 5, Biên Hòa, Đồng Nai, Vietnam"
"Lac Hong University, Campus 1",Trường đại học,10.9530222,106.8022549,"10 Huỳnh Văn Nghệ, Bửu Long, Biên Hòa, Đồng Nai, Vietnam"
Trường Đại học Đồng Nai cơ sở 3,Trường đại học,10.9346236,106.8616358,"35 4, Bình Đa, Biên Hòa, Đồng Nai, Vietnam"
Lac Hong University base 3,Trường đại học,10.9636286,106.78818059999999,"XQ7Q+F73, Huỳnh Văn Nghệ, Bửu Long, Biên Hòa, Đồng Nai, Vietnam"
"Lac Hong University, Campus 2",Trường đại học,10.9550497,106.8020956,"15/3B Huỳnh Văn Nghệ, P, Biên Hòa, Đồng Nai, Vietnam"
Lac Hong University,Trường đại học,10.9627201,106.78950239999999,"10 Huỳnh Văn Nghệ, Bửu Long, Biên Hòa, Đồng Nai, Vietnam"
Eastern University of Technology,Trường đại học,10.9431012,107.1608325,"Khu Trần Hưng Đạo, Xuân Thạnh, Thống Nhất, Đồng Nai 813847, Vietnam"
Vietnam National University of Forestry at Dongnai,Trường đại học,10.9466088,106.99677369999999,"98 Trần Phú, TT. Tràng Bỏm, Trảng Bom, Đồng Nai, Vietnam"
Bien Hoa Market,Chợ,10.9464481,106.81442469999999,"30-32 Nguyễn Văn Trị, Trung Dũng, Biên Hòa, Đồng Nai, Vietnam"
Phu Su Market,Chợ,11.0893903,107.2109292,"QL20, Ấp chợ, Định Quán, Đồng Nai, Vietnam"
Sặt Market,Chợ,10.968694,106.88906379999999,"XV9Q+FJF, QL1A, Tân Biên, Tp. Biên Hòa, Đồng Nai, Vietnam"
Long Khanh Market,Chợ,10.93747,107.24083279999999,"Hùng Vương, Xuân An, Long Khánh, Đồng Nai, Vietnam"
Suoi Nho Market,Chợ,11.040732199999999,107.2814504,"ĐT763, Suối Nho, Định Quán, Đồng Nai, Vietnam"
Phan Boi Chau Market,Chợ,10.933517799999999,107.13765099999999,"Chợ Phan Bội Châu, Đồng nai, Thống Nhất, Đồng Nai, Vietnam"
Quang Bien Market,Chợ,10.9491167,106.9896567,"WXXQ+JVV, QL1A, Quảng Tiến, Trảng Bom, Đồng Nai, Vietnam"
Tam Hoa Market,Chợ,10.9422274,106.8641548,"Hồ Văn Thể, Bình Đa, Biên Hòa, Đồng Nai, Vietnam"
An Chu Market,Chợ,10.963013199999999,106.94775399999999,"XW7X+642, An chu, Trảng Bom, Đồng Nai, Vietnam"
Phuong Lam Market,Chợ,11.2850807,107.48897679999999,"Ấp Phương Mai 1, Phú Lâm, Tân Phú, Đồng Nai, Vietnam"
Tan Bien Market,Chợ,10.9675318,106.8889578,"129 QL1A, Tân Biên, Biên Hòa, Đồng Nai, Vietnam"
Chợ Hóa An,Chợ,10.935545999999999,106.8043036,"WRP3+6P7, Hoà An, Biên Hòa, Đồng Nai, Vietnam"
Tan Mai 2 Market,Chợ,10.8747058,106.9103619,"VWF6+R68, 30 QL51, Phước Tân, Biên Hòa, Đồng Nai, Vietnam"
Phu Cuong Market,Chợ,11.088019,107.1836696,"35QM+6F3, QL20, Phú Cường, Định Quán, Đồng Nai, Vietnam"
Long Binh Tan Market,Chợ,10.9035212,106.8506661,"WV32+C73, QL51, Long Bình Tân, Biên Hòa, Đồng Nai, Vietnam"
Doc Mo Market,Chợ,11.059529,107.1684387,"QL20, Gia Tân 1, Thống Nhất, Đồng Nai, Vietnam"
Xuan My Market,Chợ,10.7763637,107.2434517,"Q6GV+G9W, ĐT764, Xuân Mỹ, Cẩm Mỹ, Đồng Nai, Vietnam"
Trang Dai Market,Chợ,10.9834939,106.8616107,"Trần Văn Xã Tổ 11, Khu phố 2, Biên Hòa, Đồng Nai, Vietnam"
Tan Hanh Market,Chợ,10.9563782,106.7834312,"XQ4M+H93, Đường Bùi Hữu Nghĩa, Tân Hạnh, Biên Hòa, Đồng Nai, Vietnam"
Chợ Vĩnh An,Chợ,11.0859937,107.03301529999999,"32PM+96R, ĐT767, TT. Vĩnh An, Vĩnh Cửu, Đồng Nai, Vietnam"
Bệnh viện Đa khoa Quốc tế Green,Bệnh viện,20.8421341,106.66246299999999,"738 Nguyễn Văn Linh, Niệm Nghĩa, Lê Chân, Hải Phòng, Vietnam"
Vinmec Hai Phong International hospital,Bệnh viện,20.8231154,106.6878323,"Vĩnh Niệm, Lê Chân, Hải Phòng, Vietnam"
Hospital Haiphong Medical University,Bệnh viện,20.8370094,106.69594649999999,"225c Lạch Tray, Đổng Quốc Bình, Ngô Quyền, Hải Phòng, Vietnam"
Bệnh Viện Đa Khoa Quốc Tế,Bệnh viện,20.8529627,106.672705,"124 P. Nguyễn Đức Cảnh, Cát Dài, Lê Chân, Hải Phòng, Vietnam"
Hong Phuc Hospital,Bệnh viện,20.8627307,106.68570539999999,"5 P. Hồ Xuân Hương, Minh Khai, Hồng Bàng, Hải Phòng 180000, Vietnam"
Vietnam - Czechia Friendship Hospital,Bệnh viện,20.8521479,106.6723426,"1 P. Nhà Thương, An Biên, Lê Chân, Hải Phòng, Vietnam"
Hospital Le Chan,Bệnh viện,20.8508736,106.68045939999999,"VM2J+85W, P. Tô Hiệu, Trại Cau, Lê Chân, Hải Phòng, Vietnam"
Ngo Quyen Hospital,Bệnh viện,20.8602575,106.69493329999999,"21 P. Lê Lợi, Máy Tơ, Ngô Quyền, Hải Phòng, Vietnam"
Bệnh Viện Đa Khoa Quận Hồng Bàng,Bệnh viện,20.8585361,106.6800208,"34 P. Kỳ Đồng, Quang Trung, Hồng Bàng, Hải Phòng 180000, Vietnam"
Hai Phong Children's Hospital,Bệnh viện,20.8313931,106.66103149999999,"Việt Đức, phường, Kiến An, Hải Phòng, Vietnam"
Hai Phong hospital of obstetrics and gynecology,Bệnh viện,20.859758,106.6829937,"19 P. Trần Quang Khải, Hoàng Văn Thụ, Hồng Bàng, Hải Phòng, Vietnam"
Kien An Hospital,Bệnh viện,20.7995333,106.6241486,"35 Trần Tất Văn, Phù Liễn, Kiến An, Hải Phòng, Vietnam"
Navy Medical Institute,Bệnh viện,20.8224697,106.6984051,"13 Phạm Văn Đồng, Anh Dũng, Dương Kinh, Hải Phòng, Vietnam"
Bệnh viện Đa khoa Quốc tế Hải Phòng - Vĩnh Bảo,Bệnh viện,20.6842497,106.4813947,"QL10/12 Phố Tân Hòa, Nhân Hoà, Vĩnh Bảo, Hải Phòng, Vietnam"
Hospital Transportation,Bệnh viện,20.8684346,106.6424895,"40 Hùng Vương, Hồng Bàng, Hải Phòng, Vietnam"
Bệnh viện Hữu nghị Việt Tiệp - Cơ sở 2,Bệnh viện,20.8519403,106.64250679999999,"VJ2V+Q2C, An Đông, An Dương, Hải Phòng, Vietnam"
BV YHCT Hải Phòng,Bệnh viện,20.8522462,106.642292,"An Đông, An Dương, Hải Phòng, Vietnam"
Hong Duc Hospital,Bệnh viện,20.8142052,106.6216616,"136 P. Hoàng Quốc Việt, Ngọc Sơn, Kiến An, Hải Phòng, Vietnam"
Vietnam - Russia International Eye Hospital - Hai Phong,Bệnh viện,20.8336881,106.6717584,"739 Nguyễn Văn Linh, Vĩnh Niệm, Lê Chân, Hải Phòng, Vietnam"
Bệnh viện đa khoa Gold Star,Bệnh viện,20.863215999999998,106.6807831,"Số 6 P. Nguyễn Tri Phương, Minh Khai, Hồng Bàng, Hải Phòng, Vietnam"
Hai Phong University,Trường đại học,20.8072865,106.62390099999999,"171 Phan Đăng Lưu, Trần Thành Ngọ, Kiến An, Hải Phòng, Vietnam"
Đại học Quản lý và Công nghệ Hải Phòng,Trường đại học,20.8384268,106.68791139999999,"36 Đ. Dân Lập, Dư Hàng Kênh, Lê Chân, Hải Phòng 180000, Vietnam"
Chợ Cát Bi,Chợ,20.824521,106.7111381,"P. Cát Bi, Cát Bi, Hải An, Hải Phòng 04800, Vietnam"
Chợ Phương Lưu - Chợ Hải Tẹo,Chợ,20.8599246,106.7136262,"26B9 Tập thể Phương Lưu, Vạ Mỹ, Ngô Quyền, Hải Phòng, Vietnam"
Chợ đầu mối Hải Phòng,Chợ,20.8693953,106.6610426,"52 Đ. Hùng Vương, Sở Dầu, Hồng Bàng, Hải Phòng, Vietnam"
Chợ Cố Đạo,Chợ,20.8557718,106.683708,"78 P. Trần Nhật Duật, Cầu Đất, Ngô Quyền, Hải Phòng 180000, Vietnam"
Cầu Tre Market,Chợ,20.8612236,106.7039044,"246 P. Đà Nẵng, Cầu Tre, Ngô Quyền, Hải Phòng, Vietnam"
Chợ Con,Chợ,20.8504336,106.6843877,"Ng. 229 P. Hàng Kênh, Trại Cau, Lê Chân, Hải Phòng, Vietnam"
Nam Cau Binh Wholesale Market,Chợ,20.870421399999998,106.6596012,"VMC5+5R9, Sở Dầu, Hồng Bàng, Hải Phòng, Vietnam"
Chợ Tràng Cát,Chợ,20.823295899999998,106.7398614,"1373 Ngô Gia Tự, Nam Hải, Hải An, Hải Phòng, Vietnam"
Chợ Lương Văn Can,Chợ,20.8603175,106.69321599999999,"3 P. Lương Văn Can, Máy Tơ, Ngô Quyền, Hải Phòng, Vietnam"
Chợ Ga,Chợ,20.8552706,106.6845702,"VM4M+4R4, P. Nguyễn Khuyến, Cầu Đất, Ngô Quyền, Hải Phòng, Vietnam"
Chợ Cột Đèn,Chợ,20.847703,106.6774298,"Cột đèn, Chợ, Dư Hàng, Lê Chân, Hải Phòng, Vietnam"
Chợ Sắt (chợ tạm),Chợ,20.836709199999998,106.6623702,"14 TL360, Quán Trữ, Kiến An, Hải Phòng, Vietnam"
Cau Rao market,Chợ,20.8283286,106.7021295,"52 P. Cát Bi, Cát Bi, Hải An, Hải Phòng, Vietnam"
Chợ Đôn Niệm,Chợ,20.8400317,106.66953989999999,"Số 1 phố P. Chợ Đôn, Vĩnh Niệm, Lê Chân, Hải Phòng 180000, Vietnam"
Chợ Lộ,Chợ,20.8743953,106.6398162,"51 Cam Lộ, Hùng Vương, Hồng Bàng, Hải Phòng, Vietnam"
Bach Mai Market,Chợ,20.8506116,106.6368413,"TL208, Đông Thái, An Dương, Hải Phòng, Vietnam"
Chợ Vạn Mỹ,Chợ,20.8613377,106.7090873,"317 P. Đà Nẵng, Vạ Mỹ, Ngô Quyền, Hải Phòng, Vietnam"
Chợ Cát Bi,Chợ,20.8245544,106.7111487,"Tổ 4 Thành Tô, Cát Bi, Hải An, Hải Phòng, Vietnam"
Chợ Đằng Lâm,Chợ,20.829012799999997,106.71110929999999,"614 Ngô Gia Tự, Đằng Lâm, Hải An, Hải Phòng, Vietnam"
Chợ Trại Chuối,Chợ,20.8577732,106.6623283,"57C74 Cử Bình, Trại Chuối, Hồng Bàng, Hải Phòng, Vietnam"
